<?xml version="1.0"?>
<osm version="0.6" upload="false" generator="uvmogr2osm">
<node id="-1" lat="45.558859887" lon="-122.706067672" visible="true"><tag k="addr:housenumber" v="3836"/><tag k="addr:postcode" v="97217"/><tag k="addr:city" v="Portland"/><tag k="addr:street" v="North Ballast Street"/></node>
<node id="-2" lat="45.558855429" lon="-122.706062364" visible="true"><tag k="addr:housenumber" v="3838"/><tag k="addr:postcode" v="97217"/><tag k="addr:city" v="Portland"/><tag k="addr:street" v="North Ballast Street"/></node>
<node id="-3" lat="45.569560327" lon="-122.713225232" visible="true"><tag k="addr:housenumber" v="6457"/><tag k="addr:postcode" v="97217"/><tag k="addr:city" v="Portland"/><tag k="addr:street" v="North Basin Avenue"/></node>
<node id="-4" lat="45.569556217" lon="-122.71323202" visible="true"><tag k="addr:housenumber" v="6458"/><tag k="addr:postcode" v="97217"/><tag k="addr:city" v="Portland"/><tag k="addr:street" v="North Basin Avenue"/></node>
<node id="-5" lat="45.547902528" lon="-122.718488778" visible="true"><tag k="addr:housenumber" v="3506"/><tag k="addr:postcode" v="97210"/><tag k="addr:city" v="Portland"/><tag k="addr:street" v="Northwest 35th Avenue"/></node>
<node id="-6" lat="45.547907498" lon="-122.71849772" visible="true"><tag k="addr:housenumber" v="3536"/><tag k="addr:postcode" v="97210"/><tag k="addr:city" v="Portland"/><tag k="addr:street" v="Northwest 35th Avenue"/></node>
<node id="-7" lat="45.541829185" lon="-122.714930633" visible="true"><tag k="addr:housenumber" v="3135"/><tag k="addr:postcode" v="97210"/><tag k="addr:city" v="Portland"/><tag k="addr:street" v="Northwest Industrial Street"/></node>
<node id="-8" lat="45.541836413" lon="-122.714932386" visible="true"><tag k="addr:housenumber" v="3139"/><tag k="addr:postcode" v="97210"/><tag k="addr:city" v="Portland"/><tag k="addr:street" v="Northwest Industrial Street"/></node>
<node id="-9" lat="45.541829212" lon="-122.714928678" visible="true"><tag k="addr:housenumber" v="3223"/><tag k="addr:postcode" v="97210"/><tag k="addr:city" v="Portland"/><tag k="addr:street" v="Northwest Industrial Street"/></node>
<node id="-10" lat="45.541830695" lon="-122.71587977" visible="true"><tag k="addr:housenumber" v="3241"/><tag k="addr:postcode" v="97210"/><tag k="addr:city" v="Portland"/><tag k="addr:street" v="Northwest Industrial Street"/></node>
<node id="-11" lat="45.541824203" lon="-122.715886308" visible="true"><tag k="addr:housenumber" v="3200"/><tag k="addr:postcode" v="97210"/><tag k="addr:city" v="Portland"/><tag k="addr:street" v="Northwest Luzon Street"/></node>
<node id="-12" lat="45.54293405" lon="-122.717980793" visible="true"><tag k="addr:housenumber" v="3445"/><tag k="addr:postcode" v="97210"/><tag k="addr:city" v="Portland"/><tag k="addr:street" v="Northwest Luzon Street"/></node>
<node id="-13" lat="45.542932596" lon="-122.717972702" visible="true"><tag k="addr:housenumber" v="3453"/><tag k="addr:postcode" v="97210"/><tag k="addr:city" v="Portland"/><tag k="addr:street" v="Northwest Luzon Street"/></node>
<node id="-14" lat="45.541856466" lon="-122.720595856" visible="true"><tag k="addr:housenumber" v="2711"/><tag k="addr:postcode" v="97210"/><tag k="addr:city" v="Portland"/><tag k="addr:street" v="Northwest St Helens Road"/></node>
<node id="-15" lat="45.541849872" lon="-122.720597915" visible="true"><tag k="addr:housenumber" v="2715"/><tag k="addr:postcode" v="97210"/><tag k="addr:city" v="Portland"/><tag k="addr:street" v="Northwest St Helens Road"/></node>
<node id="-16" lat="45.541852811" lon="-122.720595327" visible="true"><tag k="addr:housenumber" v="2717"/><tag k="addr:postcode" v="97210"/><tag k="addr:city" v="Portland"/><tag k="addr:street" v="Northwest St Helens Road"/></node>
<node id="-17" lat="45.552536207" lon="-122.7295068" visible="true"><tag k="addr:housenumber" v="4110"/><tag k="addr:postcode" v="97210"/><tag k="addr:city" v="Portland"/><tag k="addr:street" v="Northwest St Helens Road"/></node>
<node id="-18" lat="45.552787817" lon="-122.732194781" visible="true"><tag k="addr:housenumber" v="4301"/><tag k="addr:postcode" v="97210"/><tag k="addr:city" v="Portland"/><tag k="addr:street" v="Northwest St Helens Road"/></node>
<node id="-19" lat="45.553732468" lon="-122.732760594" visible="true"><tag k="addr:housenumber" v="4305"/><tag k="addr:postcode" v="97210"/><tag k="addr:city" v="Portland"/><tag k="addr:street" v="Northwest St Helens Road"/></node>
<node id="-20" lat="45.553725088" lon="-122.732759996" visible="true"><tag k="addr:housenumber" v="4307"/><tag k="addr:postcode" v="97210"/><tag k="addr:city" v="Portland"/><tag k="addr:street" v="Northwest St Helens Road"/></node>
<node id="-21" lat="45.552790405" lon="-122.732195895" visible="true"><tag k="addr:housenumber" v="4309"/><tag k="addr:postcode" v="97210"/><tag k="addr:city" v="Portland"/><tag k="addr:street" v="Northwest St Helens Road"/></node>
<node id="-22" lat="45.554147972" lon="-122.732153005" visible="true"><tag k="addr:housenumber" v="4320"/><tag k="addr:postcode" v="97210"/><tag k="addr:city" v="Portland"/><tag k="addr:street" v="Northwest St Helens Road"/></node>
<node id="-23" lat="45.547906115" lon="-122.718492147" visible="true"><tag k="addr:housenumber" v="3738"/><tag k="addr:postcode" v="97210"/><tag k="addr:city" v="Portland"/><tag k="addr:street" v="Northwest Yeon Avenue"/></node>
<node id="-24" lat="45.552536734" lon="-122.729509423" visible="true"><tag k="addr:housenumber" v="4285"/><tag k="addr:postcode" v="97210"/><tag k="addr:city" v="Portland"/><tag k="addr:street" v="Northwest Yeon Avenue"/></node>
<node id="-25" lat="45.553659079" lon="-122.731433716" visible="true"><tag k="addr:housenumber" v="4325"/><tag k="addr:postcode" v="97210"/><tag k="addr:city" v="Portland"/><tag k="addr:street" v="Northwest Yeon Avenue"/></node>
<node id="-26" lat="45.553657854" lon="-122.731427409" visible="true"><tag k="addr:housenumber" v="4331"/><tag k="addr:postcode" v="97210"/><tag k="addr:city" v="Portland"/><tag k="addr:street" v="Northwest Yeon Avenue"/></node>
<node id="-27" lat="45.553651048" lon="-122.731434381" visible="true"><tag k="addr:housenumber" v="4347"/><tag k="addr:postcode" v="97210"/><tag k="addr:city" v="Portland"/><tag k="addr:street" v="Northwest Yeon Avenue"/></node>
<node id="-28" lat="45.554142299" lon="-122.732150507" visible="true"><tag k="addr:housenumber" v="4461"/><tag k="addr:postcode" v="97210"/><tag k="addr:city" v="Portland"/><tag k="addr:street" v="Northwest Yeon Avenue"/></node>
<node id="-29" lat="45.555130992" lon="-122.731213237" visible="true"><tag k="addr:housenumber" v="4468"/><tag k="addr:postcode" v="97210"/><tag k="addr:city" v="Portland"/><tag k="addr:street" v="Northwest Yeon Avenue"/></node>
<node id="-30" lat="45.555129594" lon="-122.731212572" visible="true"><tag k="addr:housenumber" v="4472"/><tag k="addr:postcode" v="97210"/><tag k="addr:city" v="Portland"/><tag k="addr:street" v="Northwest Yeon Avenue"/></node>
<node id="-31" lat="45.521442972" lon="-122.710242548" visible="true"><tag k="addr:housenumber" v="2910"/><tag k="addr:postcode" v="97205"/><tag k="addr:city" v="Portland"/><tag k="addr:street" v="Southwest Canterbury Lane"/></node>
<node id="-32" lat="45.521438126" lon="-122.710242162" visible="true"><tag k="addr:housenumber" v="2930"/><tag k="addr:postcode" v="97205"/><tag k="addr:city" v="Portland"/><tag k="addr:street" v="Southwest Fairview Boulevard"/></node>
</osm>