<?xml version="1.0"?>
<osm version="0.6" upload="false" generator="uvmogr2osm">
<node id="-1" lat="45.584292838" lon="-122.692841469" visible="true"><tag k="addr:housenumber" v="2530"/><tag k="addr:postcode" v="97217"/><tag k="addr:city" v="Portland"/><tag k="addr:street" v="North Argyle Street"/></node>
<node id="-2" lat="45.58429111" lon="-122.692842554" visible="true"><tag k="addr:housenumber" v="2534"/><tag k="addr:postcode" v="97217"/><tag k="addr:city" v="Portland"/><tag k="addr:street" v="North Argyle Street"/></node>
<node id="-3" lat="45.584290923" lon="-122.692836017" visible="true"><tag k="addr:housenumber" v="2538"/><tag k="addr:postcode" v="97217"/><tag k="addr:city" v="Portland"/><tag k="addr:street" v="North Argyle Street"/></node>
<node id="-4" lat="45.583523287" lon="-122.700376775" visible="true"><tag k="addr:housenumber" v="3265"/><tag k="addr:postcode" v="97217"/><tag k="addr:city" v="Portland"/><tag k="addr:street" v="North Arlington Place"/></node>
<node id="-5" lat="45.583517819" lon="-122.70037776" visible="true"><tag k="addr:housenumber" v="3267"/><tag k="addr:postcode" v="97217"/><tag k="addr:city" v="Portland"/><tag k="addr:street" v="North Arlington Place"/></node>
<node id="-6" lat="45.583525485" lon="-122.701057207" visible="true"><tag k="addr:housenumber" v="3311"/><tag k="addr:postcode" v="97217"/><tag k="addr:city" v="Portland"/><tag k="addr:street" v="North Arlington Place"/></node>
<node id="-7" lat="45.58351974" lon="-122.701054456" visible="true"><tag k="addr:housenumber" v="3315"/><tag k="addr:postcode" v="97217"/><tag k="addr:city" v="Portland"/><tag k="addr:street" v="North Arlington Place"/></node>
<node id="-8" lat="45.583587516" lon="-122.702450309" visible="true"><tag k="addr:housenumber" v="3443"/><tag k="addr:postcode" v="97217"/><tag k="addr:city" v="Portland"/><tag k="addr:street" v="North Arlington Place"/></node>
<node id="-9" lat="45.580374575" lon="-122.694987943" visible="true"><tag k="addr:housenumber" v="7835"/><tag k="addr:postcode" v="97217"/><tag k="addr:city" v="Portland"/><tag k="addr:street" v="North Burrage Avenue"/></node>
<node id="-10" lat="45.58286318" lon="-122.694603354" visible="true"><tag k="addr:housenumber" v="8260"/><tag k="addr:postcode" v="97217"/><tag k="addr:city" v="Portland"/><tag k="addr:street" v="North Burrage Avenue"/></node>
<node id="-11" lat="45.578304538" lon="-122.698196633" visible="true"><tag k="addr:housenumber" v="7613"/><tag k="addr:postcode" v="97217"/><tag k="addr:city" v="Portland"/><tag k="addr:street" v="North Curtis Avenue"/></node>
<node id="-12" lat="45.57830791" lon="-122.698200469" visible="true"><tag k="addr:housenumber" v="7615"/><tag k="addr:postcode" v="97217"/><tag k="addr:city" v="Portland"/><tag k="addr:street" v="North Curtis Avenue"/></node>
<node id="-13" lat="45.582867763" lon="-122.694600215" visible="true"><tag k="addr:housenumber" v="2657"/><tag k="addr:postcode" v="97217"/><tag k="addr:city" v="Portland"/><tag k="addr:street" v="North Halleck Street"/></node>
<node id="-14" lat="45.582487754" lon="-122.698546907" visible="true"><tag k="addr:housenumber" v="3122"/><tag k="addr:postcode" v="97217"/><tag k="addr:city" v="Portland"/><tag k="addr:street" v="North Halleck Street"/></node>
<node id="-15" lat="45.582483263" lon="-122.698548827" visible="true"><tag k="addr:housenumber" v="3126"/><tag k="addr:postcode" v="97217"/><tag k="addr:city" v="Portland"/><tag k="addr:street" v="North Halleck Street"/></node>
<node id="-16" lat="45.582222544" lon="-122.696556482" visible="true"><tag k="addr:housenumber" v="2837"/><tag k="addr:postcode" v="97217"/><tag k="addr:city" v="Portland"/><tag k="addr:street" v="North Kilpatrick Street"/></node>
<node id="-17" lat="45.582215535" lon="-122.696550757" visible="true"><tag k="addr:housenumber" v="2909"/><tag k="addr:postcode" v="97217"/><tag k="addr:city" v="Portland"/><tag k="addr:street" v="North Kilpatrick Street"/></node>
<node id="-18" lat="45.577279243" lon="-122.694008019" visible="true"><tag k="addr:housenumber" v="2627"/><tag k="addr:postcode" v="97217"/><tag k="addr:city" v="Portland"/><tag k="addr:street" v="North Lombard Street"/></node>
<node id="-19" lat="45.577281921" lon="-122.694006789" visible="true"><tag k="addr:housenumber" v="2629"/><tag k="addr:postcode" v="97217"/><tag k="addr:city" v="Portland"/><tag k="addr:street" v="North Lombard Street"/></node>
<node id="-20" lat="45.577384258" lon="-122.695746108" visible="true"><tag k="addr:housenumber" v="2829"/><tag k="addr:postcode" v="97217"/><tag k="addr:city" v="Portland"/><tag k="addr:street" v="North Lombard Street"/></node>
<node id="-21" lat="45.577377685" lon="-122.695740203" visible="true"><tag k="addr:housenumber" v="2914"/><tag k="addr:postcode" v="97217"/><tag k="addr:city" v="Portland"/><tag k="addr:street" v="North Lombard Street"/></node>
<node id="-22" lat="45.577346417" lon="-122.698142971" visible="true"><tag k="addr:housenumber" v="3101"/><tag k="addr:postcode" v="97217"/><tag k="addr:city" v="Portland"/><tag k="addr:street" v="North Lombard Street"/></node>
<node id="-23" lat="45.577342603" lon="-122.698143946" visible="true"><tag k="addr:housenumber" v="3107"/><tag k="addr:postcode" v="97217"/><tag k="addr:city" v="Portland"/><tag k="addr:street" v="North Lombard Street"/></node>
<node id="-24" lat="45.577327008" lon="-122.69858859" visible="true"><tag k="addr:housenumber" v="3127"/><tag k="addr:postcode" v="97217"/><tag k="addr:city" v="Portland"/><tag k="addr:street" v="North Lombard Street"/></node>
<node id="-25" lat="45.577330307" lon="-122.698588125" visible="true"><tag k="addr:housenumber" v="3131"/><tag k="addr:postcode" v="97217"/><tag k="addr:city" v="Portland"/><tag k="addr:street" v="North Lombard Street"/></node>
<node id="-26" lat="45.577324516" lon="-122.698587014" visible="true"><tag k="addr:housenumber" v="3139"/><tag k="addr:postcode" v="97217"/><tag k="addr:city" v="Portland"/><tag k="addr:street" v="North Lombard Street"/></node>
<node id="-27" lat="45.57737132" lon="-122.701546324" visible="true"><tag k="addr:housenumber" v="3347"/><tag k="addr:postcode" v="97217"/><tag k="addr:city" v="Portland"/><tag k="addr:street" v="North Lombard Street"/></node>
<node id="-28" lat="45.577369795" lon="-122.701551504" visible="true"><tag k="addr:housenumber" v="3353"/><tag k="addr:postcode" v="97217"/><tag k="addr:city" v="Portland"/><tag k="addr:street" v="North Lombard Street"/></node>
<node id="-29" lat="45.578271708" lon="-122.696999463" visible="true"><tag k="addr:housenumber" v="7628"/><tag k="addr:postcode" v="97217"/><tag k="addr:city" v="Portland"/><tag k="addr:street" v="North Peninsular Avenue"/></node>
<node id="-30" lat="45.578268762" lon="-122.697007567" visible="true"><tag k="addr:housenumber" v="7634"/><tag k="addr:postcode" v="97217"/><tag k="addr:city" v="Portland"/><tag k="addr:street" v="North Peninsular Avenue"/></node>
<node id="-31" lat="45.579293585" lon="-122.69694873" visible="true"><tag k="addr:housenumber" v="7700"/><tag k="addr:postcode" v="97217"/><tag k="addr:city" v="Portland"/><tag k="addr:street" v="North Peninsular Avenue"/></node>
<node id="-32" lat="45.57929691" lon="-122.69695288" visible="true"><tag k="addr:housenumber" v="7702"/><tag k="addr:postcode" v="97217"/><tag k="addr:city" v="Portland"/><tag k="addr:street" v="North Peninsular Avenue"/></node>
<node id="-33" lat="45.578167897" lon="-122.698200407" visible="true"><tag k="addr:housenumber" v="3103"/><tag k="addr:postcode" v="97217"/><tag k="addr:city" v="Portland"/><tag k="addr:street" v="North Russet Street"/></node>
<node id="-34" lat="45.578176121" lon="-122.698199675" visible="true"><tag k="addr:housenumber" v="3105"/><tag k="addr:postcode" v="97217"/><tag k="addr:city" v="Portland"/><tag k="addr:street" v="North Russet Street"/></node>
<node id="-35" lat="45.58358066" lon="-122.702448671" visible="true"><tag k="addr:housenumber" v="8308"/><tag k="addr:postcode" v="97217"/><tag k="addr:city" v="Portland"/><tag k="addr:street" v="North Wabash Avenue"/></node>
<node id="-36" lat="45.583769658" lon="-122.702470545" visible="true"><tag k="addr:housenumber" v="8324"/><tag k="addr:postcode" v="97217"/><tag k="addr:city" v="Portland"/><tag k="addr:street" v="North Wabash Avenue"/></node>
<node id="-37" lat="45.583972298" lon="-122.693962811" visible="true"><tag k="addr:housenumber" v="2621"/><tag k="addr:postcode" v="97217"/><tag k="addr:city" v="Portland"/><tag k="addr:street" v="North Willis Boulevard"/></node>
<node id="-38" lat="45.58396675" lon="-122.69396017" visible="true"><tag k="addr:housenumber" v="2627"/><tag k="addr:postcode" v="97217"/><tag k="addr:city" v="Portland"/><tag k="addr:street" v="North Willis Boulevard"/></node>
<node id="-39" lat="45.583970606" lon="-122.694352391" visible="true"><tag k="addr:housenumber" v="2639"/><tag k="addr:postcode" v="97217"/><tag k="addr:city" v="Portland"/><tag k="addr:street" v="North Willis Boulevard"/></node>
<node id="-40" lat="45.583967828" lon="-122.694348988" visible="true"><tag k="addr:housenumber" v="2645"/><tag k="addr:postcode" v="97217"/><tag k="addr:city" v="Portland"/><tag k="addr:street" v="North Willis Boulevard"/></node>
<node id="-41" lat="45.58356224" lon="-122.695951013" visible="true"><tag k="addr:housenumber" v="2818"/><tag k="addr:postcode" v="97217"/><tag k="addr:city" v="Portland"/><tag k="addr:street" v="North Willis Boulevard"/></node>
<node id="-42" lat="45.583561391" lon="-122.695960122" visible="true"><tag k="addr:housenumber" v="2820"/><tag k="addr:postcode" v="97217"/><tag k="addr:city" v="Portland"/><tag k="addr:street" v="North Willis Boulevard"/></node>
<node id="-43" lat="45.583559287" lon="-122.696642163" visible="true"><tag k="addr:housenumber" v="2844"/><tag k="addr:postcode" v="97217"/><tag k="addr:city" v="Portland"/><tag k="addr:street" v="North Willis Boulevard"/></node>
<node id="-44" lat="45.583559678" lon="-122.696640734" visible="true"><tag k="addr:housenumber" v="2846"/><tag k="addr:postcode" v="97217"/><tag k="addr:city" v="Portland"/><tag k="addr:street" v="North Willis Boulevard"/></node>
<node id="-45" lat="45.583764335" lon="-122.70246834" visible="true"><tag k="addr:housenumber" v="3440"/><tag k="addr:postcode" v="97217"/><tag k="addr:city" v="Portland"/><tag k="addr:street" v="North Willis Boulevard"/></node>
<node id="-46" lat="45.580375561" lon="-122.694983964" visible="true"><tag k="addr:housenumber" v="2702"/><tag k="addr:postcode" v="97217"/><tag k="addr:city" v="Portland"/><tag k="addr:street" v="North Winchell Street"/></node>
</osm>