<?xml version="1.0"?>
<osm version="0.6" upload="false" generator="uvmogr2osm">
<node id="-1" lat="45.580445713" lon="-122.72159073" visible="true"><tag k="addr:housenumber" v="5032"/><tag k="addr:postcode" v="97203"/><tag k="addr:city" v="Portland"/><tag k="addr:street" v="North Bowdoin Street"/></node>
<node id="-2" lat="45.580441841" lon="-122.721592625" visible="true"><tag k="addr:housenumber" v="5106"/><tag k="addr:postcode" v="97203"/><tag k="addr:city" v="Portland"/><tag k="addr:street" v="North Bowdoin Street"/></node>
<node id="-3" lat="45.581523797" lon="-122.723313536" visible="true"><tag k="addr:housenumber" v="5227"/><tag k="addr:postcode" v="97203"/><tag k="addr:city" v="Portland"/><tag k="addr:street" v="North Bowdoin Street"/></node>
<node id="-4" lat="45.581531203" lon="-122.723313438" visible="true"><tag k="addr:housenumber" v="5253"/><tag k="addr:postcode" v="97203"/><tag k="addr:city" v="Portland"/><tag k="addr:street" v="North Bowdoin Street"/></node>
<node id="-5" lat="45.57770161" lon="-122.717378754" visible="true"><tag k="addr:housenumber" v="4723"/><tag k="addr:postcode" v="97203"/><tag k="addr:city" v="Portland"/><tag k="addr:street" v="North Depauw Street"/></node>
<node id="-6" lat="45.577708079" lon="-122.717374889" visible="true"><tag k="addr:housenumber" v="4725"/><tag k="addr:postcode" v="97203"/><tag k="addr:city" v="Portland"/><tag k="addr:street" v="North Depauw Street"/></node>
<node id="-7" lat="45.57770431" lon="-122.717377597" visible="true"><tag k="addr:housenumber" v="4729"/><tag k="addr:postcode" v="97203"/><tag k="addr:city" v="Portland"/><tag k="addr:street" v="North Depauw Street"/></node>
<node id="-8" lat="45.584235477" lon="-122.717718684" visible="true"><tag k="addr:housenumber" v="8407"/><tag k="addr:postcode" v="97203"/><tag k="addr:city" v="Portland"/><tag k="addr:street" v="North Druid Avenue"/></node>
<node id="-9" lat="45.583267755" lon="-122.714967762" visible="true"><tag k="addr:housenumber" v="8309"/><tag k="addr:postcode" v="97203"/><tag k="addr:city" v="Portland"/><tag k="addr:street" v="North Dwight Avenue"/></node>
<node id="-10" lat="45.583263587" lon="-122.714971109" visible="true"><tag k="addr:housenumber" v="8311"/><tag k="addr:postcode" v="97203"/><tag k="addr:city" v="Portland"/><tag k="addr:street" v="North Dwight Avenue"/></node>
<node id="-11" lat="45.583267936" lon="-122.714976103" visible="true"><tag k="addr:housenumber" v="8315"/><tag k="addr:postcode" v="97203"/><tag k="addr:city" v="Portland"/><tag k="addr:street" v="North Dwight Avenue"/></node>
<node id="-12" lat="45.583496378" lon="-122.714970085" visible="true"><tag k="addr:housenumber" v="8323"/><tag k="addr:postcode" v="97203"/><tag k="addr:city" v="Portland"/><tag k="addr:street" v="North Dwight Avenue"/></node>
<node id="-13" lat="45.583492266" lon="-122.714965709" visible="true"><tag k="addr:housenumber" v="8325"/><tag k="addr:postcode" v="97203"/><tag k="addr:city" v="Portland"/><tag k="addr:street" v="North Dwight Avenue"/></node>
<node id="-14" lat="45.583495586" lon="-122.714971777" visible="true"><tag k="addr:housenumber" v="8327"/><tag k="addr:postcode" v="97203"/><tag k="addr:city" v="Portland"/><tag k="addr:street" v="North Dwight Avenue"/></node>
<node id="-15" lat="45.583496275" lon="-122.714973106" visible="true"><tag k="addr:housenumber" v="8329"/><tag k="addr:postcode" v="97203"/><tag k="addr:city" v="Portland"/><tag k="addr:street" v="North Dwight Avenue"/></node>
<node id="-16" lat="45.580411073" lon="-122.717632077" visible="true"><tag k="addr:housenumber" v="7512"/><tag k="addr:postcode" v="97203"/><tag k="addr:city" v="Portland"/><tag k="addr:street" v="North Fiske Avenue"/></node>
<node id="-17" lat="45.582245092" lon="-122.717694638" visible="true"><tag k="addr:housenumber" v="4831"/><tag k="addr:postcode" v="97203"/><tag k="addr:city" v="Portland"/><tag k="addr:street" v="North Girard Street"/></node>
<node id="-18" lat="45.582244667" lon="-122.717688707" visible="true"><tag k="addr:housenumber" v="4833"/><tag k="addr:postcode" v="97203"/><tag k="addr:city" v="Portland"/><tag k="addr:street" v="North Girard Street"/></node>
<node id="-19" lat="45.582685219" lon="-122.723271176" visible="true"><tag k="addr:housenumber" v="7521"/><tag k="addr:postcode" v="97203"/><tag k="addr:city" v="Portland"/><tag k="addr:street" v="North Gloucester Avenue"/></node>
<node id="-20" lat="45.582686857" lon="-122.723272505" visible="true"><tag k="addr:housenumber" v="7523"/><tag k="addr:postcode" v="97203"/><tag k="addr:city" v="Portland"/><tag k="addr:street" v="North Gloucester Avenue"/></node>
<node id="-21" lat="45.58386085" lon="-122.722713766" visible="true"><tag k="addr:housenumber" v="7905"/><tag k="addr:postcode" v="97203"/><tag k="addr:city" v="Portland"/><tag k="addr:street" v="North Gloucester Avenue"/></node>
<node id="-22" lat="45.577492358" lon="-122.722461685" visible="true"><tag k="addr:housenumber" v="7100"/><tag k="addr:postcode" v="97203"/><tag k="addr:city" v="Portland"/><tag k="addr:street" v="North Haven Avenue"/></node>
<node id="-23" lat="45.577492916" lon="-122.722457627" visible="true"><tag k="addr:housenumber" v="7108"/><tag k="addr:postcode" v="97203"/><tag k="addr:city" v="Portland"/><tag k="addr:street" v="North Haven Avenue"/></node>
<node id="-24" lat="45.580530098" lon="-122.720137996" visible="true"><tag k="addr:housenumber" v="7468"/><tag k="addr:postcode" v="97203"/><tag k="addr:city" v="Portland"/><tag k="addr:street" v="North Haven Avenue"/></node>
<node id="-25" lat="45.580523403" lon="-122.720132896" visible="true"><tag k="addr:housenumber" v="7472"/><tag k="addr:postcode" v="97203"/><tag k="addr:city" v="Portland"/><tag k="addr:street" v="North Haven Avenue"/></node>
<node id="-26" lat="45.582060293" lon="-122.722164421" visible="true"><tag k="addr:housenumber" v="7508"/><tag k="addr:postcode" v="97203"/><tag k="addr:city" v="Portland"/><tag k="addr:street" v="North Hereford Avenue"/></node>
<node id="-27" lat="45.582061973" lon="-122.722167999" visible="true"><tag k="addr:housenumber" v="7600"/><tag k="addr:postcode" v="97203"/><tag k="addr:city" v="Portland"/><tag k="addr:street" v="North Hereford Avenue"/></node>
<node id="-28" lat="45.578874793" lon="-122.715758895" visible="true"><tag k="addr:housenumber" v="7468"/><tag k="addr:postcode" v="97203"/><tag k="addr:city" v="Portland"/><tag k="addr:street" v="North Huron Avenue"/></node>
<node id="-29" lat="45.578876144" lon="-122.715763323" visible="true"><tag k="addr:housenumber" v="7470"/><tag k="addr:postcode" v="97203"/><tag k="addr:city" v="Portland"/><tag k="addr:street" v="North Huron Avenue"/></node>
<node id="-30" lat="45.57929531" lon="-122.720453096" visible="true"><tag k="addr:housenumber" v="7407"/><tag k="addr:postcode" v="97203"/><tag k="addr:city" v="Portland"/><tag k="addr:street" v="North Jordan Avenue"/></node>
<node id="-31" lat="45.578965846" lon="-122.713772332" visible="true"><tag k="addr:housenumber" v="4503"/><tag k="addr:postcode" v="97203"/><tag k="addr:city" v="Portland"/><tag k="addr:street" v="North Lombard Street"/></node>
<node id="-32" lat="45.578961726" lon="-122.71377067" visible="true"><tag k="addr:housenumber" v="4505"/><tag k="addr:postcode" v="97203"/><tag k="addr:city" v="Portland"/><tag k="addr:street" v="North Lombard Street"/></node>
<node id="-33" lat="45.578969909" lon="-122.713773356" visible="true"><tag k="addr:housenumber" v="4515"/><tag k="addr:postcode" v="97203"/><tag k="addr:city" v="Portland"/><tag k="addr:street" v="North Lombard Street"/></node>
<node id="-34" lat="45.578965508" lon="-122.713774132" visible="true"><tag k="addr:housenumber" v="4517"/><tag k="addr:postcode" v="97203"/><tag k="addr:city" v="Portland"/><tag k="addr:street" v="North Lombard Street"/></node>
<node id="-35" lat="45.578960103" lon="-122.713765658" visible="true"><tag k="addr:housenumber" v="4519"/><tag k="addr:postcode" v="97203"/><tag k="addr:city" v="Portland"/><tag k="addr:street" v="North Lombard Street"/></node>
<node id="-36" lat="45.579473092" lon="-122.714951872" visible="true"><tag k="addr:housenumber" v="4601"/><tag k="addr:postcode" v="97203"/><tag k="addr:city" v="Portland"/><tag k="addr:street" v="North Lombard Street"/></node>
<node id="-37" lat="45.579477372" lon="-122.714951884" visible="true"><tag k="addr:housenumber" v="4603"/><tag k="addr:postcode" v="97203"/><tag k="addr:city" v="Portland"/><tag k="addr:street" v="North Lombard Street"/></node>
<node id="-38" lat="45.578713242" lon="-122.714859983" visible="true"><tag k="addr:housenumber" v="4604"/><tag k="addr:postcode" v="97203"/><tag k="addr:city" v="Portland"/><tag k="addr:street" v="North Lombard Street"/></node>
<node id="-39" lat="45.578706108" lon="-122.714852272" visible="true"><tag k="addr:housenumber" v="4611"/><tag k="addr:postcode" v="97203"/><tag k="addr:city" v="Portland"/><tag k="addr:street" v="North Lombard Street"/></node>
<node id="-40" lat="45.578709623" lon="-122.714853023" visible="true"><tag k="addr:housenumber" v="4613"/><tag k="addr:postcode" v="97203"/><tag k="addr:city" v="Portland"/><tag k="addr:street" v="North Lombard Street"/></node>
<node id="-41" lat="45.578705615" lon="-122.71485779" visible="true"><tag k="addr:housenumber" v="4615"/><tag k="addr:postcode" v="97203"/><tag k="addr:city" v="Portland"/><tag k="addr:street" v="North Lombard Street"/></node>
<node id="-42" lat="45.578705213" lon="-122.714858493" visible="true"><tag k="addr:housenumber" v="4617"/><tag k="addr:postcode" v="97203"/><tag k="addr:city" v="Portland"/><tag k="addr:street" v="North Lombard Street"/></node>
<node id="-43" lat="45.578705547" lon="-122.71485869" visible="true"><tag k="addr:housenumber" v="4620"/><tag k="addr:postcode" v="97203"/><tag k="addr:city" v="Portland"/><tag k="addr:street" v="North Lombard Street"/></node>
<node id="-44" lat="45.579472805" lon="-122.714946368" visible="true"><tag k="addr:housenumber" v="4621"/><tag k="addr:postcode" v="97203"/><tag k="addr:city" v="Portland"/><tag k="addr:street" v="North Lombard Street"/></node>
<node id="-45" lat="45.579480853" lon="-122.714942472" visible="true"><tag k="addr:housenumber" v="4623"/><tag k="addr:postcode" v="97203"/><tag k="addr:city" v="Portland"/><tag k="addr:street" v="North Lombard Street"/></node>
<node id="-46" lat="45.579481106" lon="-122.714943552" visible="true"><tag k="addr:housenumber" v="4627"/><tag k="addr:postcode" v="97203"/><tag k="addr:city" v="Portland"/><tag k="addr:street" v="North Lombard Street"/></node>
<node id="-47" lat="45.579476912" lon="-122.714942987" visible="true"><tag k="addr:housenumber" v="4629"/><tag k="addr:postcode" v="97203"/><tag k="addr:city" v="Portland"/><tag k="addr:street" v="North Lombard Street"/></node>
<node id="-48" lat="45.579475955" lon="-122.714946968" visible="true"><tag k="addr:housenumber" v="4637"/><tag k="addr:postcode" v="97203"/><tag k="addr:city" v="Portland"/><tag k="addr:street" v="North Lombard Street"/></node>
<node id="-49" lat="45.579632019" lon="-122.716918978" visible="true"><tag k="addr:housenumber" v="4744"/><tag k="addr:postcode" v="97203"/><tag k="addr:city" v="Portland"/><tag k="addr:street" v="North Lombard Street"/></node>
<node id="-50" lat="45.57962891" lon="-122.716912321" visible="true"><tag k="addr:housenumber" v="4760"/><tag k="addr:postcode" v="97203"/><tag k="addr:city" v="Portland"/><tag k="addr:street" v="North Lombard Street"/></node>
<node id="-51" lat="45.58041566" lon="-122.717629766" visible="true"><tag k="addr:housenumber" v="4775"/><tag k="addr:postcode" v="97203"/><tag k="addr:city" v="Portland"/><tag k="addr:street" v="North Lombard Street"/></node>
<node id="-52" lat="45.580098911" lon="-122.718149274" visible="true"><tag k="addr:housenumber" v="4788"/><tag k="addr:postcode" v="97203"/><tag k="addr:city" v="Portland"/><tag k="addr:street" v="North Lombard Street"/></node>
<node id="-53" lat="45.580101632" lon="-122.718146311" visible="true"><tag k="addr:housenumber" v="4790"/><tag k="addr:postcode" v="97203"/><tag k="addr:city" v="Portland"/><tag k="addr:street" v="North Lombard Street"/></node>
<node id="-54" lat="45.58028147" lon="-122.718692606" visible="true"><tag k="addr:housenumber" v="4800"/><tag k="addr:postcode" v="97203"/><tag k="addr:city" v="Portland"/><tag k="addr:street" v="North Lombard Street"/></node>
<node id="-55" lat="45.580278338" lon="-122.718685313" visible="true"><tag k="addr:housenumber" v="4808"/><tag k="addr:postcode" v="97203"/><tag k="addr:city" v="Portland"/><tag k="addr:street" v="North Lombard Street"/></node>
<node id="-56" lat="45.580274939" lon="-122.718690016" visible="true"><tag k="addr:housenumber" v="4816"/><tag k="addr:postcode" v="97203"/><tag k="addr:city" v="Portland"/><tag k="addr:street" v="North Lombard Street"/></node>
<node id="-57" lat="45.580281323" lon="-122.718691735" visible="true"><tag k="addr:housenumber" v="4818"/><tag k="addr:postcode" v="97203"/><tag k="addr:city" v="Portland"/><tag k="addr:street" v="North Lombard Street"/></node>
<node id="-58" lat="45.580234282" lon="-122.719005833" visible="true"><tag k="addr:housenumber" v="4824"/><tag k="addr:postcode" v="97203"/><tag k="addr:city" v="Portland"/><tag k="addr:street" v="North Lombard Street"/></node>
<node id="-59" lat="45.580230901" lon="-122.719005922" visible="true"><tag k="addr:housenumber" v="4826"/><tag k="addr:postcode" v="97203"/><tag k="addr:city" v="Portland"/><tag k="addr:street" v="North Lombard Street"/></node>
<node id="-60" lat="45.580232618" lon="-122.719012973" visible="true"><tag k="addr:housenumber" v="4828"/><tag k="addr:postcode" v="97203"/><tag k="addr:city" v="Portland"/><tag k="addr:street" v="North Lombard Street"/></node>
<node id="-61" lat="45.580512838" lon="-122.719651764" visible="true"><tag k="addr:housenumber" v="4904"/><tag k="addr:postcode" v="97203"/><tag k="addr:city" v="Portland"/><tag k="addr:street" v="North Lombard Street"/></node>
<node id="-62" lat="45.580521426" lon="-122.719645169" visible="true"><tag k="addr:housenumber" v="4906"/><tag k="addr:postcode" v="97203"/><tag k="addr:city" v="Portland"/><tag k="addr:street" v="North Lombard Street"/></node>
<node id="-63" lat="45.580520663" lon="-122.719653343" visible="true"><tag k="addr:housenumber" v="4908"/><tag k="addr:postcode" v="97203"/><tag k="addr:city" v="Portland"/><tag k="addr:street" v="North Lombard Street"/></node>
<node id="-64" lat="45.580705915" lon="-122.720004566" visible="true"><tag k="addr:housenumber" v="4926"/><tag k="addr:postcode" v="97203"/><tag k="addr:city" v="Portland"/><tag k="addr:street" v="North Lombard Street"/></node>
<node id="-65" lat="45.580707716" lon="-122.720000576" visible="true"><tag k="addr:housenumber" v="4930"/><tag k="addr:postcode" v="97203"/><tag k="addr:city" v="Portland"/><tag k="addr:street" v="North Lombard Street"/></node>
<node id="-66" lat="45.580710508" lon="-122.720003401" visible="true"><tag k="addr:housenumber" v="4936"/><tag k="addr:postcode" v="97203"/><tag k="addr:city" v="Portland"/><tag k="addr:street" v="North Lombard Street"/></node>
<node id="-67" lat="45.580706027" lon="-122.72000278" visible="true"><tag k="addr:housenumber" v="4938"/><tag k="addr:postcode" v="97203"/><tag k="addr:city" v="Portland"/><tag k="addr:street" v="North Lombard Street"/></node>
<node id="-68" lat="45.580704407" lon="-122.719999079" visible="true"><tag k="addr:housenumber" v="4940"/><tag k="addr:postcode" v="97203"/><tag k="addr:city" v="Portland"/><tag k="addr:street" v="North Lombard Street"/></node>
<node id="-69" lat="45.581039904" lon="-122.720693226" visible="true"><tag k="addr:housenumber" v="5036"/><tag k="addr:postcode" v="97203"/><tag k="addr:city" v="Portland"/><tag k="addr:street" v="North Lombard Street"/></node>
<node id="-70" lat="45.581041095" lon="-122.720695087" visible="true"><tag k="addr:housenumber" v="5038"/><tag k="addr:postcode" v="97203"/><tag k="addr:city" v="Portland"/><tag k="addr:street" v="North Lombard Street"/></node>
<node id="-71" lat="45.581053212" lon="-122.720825773" visible="true"><tag k="addr:housenumber" v="5050"/><tag k="addr:postcode" v="97203"/><tag k="addr:city" v="Portland"/><tag k="addr:street" v="North Lombard Street"/></node>
<node id="-72" lat="45.581059714" lon="-122.720823311" visible="true"><tag k="addr:housenumber" v="5106"/><tag k="addr:postcode" v="97203"/><tag k="addr:city" v="Portland"/><tag k="addr:street" v="North Lombard Street"/></node>
<node id="-73" lat="45.582353637" lon="-122.722961411" visible="true"><tag k="addr:housenumber" v="5264"/><tag k="addr:postcode" v="97203"/><tag k="addr:city" v="Portland"/><tag k="addr:street" v="North Lombard Street"/></node>
<node id="-74" lat="45.582357019" lon="-122.722961557" visible="true"><tag k="addr:housenumber" v="5265"/><tag k="addr:postcode" v="97203"/><tag k="addr:city" v="Portland"/><tag k="addr:street" v="North Lombard Street"/></node>
<node id="-75" lat="45.583573957" lon="-122.715715496" visible="true"><tag k="addr:housenumber" v="8335"/><tag k="addr:postcode" v="97203"/><tag k="addr:city" v="Portland"/><tag k="addr:street" v="North Newman Avenue"/></node>
<node id="-76" lat="45.583579385" lon="-122.715717441" visible="true"><tag k="addr:housenumber" v="8337"/><tag k="addr:postcode" v="97203"/><tag k="addr:city" v="Portland"/><tag k="addr:street" v="North Newman Avenue"/></node>
<node id="-77" lat="45.579302647" lon="-122.72044938" visible="true"><tag k="addr:housenumber" v="4905"/><tag k="addr:postcode" v="97203"/><tag k="addr:city" v="Portland"/><tag k="addr:street" v="North Oberlin Street"/></node>
<node id="-78" lat="45.580610203" lon="-122.715664214" visible="true"><tag k="addr:housenumber" v="7712"/><tag k="addr:postcode" v="97203"/><tag k="addr:city" v="Portland"/><tag k="addr:street" v="North Olin Avenue"/></node>
<node id="-79" lat="45.580613996" lon="-122.715669421" visible="true"><tag k="addr:housenumber" v="7714"/><tag k="addr:postcode" v="97203"/><tag k="addr:city" v="Portland"/><tag k="addr:street" v="North Olin Avenue"/></node>
<node id="-80" lat="45.583444282" lon="-122.722894534" visible="true"><tag k="addr:housenumber" v="7704"/><tag k="addr:postcode" v="97203"/><tag k="addr:city" v="Portland"/><tag k="addr:street" v="North Portsmouth Avenue"/></node>
<node id="-81" lat="45.583438068" lon="-122.722894446" visible="true"><tag k="addr:housenumber" v="7804"/><tag k="addr:postcode" v="97203"/><tag k="addr:city" v="Portland"/><tag k="addr:street" v="North Portsmouth Avenue"/></node>
<node id="-82" lat="45.583443441" lon="-122.722892916" visible="true"><tag k="addr:housenumber" v="7806"/><tag k="addr:postcode" v="97203"/><tag k="addr:city" v="Portland"/><tag k="addr:street" v="North Portsmouth Avenue"/></node>
<node id="-83" lat="45.58344127" lon="-122.722891711" visible="true"><tag k="addr:housenumber" v="7808"/><tag k="addr:postcode" v="97203"/><tag k="addr:city" v="Portland"/><tag k="addr:street" v="North Portsmouth Avenue"/></node>
<node id="-84" lat="45.583439452" lon="-122.722899533" visible="true"><tag k="addr:housenumber" v="7810"/><tag k="addr:postcode" v="97203"/><tag k="addr:city" v="Portland"/><tag k="addr:street" v="North Portsmouth Avenue"/></node>
<node id="-85" lat="45.583863659" lon="-122.722721868" visible="true"><tag k="addr:housenumber" v="7906"/><tag k="addr:postcode" v="97203"/><tag k="addr:city" v="Portland"/><tag k="addr:street" v="North Portsmouth Avenue"/></node>
<node id="-86" lat="45.581615636" lon="-122.72003724" visible="true"><tag k="addr:housenumber" v="5024"/><tag k="addr:postcode" v="97203"/><tag k="addr:city" v="Portland"/><tag k="addr:street" v="North Vanderbilt Street"/></node>
<node id="-87" lat="45.581616769" lon="-122.720030893" visible="true"><tag k="addr:housenumber" v="5028"/><tag k="addr:postcode" v="97203"/><tag k="addr:city" v="Portland"/><tag k="addr:street" v="North Vanderbilt Street"/></node>
<node id="-88" lat="45.581613223" lon="-122.720035522" visible="true"><tag k="addr:housenumber" v="5032"/><tag k="addr:postcode" v="97203"/><tag k="addr:city" v="Portland"/><tag k="addr:street" v="North Vanderbilt Street"/></node>
<node id="-89" lat="45.583780395" lon="-122.715065882" visible="true"><tag k="addr:housenumber" v="4624"/><tag k="addr:postcode" v="97203"/><tag k="addr:city" v="Portland"/><tag k="addr:street" v="North Willis Boulevard"/></node>
<node id="-90" lat="45.583786548" lon="-122.715066482" visible="true"><tag k="addr:housenumber" v="4628"/><tag k="addr:postcode" v="97203"/><tag k="addr:city" v="Portland"/><tag k="addr:street" v="North Willis Boulevard"/></node>
<node id="-91" lat="45.583784542" lon="-122.715061605" visible="true"><tag k="addr:housenumber" v="4630"/><tag k="addr:postcode" v="97203"/><tag k="addr:city" v="Portland"/><tag k="addr:street" v="North Willis Boulevard"/></node>
<node id="-92" lat="45.583884195" lon="-122.715713373" visible="true"><tag k="addr:housenumber" v="4708"/><tag k="addr:postcode" v="97203"/><tag k="addr:city" v="Portland"/><tag k="addr:street" v="North Willis Boulevard"/></node>
<node id="-93" lat="45.58388743" lon="-122.715716367" visible="true"><tag k="addr:housenumber" v="4710"/><tag k="addr:postcode" v="97203"/><tag k="addr:city" v="Portland"/><tag k="addr:street" v="North Willis Boulevard"/></node>
<node id="-94" lat="45.583891192" lon="-122.715713557" visible="true"><tag k="addr:housenumber" v="4712"/><tag k="addr:postcode" v="97203"/><tag k="addr:city" v="Portland"/><tag k="addr:street" v="North Willis Boulevard"/></node>
<node id="-95" lat="45.583884129" lon="-122.715711276" visible="true"><tag k="addr:housenumber" v="4714"/><tag k="addr:postcode" v="97203"/><tag k="addr:city" v="Portland"/><tag k="addr:street" v="North Willis Boulevard"/></node>
<node id="-96" lat="45.584241987" lon="-122.717723864" visible="true"><tag k="addr:housenumber" v="4911"/><tag k="addr:postcode" v="97203"/><tag k="addr:city" v="Portland"/><tag k="addr:street" v="North Willis Boulevard"/></node>
</osm>