<?xml version="1.0"?>
<osm version="0.6" upload="false" generator="uvmogr2osm">
<node id="-1" lat="45.573477416" lon="-122.668430126" visible="true"><tag k="addr:housenumber" v="127"/><tag k="addr:postcode" v="97217"/><tag k="addr:city" v="Portland"/><tag k="addr:street" v="North Bryant Street"/></node>
<node id="-2" lat="45.573476376" lon="-122.668429251" visible="true"><tag k="addr:housenumber" v="135"/><tag k="addr:postcode" v="97217"/><tag k="addr:city" v="Portland"/><tag k="addr:street" v="North Bryant Street"/></node>
<node id="-3" lat="45.570372218" lon="-122.671112998" visible="true"><tag k="addr:housenumber" v="6517"/><tag k="addr:postcode" v="97217"/><tag k="addr:city" v="Portland"/><tag k="addr:street" v="North Commercial Avenue"/></node>
<node id="-4" lat="45.570368553" lon="-122.671107306" visible="true"><tag k="addr:housenumber" v="6521"/><tag k="addr:postcode" v="97217"/><tag k="addr:city" v="Portland"/><tag k="addr:street" v="North Commercial Avenue"/></node>
<node id="-5" lat="45.576021168" lon="-122.670512964" visible="true"><tag k="addr:housenumber" v="7306"/><tag k="addr:postcode" v="97217"/><tag k="addr:city" v="Portland"/><tag k="addr:street" v="North Commercial Avenue"/></node>
<node id="-6" lat="45.57037046" lon="-122.671506334" visible="true"><tag k="addr:housenumber" v="6518"/><tag k="addr:postcode" v="97217"/><tag k="addr:city" v="Portland"/><tag k="addr:street" v="North Congress Avenue"/></node>
<node id="-7" lat="45.570367169" lon="-122.671498982" visible="true"><tag k="addr:housenumber" v="6524"/><tag k="addr:postcode" v="97217"/><tag k="addr:city" v="Portland"/><tag k="addr:street" v="North Congress Avenue"/></node>
<node id="-8" lat="45.577036494" lon="-122.668198662" visible="true"><tag k="addr:housenumber" v="128"/><tag k="addr:postcode" v="97217"/><tag k="addr:city" v="Portland"/><tag k="addr:street" v="North Lombard Street"/></node>
<node id="-9" lat="45.576909371" lon="-122.668839446" visible="true"><tag k="addr:housenumber" v="206"/><tag k="addr:postcode" v="97217"/><tag k="addr:city" v="Portland"/><tag k="addr:street" v="North Lombard Street"/></node>
<node id="-10" lat="45.576913863" lon="-122.668835545" visible="true"><tag k="addr:housenumber" v="207"/><tag k="addr:postcode" v="97217"/><tag k="addr:city" v="Portland"/><tag k="addr:street" v="North Lombard Street"/></node>
<node id="-11" lat="45.576976312" lon="-122.667565314" visible="true"><tag k="addr:housenumber" v="40"/><tag k="addr:postcode" v="97217"/><tag k="addr:city" v="Portland"/><tag k="addr:street" v="North Lombard Street"/></node>
<node id="-12" lat="45.576969872" lon="-122.667569466" visible="true"><tag k="addr:housenumber" v="42"/><tag k="addr:postcode" v="97217"/><tag k="addr:city" v="Portland"/><tag k="addr:street" v="North Lombard Street"/></node>
<node id="-13" lat="45.576972472" lon="-122.667568628" visible="true"><tag k="addr:housenumber" v="44"/><tag k="addr:postcode" v="97217"/><tag k="addr:city" v="Portland"/><tag k="addr:street" v="North Lombard Street"/></node>
<node id="-14" lat="45.57018606" lon="-122.671512272" visible="true"><tag k="addr:housenumber" v="527"/><tag k="addr:postcode" v="97217"/><tag k="addr:city" v="Portland"/><tag k="addr:street" v="North Portland Boulevard"/></node>
<node id="-15" lat="45.570185056" lon="-122.671510136" visible="true"><tag k="addr:housenumber" v="531"/><tag k="addr:postcode" v="97217"/><tag k="addr:city" v="Portland"/><tag k="addr:street" v="North Portland Boulevard"/></node>
<node id="-16" lat="45.570184066" lon="-122.671506199" visible="true"><tag k="addr:housenumber" v="525"/><tag k="addr:postcode" v="97217"/><tag k="addr:city" v="Portland"/><tag k="addr:street" v="North Rosa Parks Way"/></node>
<node id="-17" lat="45.570186347" lon="-122.671503682" visible="true"><tag k="addr:housenumber" v="533"/><tag k="addr:postcode" v="97217"/><tag k="addr:city" v="Portland"/><tag k="addr:street" v="North Rosa Parks Way"/></node>
<node id="-18" lat="45.572354323" lon="-122.668434956" visible="true"><tag k="addr:housenumber" v="128"/><tag k="addr:postcode" v="97217"/><tag k="addr:city" v="Portland"/><tag k="addr:street" v="North Saratoga Street"/></node>
<node id="-19" lat="45.572358218" lon="-122.668438812" visible="true"><tag k="addr:housenumber" v="130"/><tag k="addr:postcode" v="97217"/><tag k="addr:city" v="Portland"/><tag k="addr:street" v="North Saratoga Street"/></node>
<node id="-20" lat="45.572354941" lon="-122.668442318" visible="true"><tag k="addr:housenumber" v="132"/><tag k="addr:postcode" v="97217"/><tag k="addr:city" v="Portland"/><tag k="addr:street" v="North Saratoga Street"/></node>
<node id="-21" lat="45.572565023" lon="-122.669063674" visible="true"><tag k="addr:housenumber" v="6909"/><tag k="addr:postcode" v="97217"/><tag k="addr:city" v="Portland"/><tag k="addr:street" v="North Vancouver Avenue"/></node>
<node id="-22" lat="45.572558337" lon="-122.66906709" visible="true"><tag k="addr:housenumber" v="6911"/><tag k="addr:postcode" v="97217"/><tag k="addr:city" v="Portland"/><tag k="addr:street" v="North Vancouver Avenue"/></node>
<node id="-23" lat="45.572565697" lon="-122.669073349" visible="true"><tag k="addr:housenumber" v="6913"/><tag k="addr:postcode" v="97217"/><tag k="addr:city" v="Portland"/><tag k="addr:street" v="North Vancouver Avenue"/></node>
<node id="-24" lat="45.572560777" lon="-122.669067748" visible="true"><tag k="addr:housenumber" v="6915"/><tag k="addr:postcode" v="97217"/><tag k="addr:city" v="Portland"/><tag k="addr:street" v="North Vancouver Avenue"/></node>
<node id="-25" lat="45.573748991" lon="-122.668406217" visible="true"><tag k="addr:housenumber" v="7026"/><tag k="addr:postcode" v="97217"/><tag k="addr:city" v="Portland"/><tag k="addr:street" v="North Vancouver Avenue"/></node>
<node id="-26" lat="45.573754636" lon="-122.668409222" visible="true"><tag k="addr:housenumber" v="7032"/><tag k="addr:postcode" v="97217"/><tag k="addr:city" v="Portland"/><tag k="addr:street" v="North Vancouver Avenue"/></node>
<node id="-27" lat="45.576221117" lon="-122.668190934" visible="true"><tag k="addr:housenumber" v="7320"/><tag k="addr:postcode" v="97217"/><tag k="addr:city" v="Portland"/><tag k="addr:street" v="North Vancouver Avenue"/></node>
<node id="-28" lat="45.576220889" lon="-122.66818562" visible="true"><tag k="addr:housenumber" v="7324"/><tag k="addr:postcode" v="97217"/><tag k="addr:city" v="Portland"/><tag k="addr:street" v="North Vancouver Avenue"/></node>
<node id="-29" lat="45.577037643" lon="-122.668191106" visible="true"><tag k="addr:housenumber" v="7434"/><tag k="addr:postcode" v="97217"/><tag k="addr:city" v="Portland"/><tag k="addr:street" v="North Vancouver Avenue"/></node>
<node id="-30" lat="45.576764982" lon="-122.667077708" visible="true"><tag k="addr:housenumber" v="7411"/><tag k="addr:postcode" v="97217"/><tag k="addr:city" v="Portland"/><tag k="addr:street" v="North Williams Avenue"/></node>
<node id="-31" lat="45.576762047" lon="-122.667076691" visible="true"><tag k="addr:housenumber" v="7415"/><tag k="addr:postcode" v="97217"/><tag k="addr:city" v="Portland"/><tag k="addr:street" v="North Williams Avenue"/></node>
<node id="-32" lat="45.576902261" lon="-122.66708456" visible="true"><tag k="addr:housenumber" v="7423"/><tag k="addr:postcode" v="97217"/><tag k="addr:city" v="Portland"/><tag k="addr:street" v="North Williams Avenue"/></node>
<node id="-33" lat="45.576902403" lon="-122.667077194" visible="true"><tag k="addr:housenumber" v="7425"/><tag k="addr:postcode" v="97217"/><tag k="addr:city" v="Portland"/><tag k="addr:street" v="North Williams Avenue"/></node>
<node id="-34" lat="45.576899861" lon="-122.667078227" visible="true"><tag k="addr:housenumber" v="7427"/><tag k="addr:postcode" v="97217"/><tag k="addr:city" v="Portland"/><tag k="addr:street" v="North Williams Avenue"/></node>
<node id="-35" lat="45.573443368" lon="-122.663132017" visible="true"><tag k="addr:housenumber" v="203"/><tag k="addr:postcode" v="97211"/><tag k="addr:city" v="Portland"/><tag k="addr:street" v="Northeast Bryant Street"/></node>
<node id="-36" lat="45.57344919" lon="-122.663129977" visible="true"><tag k="addr:housenumber" v="205"/><tag k="addr:postcode" v="97211"/><tag k="addr:city" v="Portland"/><tag k="addr:street" v="Northeast Bryant Street"/></node>
<node id="-37" lat="45.573450948" lon="-122.662931848" visible="true"><tag k="addr:housenumber" v="215"/><tag k="addr:postcode" v="97211"/><tag k="addr:city" v="Portland"/><tag k="addr:street" v="Northeast Bryant Street"/></node>
<node id="-38" lat="45.573443982" lon="-122.662933254" visible="true"><tag k="addr:housenumber" v="217"/><tag k="addr:postcode" v="97211"/><tag k="addr:city" v="Portland"/><tag k="addr:street" v="Northeast Bryant Street"/></node>
<node id="-39" lat="45.574918726" lon="-122.661984576" visible="true"><tag k="addr:housenumber" v="310"/><tag k="addr:postcode" v="97211"/><tag k="addr:city" v="Portland"/><tag k="addr:street" v="Northeast Buffalo Street"/></node>
<node id="-40" lat="45.574916004" lon="-122.661983363" visible="true"><tag k="addr:housenumber" v="312"/><tag k="addr:postcode" v="97211"/><tag k="addr:city" v="Portland"/><tag k="addr:street" v="Northeast Buffalo Street"/></node>
<node id="-41" lat="45.573623196" lon="-122.666102578" visible="true"><tag k="addr:housenumber" v="7015"/><tag k="addr:postcode" v="97211"/><tag k="addr:city" v="Portland"/><tag k="addr:street" v="Northeast Cleveland Avenue"/></node>
<node id="-42" lat="45.573616444" lon="-122.666104333" visible="true"><tag k="addr:housenumber" v="7019"/><tag k="addr:postcode" v="97211"/><tag k="addr:city" v="Portland"/><tag k="addr:street" v="Northeast Cleveland Avenue"/></node>
<node id="-43" lat="45.572044934" lon="-122.664114672" visible="true"><tag k="addr:housenumber" v="141"/><tag k="addr:postcode" v="97211"/><tag k="addr:city" v="Portland"/><tag k="addr:street" v="Northeast Dekum Street"/></node>
<node id="-44" lat="45.572047311" lon="-122.664113587" visible="true"><tag k="addr:housenumber" v="143"/><tag k="addr:postcode" v="97211"/><tag k="addr:city" v="Portland"/><tag k="addr:street" v="Northeast Dekum Street"/></node>
<node id="-45" lat="45.571587591" lon="-122.662079753" visible="true"><tag k="addr:housenumber" v="304"/><tag k="addr:postcode" v="97211"/><tag k="addr:city" v="Portland"/><tag k="addr:street" v="Northeast Dekum Street"/></node>
<node id="-46" lat="45.571587993" lon="-122.662072716" visible="true"><tag k="addr:housenumber" v="306"/><tag k="addr:postcode" v="97211"/><tag k="addr:city" v="Portland"/><tag k="addr:street" v="Northeast Dekum Street"/></node>
<node id="-47" lat="45.571580029" lon="-122.66207121" visible="true"><tag k="addr:housenumber" v="308"/><tag k="addr:postcode" v="97211"/><tag k="addr:city" v="Portland"/><tag k="addr:street" v="Northeast Dekum Street"/></node>
<node id="-48" lat="45.570596711" lon="-122.662662909" visible="true"><tag k="addr:housenumber" v="6537"/><tag k="addr:postcode" v="97211"/><tag k="addr:city" v="Portland"/><tag k="addr:street" v="Northeast Garfield Avenue"/></node>
<node id="-49" lat="45.570599092" lon="-122.662656018" visible="true"><tag k="addr:housenumber" v="6539"/><tag k="addr:postcode" v="97211"/><tag k="addr:city" v="Portland"/><tag k="addr:street" v="Northeast Garfield Avenue"/></node>
<node id="-50" lat="45.571350625" lon="-122.662017557" visible="true"><tag k="addr:housenumber" v="6710"/><tag k="addr:postcode" v="97211"/><tag k="addr:city" v="Portland"/><tag k="addr:street" v="Northeast Garfield Avenue"/></node>
<node id="-51" lat="45.571342783" lon="-122.662019787" visible="true"><tag k="addr:housenumber" v="6712"/><tag k="addr:postcode" v="97211"/><tag k="addr:city" v="Portland"/><tag k="addr:street" v="Northeast Garfield Avenue"/></node>
<node id="-52" lat="45.571349218" lon="-122.6620208" visible="true"><tag k="addr:housenumber" v="6714"/><tag k="addr:postcode" v="97211"/><tag k="addr:city" v="Portland"/><tag k="addr:street" v="Northeast Garfield Avenue"/></node>
<node id="-53" lat="45.571343773" lon="-122.662024127" visible="true"><tag k="addr:housenumber" v="6716"/><tag k="addr:postcode" v="97211"/><tag k="addr:city" v="Portland"/><tag k="addr:street" v="Northeast Garfield Avenue"/></node>
<node id="-54" lat="45.576975483" lon="-122.663625771" visible="true"><tag k="addr:housenumber" v="162"/><tag k="addr:postcode" v="97211"/><tag k="addr:city" v="Portland"/><tag k="addr:street" v="Northeast Leonard Terrace"/></node>
<node id="-55" lat="45.576976324" lon="-122.66363405" visible="true"><tag k="addr:housenumber" v="162"/><tag k="addr:postcode" v="97211"/><tag k="addr:city" v="Portland"/><tag k="addr:street" v="Northeast Lombard Street"/></node>
<node id="-56" lat="45.576973137" lon="-122.663629336" visible="true"><tag k="addr:housenumber" v="164"/><tag k="addr:postcode" v="97211"/><tag k="addr:city" v="Portland"/><tag k="addr:street" v="Northeast Lombard Street"/></node>
<node id="-57" lat="45.576969945" lon="-122.663633836" visible="true"><tag k="addr:housenumber" v="166"/><tag k="addr:postcode" v="97211"/><tag k="addr:city" v="Portland"/><tag k="addr:street" v="Northeast Lombard Street"/></node>
<node id="-58" lat="45.57697469" lon="-122.663625925" visible="true"><tag k="addr:housenumber" v="168"/><tag k="addr:postcode" v="97211"/><tag k="addr:city" v="Portland"/><tag k="addr:street" v="Northeast Lombard Street"/></node>
<node id="-59" lat="45.57697265" lon="-122.666005023" visible="true"><tag k="addr:housenumber" v="36"/><tag k="addr:postcode" v="97211"/><tag k="addr:city" v="Portland"/><tag k="addr:street" v="Northeast Lombard Street"/></node>
<node id="-60" lat="45.576977698" lon="-122.666004219" visible="true"><tag k="addr:housenumber" v="38"/><tag k="addr:postcode" v="97211"/><tag k="addr:city" v="Portland"/><tag k="addr:street" v="Northeast Lombard Street"/></node>
<node id="-61" lat="45.570260985" lon="-122.661893638" visible="true"><tag k="addr:housenumber" v="6501"/><tag k="addr:postcode" v="97211"/><tag k="addr:city" v="Portland"/><tag k="addr:street" v="Northeast Martin Luther King Jr Boulevard"/></node>
<node id="-62" lat="45.570257256" lon="-122.661891819" visible="true"><tag k="addr:housenumber" v="6505"/><tag k="addr:postcode" v="97211"/><tag k="addr:city" v="Portland"/><tag k="addr:street" v="Northeast Martin Luther King Jr Boulevard"/></node>
<node id="-63" lat="45.570253842" lon="-122.661893553" visible="true"><tag k="addr:housenumber" v="6637"/><tag k="addr:postcode" v="97211"/><tag k="addr:city" v="Portland"/><tag k="addr:street" v="Northeast Martin Luther King Jr Boulevard"/></node>
<node id="-64" lat="45.571974804" lon="-122.661686256" visible="true"><tag k="addr:housenumber" v="6801"/><tag k="addr:postcode" v="97211"/><tag k="addr:city" v="Portland"/><tag k="addr:street" v="Northeast Martin Luther King Jr Boulevard"/></node>
<node id="-65" lat="45.5719742" lon="-122.661679143" visible="true"><tag k="addr:housenumber" v="6807"/><tag k="addr:postcode" v="97211"/><tag k="addr:city" v="Portland"/><tag k="addr:street" v="Northeast Martin Luther King Jr Boulevard"/></node>
<node id="-66" lat="45.571974629" lon="-122.661680224" visible="true"><tag k="addr:housenumber" v="6809"/><tag k="addr:postcode" v="97211"/><tag k="addr:city" v="Portland"/><tag k="addr:street" v="Northeast Martin Luther King Jr Boulevard"/></node>
<node id="-67" lat="45.572102859" lon="-122.661682986" visible="true"><tag k="addr:housenumber" v="6811"/><tag k="addr:postcode" v="97211"/><tag k="addr:city" v="Portland"/><tag k="addr:street" v="Northeast Martin Luther King Jr Boulevard"/></node>
<node id="-68" lat="45.572111175" lon="-122.66168036" visible="true"><tag k="addr:housenumber" v="6815"/><tag k="addr:postcode" v="97211"/><tag k="addr:city" v="Portland"/><tag k="addr:street" v="Northeast Martin Luther King Jr Boulevard"/></node>
<node id="-69" lat="45.574314268" lon="-122.664533989" visible="true"><tag k="addr:housenumber" v="7069"/><tag k="addr:postcode" v="97211"/><tag k="addr:city" v="Portland"/><tag k="addr:street" v="Northeast Rodney Avenue"/></node>
<node id="-70" lat="45.574314334" lon="-122.66453859" visible="true"><tag k="addr:housenumber" v="7067"/><tag k="addr:postcode" v="97211"/><tag k="addr:city" v="Portland"/><tag k="addr:street" v="Northeast Rodney Court"/></node>
<node id="-71" lat="45.574315393" lon="-122.664534648" visible="true"><tag k="addr:housenumber" v="7069"/><tag k="addr:postcode" v="97211"/><tag k="addr:city" v="Portland"/><tag k="addr:street" v="Northeast Rodney Court"/></node>
<node id="-72" lat="45.576013907" lon="-122.670518322" visible="true"><tag k="addr:housenumber" v="7306"/><tag k="addr:postcode" v="97219"/><tag k="addr:city" v="Portland"/><tag k="addr:street" v="Southwest Capitol Highway"/></node>
</osm>