<?xml version="1.0"?>
<osm version="0.6" upload="false" generator="uvmogr2osm">
<node id="-1" lat="45.566249802" lon="-122.673592879" visible="true"><tag k="addr:housenumber" v="650"/><tag k="addr:postcode" v="97217"/><tag k="addr:city" v="Portland"/><tag k="addr:street" v="North Ainsworth Street"/></node>
<node id="-2" lat="45.566243785" lon="-122.673590274" visible="true"><tag k="addr:housenumber" v="652"/><tag k="addr:postcode" v="97217"/><tag k="addr:city" v="Portland"/><tag k="addr:street" v="North Ainsworth Street"/></node>
<node id="-3" lat="45.566247608" lon="-122.673594157" visible="true"><tag k="addr:housenumber" v="654"/><tag k="addr:postcode" v="97217"/><tag k="addr:city" v="Portland"/><tag k="addr:street" v="North Ainsworth Street"/></node>
<node id="-4" lat="45.56624463" lon="-122.673590168" visible="true"><tag k="addr:housenumber" v="656"/><tag k="addr:postcode" v="97217"/><tag k="addr:city" v="Portland"/><tag k="addr:street" v="North Ainsworth Street"/></node>
<node id="-5" lat="45.566250504" lon="-122.67358804" visible="true"><tag k="addr:housenumber" v="658"/><tag k="addr:postcode" v="97217"/><tag k="addr:city" v="Portland"/><tag k="addr:street" v="North Ainsworth Street"/></node>
<node id="-6" lat="45.566249547" lon="-122.673593491" visible="true"><tag k="addr:housenumber" v="660"/><tag k="addr:postcode" v="97217"/><tag k="addr:city" v="Portland"/><tag k="addr:street" v="North Ainsworth Street"/></node>
<node id="-7" lat="45.566242354" lon="-122.673595621" visible="true"><tag k="addr:housenumber" v="662"/><tag k="addr:postcode" v="97217"/><tag k="addr:city" v="Portland"/><tag k="addr:street" v="North Ainsworth Street"/></node>
<node id="-8" lat="45.566245857" lon="-122.673594127" visible="true"><tag k="addr:housenumber" v="664"/><tag k="addr:postcode" v="97217"/><tag k="addr:city" v="Portland"/><tag k="addr:street" v="North Ainsworth Street"/></node>
<node id="-9" lat="45.566236679" lon="-122.676249864" visible="true"><tag k="addr:housenumber" v="910"/><tag k="addr:postcode" v="97217"/><tag k="addr:city" v="Portland"/><tag k="addr:street" v="North Ainsworth Street"/></node>
<node id="-10" lat="45.566232775" lon="-122.676253783" visible="true"><tag k="addr:housenumber" v="912"/><tag k="addr:postcode" v="97217"/><tag k="addr:city" v="Portland"/><tag k="addr:street" v="North Ainsworth Street"/></node>
<node id="-11" lat="45.563691075" lon="-122.681892315" visible="true"><tag k="addr:housenumber" v="1431"/><tag k="addr:postcode" v="97217"/><tag k="addr:city" v="Portland"/><tag k="addr:street" v="North Church Street"/></node>
<node id="-12" lat="45.56369019" lon="-122.681895009" visible="true"><tag k="addr:housenumber" v="5618"/><tag k="addr:postcode" v="97217"/><tag k="addr:city" v="Portland"/><tag k="addr:street" v="North Interstate Avenue"/></node>
<node id="-13" lat="45.564947651" lon="-122.681844055" visible="true"><tag k="addr:housenumber" v="5804"/><tag k="addr:postcode" v="97217"/><tag k="addr:city" v="Portland"/><tag k="addr:street" v="North Interstate Avenue"/></node>
<node id="-14" lat="45.564946325" lon="-122.681843376" visible="true"><tag k="addr:housenumber" v="5808"/><tag k="addr:postcode" v="97217"/><tag k="addr:city" v="Portland"/><tag k="addr:street" v="North Interstate Avenue"/></node>
<node id="-15" lat="45.565082292" lon="-122.68184279" visible="true"><tag k="addr:housenumber" v="5822"/><tag k="addr:postcode" v="97217"/><tag k="addr:city" v="Portland"/><tag k="addr:street" v="North Interstate Avenue"/></node>
<node id="-16" lat="45.565080978" lon="-122.681837615" visible="true"><tag k="addr:housenumber" v="5826"/><tag k="addr:postcode" v="97217"/><tag k="addr:city" v="Portland"/><tag k="addr:street" v="North Interstate Avenue"/></node>
<node id="-17" lat="45.566103918" lon="-122.681828936" visible="true"><tag k="addr:housenumber" v="5930"/><tag k="addr:postcode" v="97217"/><tag k="addr:city" v="Portland"/><tag k="addr:street" v="North Interstate Avenue"/></node>
<node id="-18" lat="45.566104085" lon="-122.681829178" visible="true"><tag k="addr:housenumber" v="5940"/><tag k="addr:postcode" v="97217"/><tag k="addr:city" v="Portland"/><tag k="addr:street" v="North Interstate Avenue"/></node>
<node id="-19" lat="45.564251603" lon="-122.677830477" visible="true"><tag k="addr:housenumber" v="1035"/><tag k="addr:postcode" v="97217"/><tag k="addr:city" v="Portland"/><tag k="addr:street" v="North Jessup Street"/></node>
<node id="-20" lat="45.563926754" lon="-122.679474705" visible="true"><tag k="addr:housenumber" v="1206"/><tag k="addr:postcode" v="97217"/><tag k="addr:city" v="Portland"/><tag k="addr:street" v="North Jessup Street"/></node>
<node id="-21" lat="45.563933103" lon="-122.679473155" visible="true"><tag k="addr:housenumber" v="1208"/><tag k="addr:postcode" v="97217"/><tag k="addr:city" v="Portland"/><tag k="addr:street" v="North Jessup Street"/></node>
<node id="-22" lat="45.564249862" lon="-122.675540923" visible="true"><tag k="addr:housenumber" v="815"/><tag k="addr:postcode" v="97217"/><tag k="addr:city" v="Portland"/><tag k="addr:street" v="North Jessup Street"/></node>
<node id="-23" lat="45.564256116" lon="-122.675540787" visible="true"><tag k="addr:housenumber" v="819"/><tag k="addr:postcode" v="97217"/><tag k="addr:city" v="Portland"/><tag k="addr:street" v="North Jessup Street"/></node>
<node id="-24" lat="45.564256853" lon="-122.675745027" visible="true"><tag k="addr:housenumber" v="825"/><tag k="addr:postcode" v="97217"/><tag k="addr:city" v="Portland"/><tag k="addr:street" v="North Jessup Street"/></node>
<node id="-25" lat="45.563227245" lon="-122.677269406" visible="true"><tag k="addr:housenumber" v="1001"/><tag k="addr:postcode" v="97217"/><tag k="addr:city" v="Portland"/><tag k="addr:street" v="North Killingsworth Street"/></node>
<node id="-26" lat="45.562823732" lon="-122.679487586" visible="true"><tag k="addr:housenumber" v="1223"/><tag k="addr:postcode" v="97217"/><tag k="addr:city" v="Portland"/><tag k="addr:street" v="North Killingsworth Street"/></node>
<node id="-27" lat="45.56282165" lon="-122.679779461" visible="true"><tag k="addr:housenumber" v="1225"/><tag k="addr:postcode" v="97217"/><tag k="addr:city" v="Portland"/><tag k="addr:street" v="North Killingsworth Street"/></node>
<node id="-28" lat="45.562814279" lon="-122.679899693" visible="true"><tag k="addr:housenumber" v="1229"/><tag k="addr:postcode" v="97217"/><tag k="addr:city" v="Portland"/><tag k="addr:street" v="North Killingsworth Street"/></node>
<node id="-29" lat="45.562886746" lon="-122.679881567" visible="true"><tag k="addr:housenumber" v="1233"/><tag k="addr:postcode" v="97217"/><tag k="addr:city" v="Portland"/><tag k="addr:street" v="North Killingsworth Street"/></node>
<node id="-30" lat="45.562860673" lon="-122.680994445" visible="true"><tag k="addr:housenumber" v="1331"/><tag k="addr:postcode" v="97217"/><tag k="addr:city" v="Portland"/><tag k="addr:street" v="North Killingsworth Street"/></node>
<node id="-31" lat="45.562861879" lon="-122.680994207" visible="true"><tag k="addr:housenumber" v="1335"/><tag k="addr:postcode" v="97217"/><tag k="addr:city" v="Portland"/><tag k="addr:street" v="North Killingsworth Street"/></node>
<node id="-32" lat="45.56286404" lon="-122.680988865" visible="true"><tag k="addr:housenumber" v="1341"/><tag k="addr:postcode" v="97217"/><tag k="addr:city" v="Portland"/><tag k="addr:street" v="North Killingsworth Street"/></node>
<node id="-33" lat="45.564516698" lon="-122.681495153" visible="true"><tag k="addr:housenumber" v="5727"/><tag k="addr:postcode" v="97217"/><tag k="addr:city" v="Portland"/><tag k="addr:street" v="North Maryland Avenue"/></node>
<node id="-34" lat="45.56451709" lon="-122.681498695" visible="true"><tag k="addr:housenumber" v="5731"/><tag k="addr:postcode" v="97217"/><tag k="addr:city" v="Portland"/><tag k="addr:street" v="North Maryland Avenue"/></node>
<node id="-35" lat="45.564523264" lon="-122.681494134" visible="true"><tag k="addr:housenumber" v="5735"/><tag k="addr:postcode" v="97217"/><tag k="addr:city" v="Portland"/><tag k="addr:street" v="North Maryland Avenue"/></node>
<node id="-36" lat="45.564515284" lon="-122.681498784" visible="true"><tag k="addr:housenumber" v="5739"/><tag k="addr:postcode" v="97217"/><tag k="addr:city" v="Portland"/><tag k="addr:street" v="North Maryland Avenue"/></node>
<node id="-37" lat="45.564522908" lon="-122.681498094" visible="true"><tag k="addr:housenumber" v="5743"/><tag k="addr:postcode" v="97217"/><tag k="addr:city" v="Portland"/><tag k="addr:street" v="North Maryland Avenue"/></node>
<node id="-38" lat="45.566076442" lon="-122.680852731" visible="true"><tag k="addr:housenumber" v="5934"/><tag k="addr:postcode" v="97217"/><tag k="addr:city" v="Portland"/><tag k="addr:street" v="North Maryland Avenue"/></node>
<node id="-39" lat="45.56607884" lon="-122.680857914" visible="true"><tag k="addr:housenumber" v="5936"/><tag k="addr:postcode" v="97217"/><tag k="addr:city" v="Portland"/><tag k="addr:street" v="North Maryland Avenue"/></node>
<node id="-40" lat="45.563226334" lon="-122.677275799" visible="true"><tag k="addr:housenumber" v="5525"/><tag k="addr:postcode" v="97217"/><tag k="addr:city" v="Portland"/><tag k="addr:street" v="North Michigan Avenue"/></node>
<node id="-41" lat="45.563220562" lon="-122.677275536" visible="true"><tag k="addr:housenumber" v="5535"/><tag k="addr:postcode" v="97217"/><tag k="addr:city" v="Portland"/><tag k="addr:street" v="North Michigan Avenue"/></node>
<node id="-42" lat="45.562830196" lon="-122.679488409" visible="true"><tag k="addr:housenumber" v="5505"/><tag k="addr:postcode" v="97217"/><tag k="addr:city" v="Portland"/><tag k="addr:street" v="North Minnesota Avenue"/></node>
<node id="-43" lat="45.564258232" lon="-122.675745535" visible="true"><tag k="addr:housenumber" v="5704"/><tag k="addr:postcode" v="97217"/><tag k="addr:city" v="Portland"/><tag k="addr:street" v="North Mississippi Avenue"/></node>
<node id="-44" lat="45.564248698" lon="-122.675535443" visible="true"><tag k="addr:housenumber" v="5706"/><tag k="addr:postcode" v="97217"/><tag k="addr:city" v="Portland"/><tag k="addr:street" v="North Mississippi Avenue"/></node>
<node id="-45" lat="45.564402052" lon="-122.675642478" visible="true"><tag k="addr:housenumber" v="5714"/><tag k="addr:postcode" v="97217"/><tag k="addr:city" v="Portland"/><tag k="addr:street" v="North Mississippi Avenue"/></node>
<node id="-46" lat="45.564395521" lon="-122.675640268" visible="true"><tag k="addr:housenumber" v="5716"/><tag k="addr:postcode" v="97217"/><tag k="addr:city" v="Portland"/><tag k="addr:street" v="North Mississippi Avenue"/></node>
<node id="-47" lat="45.564960328" lon="-122.675640868" visible="true"><tag k="addr:housenumber" v="5802"/><tag k="addr:postcode" v="97217"/><tag k="addr:city" v="Portland"/><tag k="addr:street" v="North Mississippi Avenue"/></node>
<node id="-48" lat="45.564961498" lon="-122.675632868" visible="true"><tag k="addr:housenumber" v="5806"/><tag k="addr:postcode" v="97217"/><tag k="addr:city" v="Portland"/><tag k="addr:street" v="North Mississippi Avenue"/></node>
<node id="-49" lat="45.569714368" lon="-122.676189916" visible="true"><tag k="addr:housenumber" v="6429"/><tag k="addr:postcode" v="97217"/><tag k="addr:city" v="Portland"/><tag k="addr:street" v="North Mississippi Avenue"/></node>
<node id="-50" lat="45.564256466" lon="-122.677835008" visible="true"><tag k="addr:housenumber" v="5704"/><tag k="addr:postcode" v="97217"/><tag k="addr:city" v="Portland"/><tag k="addr:street" v="North Missouri Avenue"/></node>
<node id="-51" lat="45.565379103" lon="-122.677821263" visible="true"><tag k="addr:housenumber" v="5836"/><tag k="addr:postcode" v="97217"/><tag k="addr:city" v="Portland"/><tag k="addr:street" v="North Missouri Avenue"/></node>
<node id="-52" lat="45.563230859" lon="-122.679874142" visible="true"><tag k="addr:housenumber" v="5512"/><tag k="addr:postcode" v="97217"/><tag k="addr:city" v="Portland"/><tag k="addr:street" v="North Montana Avenue"/></node>
<node id="-53" lat="45.563230185" lon="-122.679874368" visible="true"><tag k="addr:housenumber" v="5534"/><tag k="addr:postcode" v="97217"/><tag k="addr:city" v="Portland"/><tag k="addr:street" v="North Montana Avenue"/></node>
<node id="-54" lat="45.563941646" lon="-122.679866861" visible="true"><tag k="addr:housenumber" v="5630"/><tag k="addr:postcode" v="97217"/><tag k="addr:city" v="Portland"/><tag k="addr:street" v="North Montana Avenue"/></node>
<node id="-55" lat="45.563947218" lon="-122.679863087" visible="true"><tag k="addr:housenumber" v="5632"/><tag k="addr:postcode" v="97217"/><tag k="addr:city" v="Portland"/><tag k="addr:street" v="North Montana Avenue"/></node>
<node id="-56" lat="45.56451911" lon="-122.680482046" visible="true"><tag k="addr:housenumber" v="5721"/><tag k="addr:postcode" v="97217"/><tag k="addr:city" v="Portland"/><tag k="addr:street" v="North Montana Avenue"/></node>
<node id="-57" lat="45.564519473" lon="-122.680485636" visible="true"><tag k="addr:housenumber" v="5725"/><tag k="addr:postcode" v="97217"/><tag k="addr:city" v="Portland"/><tag k="addr:street" v="North Montana Avenue"/></node>
<node id="-58" lat="45.569127186" lon="-122.679804053" visible="true"><tag k="addr:housenumber" v="6344"/><tag k="addr:postcode" v="97217"/><tag k="addr:city" v="Portland"/><tag k="addr:street" v="North Montana Avenue"/></node>
<node id="-59" lat="45.569124906" lon="-122.679805665" visible="true"><tag k="addr:housenumber" v="6346"/><tag k="addr:postcode" v="97217"/><tag k="addr:city" v="Portland"/><tag k="addr:street" v="North Montana Avenue"/></node>
<node id="-60" lat="45.569626899" lon="-122.680324705" visible="true"><tag k="addr:housenumber" v="1314"/><tag k="addr:postcode" v="97217"/><tag k="addr:city" v="Portland"/><tag k="addr:street" v="North Rosa Parks Way"/></node>
<node id="-61" lat="45.569633349" lon="-122.68032365" visible="true"><tag k="addr:housenumber" v="1318"/><tag k="addr:postcode" v="97217"/><tag k="addr:city" v="Portland"/><tag k="addr:street" v="North Rosa Parks Way"/></node>
<node id="-62" lat="45.56970763" lon="-122.676185721" visible="true"><tag k="addr:housenumber" v="908"/><tag k="addr:postcode" v="97217"/><tag k="addr:city" v="Portland"/><tag k="addr:street" v="North Rosa Parks Way"/></node>
<node id="-63" lat="45.565372289" lon="-122.677823321" visible="true"><tag k="addr:housenumber" v="1036"/><tag k="addr:postcode" v="97217"/><tag k="addr:city" v="Portland"/><tag k="addr:street" v="North Simpson Street"/></node>
<node id="-64" lat="45.565375324" lon="-122.677816352" visible="true"><tag k="addr:housenumber" v="1042"/><tag k="addr:postcode" v="97217"/><tag k="addr:city" v="Portland"/><tag k="addr:street" v="North Simpson Street"/></node>
<node id="-65" lat="45.565767953" lon="-122.672677489" visible="true"><tag k="addr:housenumber" v="563"/><tag k="addr:postcode" v="97217"/><tag k="addr:city" v="Portland"/><tag k="addr:street" v="North Simpson Street"/></node>
<node id="-66" lat="45.565771065" lon="-122.672680829" visible="true"><tag k="addr:housenumber" v="565"/><tag k="addr:postcode" v="97217"/><tag k="addr:city" v="Portland"/><tag k="addr:street" v="North Simpson Street"/></node>
<node id="-67" lat="45.565769785" lon="-122.672680695" visible="true"><tag k="addr:housenumber" v="567"/><tag k="addr:postcode" v="97217"/><tag k="addr:city" v="Portland"/><tag k="addr:street" v="North Simpson Street"/></node>
</osm>