<?xml version="1.0"?>
<osm version="0.6" upload="false" generator="uvmogr2osm">
<node id="-1" lat="45.533809858" lon="-122.671086292" visible="true"><tag k="addr:housenumber" v="421"/><tag k="addr:postcode" v="97227"/><tag k="addr:city" v="Portland"/><tag k="addr:street" v="North Broadway"/></node>
<node id="-2" lat="45.533813509" lon="-122.671093058" visible="true"><tag k="addr:housenumber" v="429"/><tag k="addr:postcode" v="97227"/><tag k="addr:city" v="Portland"/><tag k="addr:street" v="North Broadway"/></node>
<node id="-3" lat="45.533811256" lon="-122.671093824" visible="true"><tag k="addr:housenumber" v="431"/><tag k="addr:postcode" v="97227"/><tag k="addr:city" v="Portland"/><tag k="addr:street" v="North Broadway"/></node>
<node id="-4" lat="45.533811604" lon="-122.671084513" visible="true"><tag k="addr:housenumber" v="437"/><tag k="addr:postcode" v="97227"/><tag k="addr:city" v="Portland"/><tag k="addr:street" v="North Broadway"/></node>
<node id="-5" lat="45.533807936" lon="-122.671088686" visible="true"><tag k="addr:housenumber" v="439"/><tag k="addr:postcode" v="97227"/><tag k="addr:city" v="Portland"/><tag k="addr:street" v="North Broadway"/></node>
<node id="-6" lat="45.546874766" lon="-122.671531923" visible="true"><tag k="addr:housenumber" v="544"/><tag k="addr:postcode" v="97227"/><tag k="addr:city" v="Portland"/><tag k="addr:street" v="North Cook Street"/></node>
<node id="-7" lat="45.546874473" lon="-122.671527556" visible="true"><tag k="addr:housenumber" v="548"/><tag k="addr:postcode" v="97227"/><tag k="addr:city" v="Portland"/><tag k="addr:street" v="North Cook Street"/></node>
<node id="-8" lat="45.548113706" lon="-122.668590933" visible="true"><tag k="addr:housenumber" v="222"/><tag k="addr:postcode" v="97227"/><tag k="addr:city" v="Portland"/><tag k="addr:street" v="North Fremont Street"/></node>
<node id="-9" lat="45.548117139" lon="-122.66858905" visible="true"><tag k="addr:housenumber" v="3436"/><tag k="addr:postcode" v="97227"/><tag k="addr:city" v="Portland"/><tag k="addr:street" v="North Gantenbein Avenue"/></node>
<node id="-10" lat="45.547665907" lon="-122.67121102" visible="true"><tag k="addr:housenumber" v="517"/><tag k="addr:postcode" v="97227"/><tag k="addr:city" v="Portland"/><tag k="addr:street" v="North Ivy Street"/></node>
<node id="-11" lat="45.547671069" lon="-122.671217486" visible="true"><tag k="addr:housenumber" v="521"/><tag k="addr:postcode" v="97227"/><tag k="addr:city" v="Portland"/><tag k="addr:street" v="North Ivy Street"/></node>
<node id="-12" lat="45.546944147" lon="-122.671753084" visible="true"><tag k="addr:housenumber" v="3236"/><tag k="addr:postcode" v="97227"/><tag k="addr:city" v="Portland"/><tag k="addr:street" v="North Kerby Avenue"/></node>
<node id="-13" lat="45.546907596" lon="-122.671649297" visible="true"><tag k="addr:housenumber" v="3238"/><tag k="addr:postcode" v="97227"/><tag k="addr:city" v="Portland"/><tag k="addr:street" v="North Kerby Avenue"/></node>
<node id="-14" lat="45.545584944" lon="-122.667224912" visible="true"><tag k="addr:housenumber" v="21"/><tag k="addr:postcode" v="97227"/><tag k="addr:city" v="Portland"/><tag k="addr:street" v="North Monroe Street"/></node>
<node id="-15" lat="45.545577485" lon="-122.667224302" visible="true"><tag k="addr:housenumber" v="23"/><tag k="addr:postcode" v="97227"/><tag k="addr:city" v="Portland"/><tag k="addr:street" v="North Monroe Street"/></node>
<node id="-16" lat="45.539817517" lon="-122.668010357" visible="true"><tag k="addr:housenumber" v="205"/><tag k="addr:postcode" v="97227"/><tag k="addr:city" v="Portland"/><tag k="addr:street" v="North Page Street"/></node>
<node id="-17" lat="45.539812912" lon="-122.668003905" visible="true"><tag k="addr:housenumber" v="215"/><tag k="addr:postcode" v="97227"/><tag k="addr:city" v="Portland"/><tag k="addr:street" v="North Page Street"/></node>
<node id="-18" lat="45.540637884" lon="-122.668391899" visible="true"><tag k="addr:housenumber" v="210"/><tag k="addr:postcode" v="97227"/><tag k="addr:city" v="Portland"/><tag k="addr:street" v="North Russell Street"/></node>
<node id="-19" lat="45.540639384" lon="-122.668393337" visible="true"><tag k="addr:housenumber" v="214"/><tag k="addr:postcode" v="97227"/><tag k="addr:city" v="Portland"/><tag k="addr:street" v="North Russell Street"/></node>
<node id="-20" lat="45.540290372" lon="-122.667379469" visible="true"><tag k="addr:housenumber" v="2416"/><tag k="addr:postcode" v="97227"/><tag k="addr:city" v="Portland"/><tag k="addr:street" v="North Vancouver Avenue"/></node>
<node id="-21" lat="45.540287226" lon="-122.667379043" visible="true"><tag k="addr:housenumber" v="2424"/><tag k="addr:postcode" v="97227"/><tag k="addr:city" v="Portland"/><tag k="addr:street" v="North Vancouver Avenue"/></node>
<node id="-22" lat="45.545019729" lon="-122.668718665" visible="true"><tag k="addr:housenumber" v="3025"/><tag k="addr:postcode" v="97227"/><tag k="addr:city" v="Portland"/><tag k="addr:street" v="North Vancouver Avenue"/></node>
<node id="-23" lat="45.545020142" lon="-122.668722681" visible="true"><tag k="addr:housenumber" v="3035"/><tag k="addr:postcode" v="97227"/><tag k="addr:city" v="Portland"/><tag k="addr:street" v="North Vancouver Avenue"/></node>
<node id="-24" lat="45.545664918" lon="-122.667754171" visible="true"><tag k="addr:housenumber" v="3116"/><tag k="addr:postcode" v="97227"/><tag k="addr:city" v="Portland"/><tag k="addr:street" v="North Vancouver Avenue"/></node>
<node id="-25" lat="45.545650381" lon="-122.667736406" visible="true"><tag k="addr:housenumber" v="3120"/><tag k="addr:postcode" v="97227"/><tag k="addr:city" v="Portland"/><tag k="addr:street" v="North Vancouver Avenue"/></node>
<node id="-26" lat="45.547698655" lon="-122.668258825" visible="true"><tag k="addr:housenumber" v="3407"/><tag k="addr:postcode" v="97227"/><tag k="addr:city" v="Portland"/><tag k="addr:street" v="North Vancouver Avenue"/></node>
<node id="-27" lat="45.54770245" lon="-122.668258947" visible="true"><tag k="addr:housenumber" v="3409"/><tag k="addr:postcode" v="97227"/><tag k="addr:city" v="Portland"/><tag k="addr:street" v="North Vancouver Avenue"/></node>
<node id="-28" lat="45.547704052" lon="-122.668255771" visible="true"><tag k="addr:housenumber" v="3411"/><tag k="addr:postcode" v="97227"/><tag k="addr:city" v="Portland"/><tag k="addr:street" v="North Vancouver Avenue"/></node>
<node id="-29" lat="45.542696784" lon="-122.666360432" visible="true"><tag k="addr:housenumber" v="2752"/><tag k="addr:postcode" v="97227"/><tag k="addr:city" v="Portland"/><tag k="addr:street" v="North Williams Avenue"/></node>
<node id="-30" lat="45.53470388" lon="-122.664471052" visible="true"><tag k="addr:housenumber" v="1618"/><tag k="addr:postcode" v="97232"/><tag k="addr:city" v="Portland"/><tag k="addr:street" v="Northeast 1st Avenue"/></node>
<node id="-31" lat="45.535995466" lon="-122.664106415" visible="true"><tag k="addr:housenumber" v="1810"/><tag k="addr:postcode" v="97212"/><tag k="addr:city" v="Portland"/><tag k="addr:street" v="Northeast 1st Avenue"/></node>
<node id="-32" lat="45.535997884" lon="-122.664101532" visible="true"><tag k="addr:housenumber" v="1805"/><tag k="addr:postcode" v="97212"/><tag k="addr:city" v="Portland"/><tag k="addr:street" v="Northeast 2nd Avenue"/></node>
<node id="-33" lat="45.535995254" lon="-122.664102082" visible="true"><tag k="addr:housenumber" v="1809"/><tag k="addr:postcode" v="97212"/><tag k="addr:city" v="Portland"/><tag k="addr:street" v="Northeast 2nd Avenue"/></node>
<node id="-34" lat="45.536001113" lon="-122.664100808" visible="true"><tag k="addr:housenumber" v="1813"/><tag k="addr:postcode" v="97212"/><tag k="addr:city" v="Portland"/><tag k="addr:street" v="Northeast 2nd Avenue"/></node>
<node id="-35" lat="45.546968192" lon="-122.665278106" visible="true"><tag k="addr:housenumber" v="51"/><tag k="addr:postcode" v="97212"/><tag k="addr:city" v="Portland"/><tag k="addr:street" v="Northeast Cook Street"/></node>
<node id="-36" lat="45.546964552" lon="-122.665274463" visible="true"><tag k="addr:housenumber" v="55"/><tag k="addr:postcode" v="97212"/><tag k="addr:city" v="Portland"/><tag k="addr:street" v="Northeast Cook Street"/></node>
<node id="-37" lat="45.545847399" lon="-122.662523186" visible="true"><tag k="addr:housenumber" v="300"/><tag k="addr:postcode" v="97212"/><tag k="addr:city" v="Portland"/><tag k="addr:street" v="Northeast Fargo Street"/></node>
<node id="-38" lat="45.545846263" lon="-122.662523465" visible="true"><tag k="addr:housenumber" v="302"/><tag k="addr:postcode" v="97212"/><tag k="addr:city" v="Portland"/><tag k="addr:street" v="Northeast Fargo Street"/></node>
<node id="-39" lat="45.546290438" lon="-122.665465707" visible="true"><tag k="addr:housenumber" v="41"/><tag k="addr:postcode" v="97212"/><tag k="addr:city" v="Portland"/><tag k="addr:street" v="Northeast Fargo Street"/></node>
<node id="-40" lat="45.546293184" lon="-122.665466908" visible="true"><tag k="addr:housenumber" v="43"/><tag k="addr:postcode" v="97212"/><tag k="addr:city" v="Portland"/><tag k="addr:street" v="Northeast Fargo Street"/></node>
<node id="-41" lat="45.546289097" lon="-122.664897963" visible="true"><tag k="addr:housenumber" v="63"/><tag k="addr:postcode" v="97212"/><tag k="addr:city" v="Portland"/><tag k="addr:street" v="Northeast Fargo Street"/></node>
<node id="-42" lat="45.546286409" lon="-122.664897145" visible="true"><tag k="addr:housenumber" v="65"/><tag k="addr:postcode" v="97212"/><tag k="addr:city" v="Portland"/><tag k="addr:street" v="Northeast Fargo Street"/></node>
<node id="-43" lat="45.542693528" lon="-122.666359135" visible="true"><tag k="addr:housenumber" v="10"/><tag k="addr:postcode" v="97212"/><tag k="addr:city" v="Portland"/><tag k="addr:street" v="Northeast Graham Street"/></node>
<node id="-44" lat="45.543025002" lon="-122.663921933" visible="true"><tag k="addr:housenumber" v="101"/><tag k="addr:postcode" v="97212"/><tag k="addr:city" v="Portland"/><tag k="addr:street" v="Northeast Graham Street"/></node>
<node id="-45" lat="45.543020883" lon="-122.663928494" visible="true"><tag k="addr:housenumber" v="103"/><tag k="addr:postcode" v="97212"/><tag k="addr:city" v="Portland"/><tag k="addr:street" v="Northeast Graham Street"/></node>
<node id="-46" lat="45.542656528" lon="-122.666105851" visible="true"><tag k="addr:housenumber" v="16"/><tag k="addr:postcode" v="97212"/><tag k="addr:city" v="Portland"/><tag k="addr:street" v="Northeast Graham Street"/></node>
<node id="-47" lat="45.542657113" lon="-122.666106783" visible="true"><tag k="addr:housenumber" v="18"/><tag k="addr:postcode" v="97212"/><tag k="addr:city" v="Portland"/><tag k="addr:street" v="Northeast Graham Street"/></node>
<node id="-48" lat="45.543049592" lon="-122.662690752" visible="true"><tag k="addr:housenumber" v="237"/><tag k="addr:postcode" v="97212"/><tag k="addr:city" v="Portland"/><tag k="addr:street" v="Northeast Graham Street"/></node>
<node id="-49" lat="45.543049613" lon="-122.662696045" visible="true"><tag k="addr:housenumber" v="239"/><tag k="addr:postcode" v="97212"/><tag k="addr:city" v="Portland"/><tag k="addr:street" v="Northeast Graham Street"/></node>
<node id="-50" lat="45.543031574" lon="-122.66246192" visible="true"><tag k="addr:housenumber" v="307"/><tag k="addr:postcode" v="97212"/><tag k="addr:city" v="Portland"/><tag k="addr:street" v="Northeast Graham Street"/></node>
<node id="-51" lat="45.543034261" lon="-122.662461961" visible="true"><tag k="addr:housenumber" v="309"/><tag k="addr:postcode" v="97212"/><tag k="addr:city" v="Portland"/><tag k="addr:street" v="Northeast Graham Street"/></node>
<node id="-52" lat="45.542660103" lon="-122.664782915" visible="true"><tag k="addr:housenumber" v="68"/><tag k="addr:postcode" v="97212"/><tag k="addr:city" v="Portland"/><tag k="addr:street" v="Northeast Graham Street"/></node>
<node id="-53" lat="45.542660469" lon="-122.664788703" visible="true"><tag k="addr:housenumber" v="70"/><tag k="addr:postcode" v="97212"/><tag k="addr:city" v="Portland"/><tag k="addr:street" v="Northeast Graham Street"/></node>
<node id="-54" lat="45.53663843" lon="-122.663330708" visible="true"><tag k="addr:housenumber" v="213"/><tag k="addr:postcode" v="97212"/><tag k="addr:city" v="Portland"/><tag k="addr:street" v="Northeast Hancock Street"/></node>
<node id="-55" lat="45.536636371" lon="-122.663326467" visible="true"><tag k="addr:housenumber" v="215"/><tag k="addr:postcode" v="97212"/><tag k="addr:city" v="Portland"/><tag k="addr:street" v="Northeast Hancock Street"/></node>
<node id="-56" lat="45.547272994" lon="-122.663631211" visible="true"><tag k="addr:housenumber" v="118"/><tag k="addr:postcode" v="97212"/><tag k="addr:city" v="Portland"/><tag k="addr:street" v="Northeast Ivy Street"/></node>
<node id="-57" lat="45.547276962" lon="-122.663580296" visible="true"><tag k="addr:housenumber" v="120"/><tag k="addr:postcode" v="97212"/><tag k="addr:city" v="Portland"/><tag k="addr:street" v="Northeast Ivy Street"/></node>
<node id="-58" lat="45.547242731" lon="-122.666016502" visible="true"><tag k="addr:housenumber" v="18"/><tag k="addr:postcode" v="97212"/><tag k="addr:city" v="Portland"/><tag k="addr:street" v="Northeast Ivy Street"/></node>
<node id="-59" lat="45.547244575" lon="-122.666018095" visible="true"><tag k="addr:housenumber" v="20"/><tag k="addr:postcode" v="97212"/><tag k="addr:city" v="Portland"/><tag k="addr:street" v="Northeast Ivy Street"/></node>
<node id="-60" lat="45.547668028" lon="-122.664886206" visible="true"><tag k="addr:housenumber" v="65"/><tag k="addr:postcode" v="97212"/><tag k="addr:city" v="Portland"/><tag k="addr:street" v="Northeast Ivy Street"/></node>
<node id="-61" lat="45.547677084" lon="-122.664882927" visible="true"><tag k="addr:housenumber" v="67"/><tag k="addr:postcode" v="97212"/><tag k="addr:city" v="Portland"/><tag k="addr:street" v="Northeast Ivy Street"/></node>
<node id="-62" lat="45.542102705" lon="-122.663874174" visible="true"><tag k="addr:housenumber" v="101"/><tag k="addr:postcode" v="97212"/><tag k="addr:city" v="Portland"/><tag k="addr:street" v="Northeast Knott Street"/></node>
<node id="-63" lat="45.542094977" lon="-122.663874259" visible="true"><tag k="addr:housenumber" v="103"/><tag k="addr:postcode" v="97212"/><tag k="addr:city" v="Portland"/><tag k="addr:street" v="Northeast Knott Street"/></node>
<node id="-64" lat="45.542103883" lon="-122.663874433" visible="true"><tag k="addr:housenumber" v="105"/><tag k="addr:postcode" v="97212"/><tag k="addr:city" v="Portland"/><tag k="addr:street" v="Northeast Knott Street"/></node>
<node id="-65" lat="45.542096286" lon="-122.663870365" visible="true"><tag k="addr:housenumber" v="107"/><tag k="addr:postcode" v="97212"/><tag k="addr:city" v="Portland"/><tag k="addr:street" v="Northeast Knott Street"/></node>
<node id="-66" lat="45.542099646" lon="-122.663879107" visible="true"><tag k="addr:housenumber" v="109"/><tag k="addr:postcode" v="97212"/><tag k="addr:city" v="Portland"/><tag k="addr:street" v="Northeast Knott Street"/></node>
<node id="-67" lat="45.544354397" lon="-122.661923629" visible="true"><tag k="addr:housenumber" v="2929"/><tag k="addr:postcode" v="97212"/><tag k="addr:city" v="Portland"/><tag k="addr:street" v="Northeast Martin Luther King Jr Boulevard"/></node>
<node id="-68" lat="45.544353715" lon="-122.661920206" visible="true"><tag k="addr:housenumber" v="2955"/><tag k="addr:postcode" v="97212"/><tag k="addr:city" v="Portland"/><tag k="addr:street" v="Northeast Martin Luther King Jr Boulevard"/></node>
<node id="-69" lat="45.545128718" lon="-122.661999924" visible="true"><tag k="addr:housenumber" v="3035"/><tag k="addr:postcode" v="97212"/><tag k="addr:city" v="Portland"/><tag k="addr:street" v="Northeast Martin Luther King Jr Boulevard"/></node>
<node id="-70" lat="45.545569347" lon="-122.66330571" visible="true"><tag k="addr:housenumber" v="203"/><tag k="addr:postcode" v="97212"/><tag k="addr:city" v="Portland"/><tag k="addr:street" v="Northeast Monroe Street"/></node>
<node id="-71" lat="45.545570825" lon="-122.663304177" visible="true"><tag k="addr:housenumber" v="205"/><tag k="addr:postcode" v="97212"/><tag k="addr:city" v="Portland"/><tag k="addr:street" v="Northeast Monroe Street"/></node>
<node id="-72" lat="45.545584884" lon="-122.667231578" visible="true"><tag k="addr:housenumber" v="21"/><tag k="addr:postcode" v="97227"/><tag k="addr:city" v="Portland"/><tag k="addr:street" v="Northeast Monroe Street"/></node>
<node id="-73" lat="45.545568307" lon="-122.662524252" visible="true"><tag k="addr:housenumber" v="301"/><tag k="addr:postcode" v="97212"/><tag k="addr:city" v="Portland"/><tag k="addr:street" v="Northeast Monroe Street"/></node>
<node id="-74" lat="45.545565642" lon="-122.662523823" visible="true"><tag k="addr:housenumber" v="303"/><tag k="addr:postcode" v="97212"/><tag k="addr:city" v="Portland"/><tag k="addr:street" v="Northeast Monroe Street"/></node>
<node id="-75" lat="45.545569625" lon="-122.662524506" visible="true"><tag k="addr:housenumber" v="305"/><tag k="addr:postcode" v="97212"/><tag k="addr:city" v="Portland"/><tag k="addr:street" v="Northeast Monroe Street"/></node>
<node id="-76" lat="45.545128166" lon="-122.662326781" visible="true"><tag k="addr:housenumber" v="306"/><tag k="addr:postcode" v="97212"/><tag k="addr:city" v="Portland"/><tag k="addr:street" v="Northeast Monroe Street"/></node>
<node id="-77" lat="45.545572294" lon="-122.662520391" visible="true"><tag k="addr:housenumber" v="307"/><tag k="addr:postcode" v="97212"/><tag k="addr:city" v="Portland"/><tag k="addr:street" v="Northeast Monroe Street"/></node>
<node id="-78" lat="45.545129769" lon="-122.662326524" visible="true"><tag k="addr:housenumber" v="308"/><tag k="addr:postcode" v="97212"/><tag k="addr:city" v="Portland"/><tag k="addr:street" v="Northeast Monroe Street"/></node>
<node id="-79" lat="45.545127897" lon="-122.662001567" visible="true"><tag k="addr:housenumber" v="318"/><tag k="addr:postcode" v="97212"/><tag k="addr:city" v="Portland"/><tag k="addr:street" v="Northeast Monroe Street"/></node>
<node id="-80" lat="45.544242391" lon="-122.664852179" visible="true"><tag k="addr:housenumber" v="64"/><tag k="addr:postcode" v="97212"/><tag k="addr:city" v="Portland"/><tag k="addr:street" v="Northeast Morris Street"/></node>
<node id="-81" lat="45.544247971" lon="-122.664852512" visible="true"><tag k="addr:housenumber" v="66"/><tag k="addr:postcode" v="97212"/><tag k="addr:city" v="Portland"/><tag k="addr:street" v="Northeast Morris Street"/></node>
<node id="-82" lat="45.537450318" lon="-122.664457488" visible="true"><tag k="addr:housenumber" v="2021"/><tag k="addr:postcode" v="97212"/><tag k="addr:city" v="Portland"/><tag k="addr:street" v="Northeast Rodney Avenue"/></node>
<node id="-83" lat="45.537475017" lon="-122.664454338" visible="true"><tag k="addr:housenumber" v="2023"/><tag k="addr:postcode" v="97212"/><tag k="addr:city" v="Portland"/><tag k="addr:street" v="Northeast Rodney Avenue"/></node>
<node id="-84" lat="45.539703808" lon="-122.663917693" visible="true"><tag k="addr:housenumber" v="2314"/><tag k="addr:postcode" v="97212"/><tag k="addr:city" v="Portland"/><tag k="addr:street" v="Northeast Rodney Avenue"/></node>
<node id="-85" lat="45.539696457" lon="-122.663910049" visible="true"><tag k="addr:housenumber" v="2318"/><tag k="addr:postcode" v="97212"/><tag k="addr:city" v="Portland"/><tag k="addr:street" v="Northeast Rodney Avenue"/></node>
<node id="-86" lat="45.539815379" lon="-122.664355462" visible="true"><tag k="addr:housenumber" v="2323"/><tag k="addr:postcode" v="97212"/><tag k="addr:city" v="Portland"/><tag k="addr:street" v="Northeast Rodney Avenue"/></node>
<node id="-87" lat="45.539819131" lon="-122.664356255" visible="true"><tag k="addr:housenumber" v="2325"/><tag k="addr:postcode" v="97212"/><tag k="addr:city" v="Portland"/><tag k="addr:street" v="Northeast Rodney Avenue"/></node>
<node id="-88" lat="45.539816873" lon="-122.664359193" visible="true"><tag k="addr:housenumber" v="2327"/><tag k="addr:postcode" v="97212"/><tag k="addr:city" v="Portland"/><tag k="addr:street" v="Northeast Rodney Avenue"/></node>
<node id="-89" lat="45.539817594" lon="-122.664362014" visible="true"><tag k="addr:housenumber" v="2329"/><tag k="addr:postcode" v="97212"/><tag k="addr:city" v="Portland"/><tag k="addr:street" v="Northeast Rodney Avenue"/></node>
<node id="-90" lat="45.542443082" lon="-122.6644613" visible="true"><tag k="addr:housenumber" v="2729"/><tag k="addr:postcode" v="97212"/><tag k="addr:city" v="Portland"/><tag k="addr:street" v="Northeast Rodney Avenue"/></node>
<node id="-91" lat="45.54244309" lon="-122.664457078" visible="true"><tag k="addr:housenumber" v="2731"/><tag k="addr:postcode" v="97212"/><tag k="addr:city" v="Portland"/><tag k="addr:street" v="Northeast Rodney Avenue"/></node>
<node id="-92" lat="45.542442601" lon="-122.664456372" visible="true"><tag k="addr:housenumber" v="2735"/><tag k="addr:postcode" v="97212"/><tag k="addr:city" v="Portland"/><tag k="addr:street" v="Northeast Rodney Avenue"/></node>
<node id="-93" lat="45.543142151" lon="-122.664362452" visible="true"><tag k="addr:housenumber" v="2811"/><tag k="addr:postcode" v="97212"/><tag k="addr:city" v="Portland"/><tag k="addr:street" v="Northeast Rodney Avenue"/></node>
<node id="-94" lat="45.543142916" lon="-122.664360792" visible="true"><tag k="addr:housenumber" v="2813"/><tag k="addr:postcode" v="97212"/><tag k="addr:city" v="Portland"/><tag k="addr:street" v="Northeast Rodney Avenue"/></node>
<node id="-95" lat="45.543159489" lon="-122.663924123" visible="true"><tag k="addr:housenumber" v="2816"/><tag k="addr:postcode" v="97212"/><tag k="addr:city" v="Portland"/><tag k="addr:street" v="Northeast Rodney Avenue"/></node>
<node id="-96" lat="45.543156235" lon="-122.66392206" visible="true"><tag k="addr:housenumber" v="2818"/><tag k="addr:postcode" v="97212"/><tag k="addr:city" v="Portland"/><tag k="addr:street" v="Northeast Rodney Avenue"/></node>
<node id="-97" lat="45.543473913" lon="-122.664406472" visible="true"><tag k="addr:housenumber" v="2839"/><tag k="addr:postcode" v="97212"/><tag k="addr:city" v="Portland"/><tag k="addr:street" v="Northeast Rodney Avenue"/></node>
<node id="-98" lat="45.543467177" lon="-122.664400926" visible="true"><tag k="addr:housenumber" v="2841"/><tag k="addr:postcode" v="97212"/><tag k="addr:city" v="Portland"/><tag k="addr:street" v="Northeast Rodney Avenue"/></node>
<node id="-99" lat="45.546359218" lon="-122.664336145" visible="true"><tag k="addr:housenumber" v="3217"/><tag k="addr:postcode" v="97212"/><tag k="addr:city" v="Portland"/><tag k="addr:street" v="Northeast Rodney Avenue"/></node>
<node id="-100" lat="45.546366578" lon="-122.664330261" visible="true"><tag k="addr:housenumber" v="3219"/><tag k="addr:postcode" v="97212"/><tag k="addr:city" v="Portland"/><tag k="addr:street" v="Northeast Rodney Avenue"/></node>
<node id="-101" lat="45.536952632" lon="-122.662935052" visible="true"><tag k="addr:housenumber" v="218"/><tag k="addr:postcode" v="97212"/><tag k="addr:city" v="Portland"/><tag k="addr:street" v="Northeast San Rafael Street"/></node>
<node id="-102" lat="45.536946264" lon="-122.662936745" visible="true"><tag k="addr:housenumber" v="220"/><tag k="addr:postcode" v="97212"/><tag k="addr:city" v="Portland"/><tag k="addr:street" v="Northeast San Rafael Street"/></node>
<node id="-103" lat="45.537356256" lon="-122.665807566" visible="true"><tag k="addr:housenumber" v="31"/><tag k="addr:postcode" v="97212"/><tag k="addr:city" v="Portland"/><tag k="addr:street" v="Northeast San Rafael Street"/></node>
<node id="-104" lat="45.53735411" lon="-122.665807681" visible="true"><tag k="addr:housenumber" v="33"/><tag k="addr:postcode" v="97212"/><tag k="addr:city" v="Portland"/><tag k="addr:street" v="Northeast San Rafael Street"/></node>
<node id="-105" lat="45.53599588" lon="-122.664105827" visible="true"><tag k="addr:housenumber" v="105"/><tag k="addr:postcode" v="97212"/><tag k="addr:city" v="Portland"/><tag k="addr:street" v="Northeast Schuyler Street"/></node>
<node id="-106" lat="45.535998773" lon="-122.664099881" visible="true"><tag k="addr:housenumber" v="115"/><tag k="addr:postcode" v="97212"/><tag k="addr:city" v="Portland"/><tag k="addr:street" v="Northeast Schuyler Street"/></node>
<node id="-107" lat="45.535950111" lon="-122.664297807" visible="true"><tag k="addr:housenumber" v="119"/><tag k="addr:postcode" v="97212"/><tag k="addr:city" v="Portland"/><tag k="addr:street" v="Northeast Schuyler Street"/></node>
<node id="-108" lat="45.535993018" lon="-122.664100674" visible="true"><tag k="addr:housenumber" v="125"/><tag k="addr:postcode" v="97212"/><tag k="addr:city" v="Portland"/><tag k="addr:street" v="Northeast Schuyler Street"/></node>
<node id="-109" lat="45.535995287" lon="-122.664101318" visible="true"><tag k="addr:housenumber" v="135"/><tag k="addr:postcode" v="97212"/><tag k="addr:city" v="Portland"/><tag k="addr:street" v="Northeast Schuyler Street"/></node>
<node id="-110" lat="45.543615664" lon="-122.66575255" visible="true"><tag k="addr:housenumber" v="30"/><tag k="addr:postcode" v="97212"/><tag k="addr:city" v="Portland"/><tag k="addr:street" v="Northeast Stanton Street"/></node>
<node id="-111" lat="45.543607194" lon="-122.665755209" visible="true"><tag k="addr:housenumber" v="32"/><tag k="addr:postcode" v="97212"/><tag k="addr:city" v="Portland"/><tag k="addr:street" v="Northeast Stanton Street"/></node>
<node id="-112" lat="45.539206417" lon="-122.663661048" visible="true"><tag k="addr:housenumber" v="125"/><tag k="addr:postcode" v="97212"/><tag k="addr:city" v="Portland"/><tag k="addr:street" v="Northeast Thompson Street"/></node>
<node id="-113" lat="45.539208915" lon="-122.663666068" visible="true"><tag k="addr:housenumber" v="127"/><tag k="addr:postcode" v="97212"/><tag k="addr:city" v="Portland"/><tag k="addr:street" v="Northeast Thompson Street"/></node>
<node id="-114" lat="45.539205688" lon="-122.663664904" visible="true"><tag k="addr:housenumber" v="129"/><tag k="addr:postcode" v="97212"/><tag k="addr:city" v="Portland"/><tag k="addr:street" v="Northeast Thompson Street"/></node>
<node id="-115" lat="45.539196123" lon="-122.66596654" visible="true"><tag k="addr:housenumber" v="27"/><tag k="addr:postcode" v="97212"/><tag k="addr:city" v="Portland"/><tag k="addr:street" v="Northeast Thompson Street"/></node>
<node id="-116" lat="45.539190421" lon="-122.665971369" visible="true"><tag k="addr:housenumber" v="29"/><tag k="addr:postcode" v="97212"/><tag k="addr:city" v="Portland"/><tag k="addr:street" v="Northeast Thompson Street"/></node>
<node id="-117" lat="45.538790851" lon="-122.662322581" visible="true"><tag k="addr:housenumber" v="306"/><tag k="addr:postcode" v="97212"/><tag k="addr:city" v="Portland"/><tag k="addr:street" v="Northeast Thompson Street"/></node>
<node id="-118" lat="45.538791679" lon="-122.662322572" visible="true"><tag k="addr:housenumber" v="308"/><tag k="addr:postcode" v="97212"/><tag k="addr:city" v="Portland"/><tag k="addr:street" v="Northeast Thompson Street"/></node>
<node id="-119" lat="45.538796839" lon="-122.662319521" visible="true"><tag k="addr:housenumber" v="310"/><tag k="addr:postcode" v="97212"/><tag k="addr:city" v="Portland"/><tag k="addr:street" v="Northeast Thompson Street"/></node>
<node id="-120" lat="45.53879302" lon="-122.662322294" visible="true"><tag k="addr:housenumber" v="312"/><tag k="addr:postcode" v="97212"/><tag k="addr:city" v="Portland"/><tag k="addr:street" v="Northeast Thompson Street"/></node>
<node id="-121" lat="45.537829367" lon="-122.663272517" visible="true"><tag k="addr:housenumber" v="206"/><tag k="addr:postcode" v="97212"/><tag k="addr:city" v="Portland"/><tag k="addr:street" v="Northeast Tillamook Street"/></node>
<node id="-122" lat="45.537831612" lon="-122.66326946" visible="true"><tag k="addr:housenumber" v="210"/><tag k="addr:postcode" v="97212"/><tag k="addr:city" v="Portland"/><tag k="addr:street" v="Northeast Tillamook Street"/></node>
<node id="-123" lat="45.537858834" lon="-122.664527342" visible="true"><tag k="addr:housenumber" v="79"/><tag k="addr:postcode" v="97212"/><tag k="addr:city" v="Portland"/><tag k="addr:street" v="Northeast Tillamook Street"/></node>
<node id="-124" lat="45.537862361" lon="-122.664530153" visible="true"><tag k="addr:housenumber" v="80"/><tag k="addr:postcode" v="97212"/><tag k="addr:city" v="Portland"/><tag k="addr:street" v="Northeast Tillamook Street"/></node>
<node id="-125" lat="45.534702325" lon="-122.664474726" visible="true"><tag k="addr:housenumber" v="121"/><tag k="addr:postcode" v="97232"/><tag k="addr:city" v="Portland"/><tag k="addr:street" v="Northeast Weidler Street"/></node>
</osm>