<?xml version="1.0"?>
<osm version="0.6" upload="false" generator="uvmogr2osm">
<node id="-1" lat="45.575374751" lon="-122.652298456" visible="true"><tag k="addr:housenumber" v="7232"/><tag k="addr:postcode" v="97211"/><tag k="addr:city" v="Portland"/><tag k="addr:street" v="North Ida Avenue"/></node>
<node id="-2" lat="45.576037373" lon="-122.651485271" visible="true"><tag k="addr:housenumber" v="7334"/><tag k="addr:postcode" v="97211"/><tag k="addr:city" v="Portland"/><tag k="addr:street" v="North Seneca Street"/></node>
<node id="-3" lat="45.576671392" lon="-122.656747174" visible="true"><tag k="addr:housenumber" v="763"/><tag k="addr:postcode" v="97211"/><tag k="addr:city" v="Portland"/><tag k="addr:street" v="North Stafford Street"/></node>
<node id="-4" lat="45.57537156" lon="-122.652301662" visible="true"><tag k="addr:housenumber" v="7232"/><tag k="addr:postcode" v="97211"/><tag k="addr:city" v="Portland"/><tag k="addr:street" v="Northeast 12th Avenue"/></node>
<node id="-5" lat="45.576037098" lon="-122.651487126" visible="true"><tag k="addr:housenumber" v="7334"/><tag k="addr:postcode" v="97211"/><tag k="addr:city" v="Portland"/><tag k="addr:street" v="Northeast 13th Avenue"/></node>
<node id="-6" lat="45.572103201" lon="-122.659661597" visible="true"><tag k="addr:housenumber" v="6813"/><tag k="addr:postcode" v="97211"/><tag k="addr:city" v="Portland"/><tag k="addr:street" v="Northeast 6th Avenue"/></node>
<node id="-7" lat="45.572103298" lon="-122.659656818" visible="true"><tag k="addr:housenumber" v="6817"/><tag k="addr:postcode" v="97211"/><tag k="addr:city" v="Portland"/><tag k="addr:street" v="Northeast 6th Avenue"/></node>
<node id="-8" lat="45.576772243" lon="-122.65964856" visible="true"><tag k="addr:housenumber" v="7417"/><tag k="addr:postcode" v="97211"/><tag k="addr:city" v="Portland"/><tag k="addr:street" v="Northeast 6th Avenue"/></node>
<node id="-9" lat="45.57677232" lon="-122.659647586" visible="true"><tag k="addr:housenumber" v="7419"/><tag k="addr:postcode" v="97211"/><tag k="addr:city" v="Portland"/><tag k="addr:street" v="Northeast 6th Avenue"/></node>
<node id="-10" lat="45.576908199" lon="-122.659647526" visible="true"><tag k="addr:housenumber" v="7425"/><tag k="addr:postcode" v="97211"/><tag k="addr:city" v="Portland"/><tag k="addr:street" v="Northeast 6th Avenue"/></node>
<node id="-11" lat="45.576904956" lon="-122.659644844" visible="true"><tag k="addr:housenumber" v="7427"/><tag k="addr:postcode" v="97211"/><tag k="addr:city" v="Portland"/><tag k="addr:street" v="Northeast 6th Avenue"/></node>
<node id="-12" lat="45.576901496" lon="-122.65964563" visible="true"><tag k="addr:housenumber" v="7429"/><tag k="addr:postcode" v="97211"/><tag k="addr:city" v="Portland"/><tag k="addr:street" v="Northeast 6th Avenue"/></node>
<node id="-13" lat="45.57126219" lon="-122.657131734" visible="true"><tag k="addr:housenumber" v="6606"/><tag k="addr:postcode" v="97211"/><tag k="addr:city" v="Portland"/><tag k="addr:street" v="Northeast 8th Avenue"/></node>
<node id="-14" lat="45.571263712" lon="-122.657138186" visible="true"><tag k="addr:housenumber" v="6610"/><tag k="addr:postcode" v="97211"/><tag k="addr:city" v="Portland"/><tag k="addr:street" v="Northeast 8th Avenue"/></node>
<node id="-15" lat="45.571260014" lon="-122.657140124" visible="true"><tag k="addr:housenumber" v="6614"/><tag k="addr:postcode" v="97211"/><tag k="addr:city" v="Portland"/><tag k="addr:street" v="Northeast 8th Avenue"/></node>
<node id="-16" lat="45.574285029" lon="-122.655309361" visible="true"><tag k="addr:housenumber" v="7050"/><tag k="addr:postcode" v="97211"/><tag k="addr:city" v="Portland"/><tag k="addr:street" v="Northeast 9th Avenue"/></node>
<node id="-17" lat="45.574277487" lon="-122.655310977" visible="true"><tag k="addr:housenumber" v="7052"/><tag k="addr:postcode" v="97211"/><tag k="addr:city" v="Portland"/><tag k="addr:street" v="Northeast 9th Avenue"/></node>
<node id="-18" lat="45.571373928" lon="-122.654088897" visible="true"><tag k="addr:housenumber" v="6737"/><tag k="addr:postcode" v="97211"/><tag k="addr:city" v="Portland"/><tag k="addr:street" v="Northeast Bellevue Avenue"/></node>
<node id="-19" lat="45.57533409" lon="-122.660526512" visible="true"><tag k="addr:housenumber" v="431"/><tag k="addr:postcode" v="97211"/><tag k="addr:city" v="Portland"/><tag k="addr:street" v="Northeast Buffalo Street"/></node>
<node id="-20" lat="45.575333166" lon="-122.660526349" visible="true"><tag k="addr:housenumber" v="433"/><tag k="addr:postcode" v="97211"/><tag k="addr:city" v="Portland"/><tag k="addr:street" v="Northeast Buffalo Street"/></node>
<node id="-21" lat="45.571521561" lon="-122.655722162" visible="true"><tag k="addr:housenumber" v="936"/><tag k="addr:postcode" v="97211"/><tag k="addr:city" v="Portland"/><tag k="addr:street" v="Northeast Dekum Street"/></node>
<node id="-22" lat="45.571521231" lon="-122.65572526" visible="true"><tag k="addr:housenumber" v="940"/><tag k="addr:postcode" v="97211"/><tag k="addr:city" v="Portland"/><tag k="addr:street" v="Northeast Dekum Street"/></node>
<node id="-23" lat="45.570498351" lon="-122.654826286" visible="true"><tag k="addr:housenumber" v="6556"/><tag k="addr:postcode" v="97211"/><tag k="addr:city" v="Portland"/><tag k="addr:street" v="Northeast Durham Avenue"/></node>
<node id="-24" lat="45.570493786" lon="-122.654831685" visible="true"><tag k="addr:housenumber" v="6560"/><tag k="addr:postcode" v="97211"/><tag k="addr:city" v="Portland"/><tag k="addr:street" v="Northeast Durham Avenue"/></node>
<node id="-25" lat="45.572073376" lon="-122.656779398" visible="true"><tag k="addr:housenumber" v="6800"/><tag k="addr:postcode" v="97211"/><tag k="addr:city" v="Portland"/><tag k="addr:street" v="Northeast Durham Avenue"/></node>
<node id="-26" lat="45.572238977" lon="-122.656874259" visible="true"><tag k="addr:housenumber" v="6816"/><tag k="addr:postcode" v="97211"/><tag k="addr:city" v="Portland"/><tag k="addr:street" v="Northeast Durham Avenue"/></node>
<node id="-27" lat="45.572230916" lon="-122.656876108" visible="true"><tag k="addr:housenumber" v="6818"/><tag k="addr:postcode" v="97211"/><tag k="addr:city" v="Portland"/><tag k="addr:street" v="Northeast Durham Avenue"/></node>
<node id="-28" lat="45.572237328" lon="-122.656883109" visible="true"><tag k="addr:housenumber" v="6820"/><tag k="addr:postcode" v="97211"/><tag k="addr:city" v="Portland"/><tag k="addr:street" v="Northeast Durham Avenue"/></node>
<node id="-29" lat="45.570650217" lon="-122.660669511" visible="true"><tag k="addr:housenumber" v="6545"/><tag k="addr:postcode" v="97211"/><tag k="addr:city" v="Portland"/><tag k="addr:street" v="Northeast Grand Avenue"/></node>
<node id="-30" lat="45.570654357" lon="-122.660668721" visible="true"><tag k="addr:housenumber" v="6547"/><tag k="addr:postcode" v="97211"/><tag k="addr:city" v="Portland"/><tag k="addr:street" v="Northeast Grand Avenue"/></node>
<node id="-31" lat="45.573054542" lon="-122.660027202" visible="true"><tag k="addr:housenumber" v="6928"/><tag k="addr:postcode" v="97211"/><tag k="addr:city" v="Portland"/><tag k="addr:street" v="Northeast Grand Avenue"/></node>
<node id="-32" lat="45.573049349" lon="-122.66002363" visible="true"><tag k="addr:housenumber" v="6930"/><tag k="addr:postcode" v="97211"/><tag k="addr:city" v="Portland"/><tag k="addr:street" v="Northeast Grand Avenue"/></node>
<node id="-33" lat="45.573053865" lon="-122.660025023" visible="true"><tag k="addr:housenumber" v="6932"/><tag k="addr:postcode" v="97211"/><tag k="addr:city" v="Portland"/><tag k="addr:street" v="Northeast Grand Avenue"/></node>
<node id="-34" lat="45.573053552" lon="-122.660024059" visible="true"><tag k="addr:housenumber" v="6934"/><tag k="addr:postcode" v="97211"/><tag k="addr:city" v="Portland"/><tag k="addr:street" v="Northeast Grand Avenue"/></node>
<node id="-35" lat="45.575661947" lon="-122.660709051" visible="true"><tag k="addr:housenumber" v="422"/><tag k="addr:postcode" v="97211"/><tag k="addr:city" v="Portland"/><tag k="addr:street" v="Northeast Holland Street"/></node>
<node id="-36" lat="45.575668053" lon="-122.660714314" visible="true"><tag k="addr:housenumber" v="426"/><tag k="addr:postcode" v="97211"/><tag k="addr:city" v="Portland"/><tag k="addr:street" v="Northeast Holland Street"/></node>
<node id="-37" lat="45.571573204" lon="-122.66111526" visible="true"><tag k="addr:housenumber" v="6720"/><tag k="addr:postcode" v="97211"/><tag k="addr:city" v="Portland"/><tag k="addr:street" v="Northeast Martin Luther King Jr Boulevard"/></node>
<node id="-38" lat="45.571569944" lon="-122.661120551" visible="true"><tag k="addr:housenumber" v="6728"/><tag k="addr:postcode" v="97211"/><tag k="addr:city" v="Portland"/><tag k="addr:street" v="Northeast Martin Luther King Jr Boulevard"/></node>
<node id="-39" lat="45.571567119" lon="-122.661119489" visible="true"><tag k="addr:housenumber" v="6732"/><tag k="addr:postcode" v="97211"/><tag k="addr:city" v="Portland"/><tag k="addr:street" v="Northeast Martin Luther King Jr Boulevard"/></node>
<node id="-40" lat="45.574614032" lon="-122.661005249" visible="true"><tag k="addr:housenumber" v="7100"/><tag k="addr:postcode" v="97211"/><tag k="addr:city" v="Portland"/><tag k="addr:street" v="Northeast Martin Luther King Jr Boulevard"/></node>
<node id="-41" lat="45.574607724" lon="-122.661008088" visible="true"><tag k="addr:housenumber" v="7106"/><tag k="addr:postcode" v="97211"/><tag k="addr:city" v="Portland"/><tag k="addr:street" v="Northeast Martin Luther King Jr Boulevard"/></node>
<node id="-42" lat="45.574613393" lon="-122.661005465" visible="true"><tag k="addr:housenumber" v="7112"/><tag k="addr:postcode" v="97211"/><tag k="addr:city" v="Portland"/><tag k="addr:street" v="Northeast Martin Luther King Jr Boulevard"/></node>
<node id="-43" lat="45.575672398" lon="-122.66109583" visible="true"><tag k="addr:housenumber" v="7232"/><tag k="addr:postcode" v="97211"/><tag k="addr:city" v="Portland"/><tag k="addr:street" v="Northeast Martin Luther King Jr Boulevard"/></node>
<node id="-44" lat="45.575668951" lon="-122.661096473" visible="true"><tag k="addr:housenumber" v="7240"/><tag k="addr:postcode" v="97211"/><tag k="addr:city" v="Portland"/><tag k="addr:street" v="Northeast Martin Luther King Jr Boulevard"/></node>
<node id="-45" lat="45.574609006" lon="-122.661005854" visible="true"><tag k="addr:housenumber" v="409"/><tag k="addr:postcode" v="97211"/><tag k="addr:city" v="Portland"/><tag k="addr:street" v="Northeast Morgan Street"/></node>
<node id="-46" lat="45.573029963" lon="-122.655316902" visible="true"><tag k="addr:housenumber" v="1017"/><tag k="addr:postcode" v="97211"/><tag k="addr:city" v="Portland"/><tag k="addr:street" v="Northeast Oneonta Street"/></node>
<node id="-47" lat="45.573024094" lon="-122.655324628" visible="true"><tag k="addr:housenumber" v="1019"/><tag k="addr:postcode" v="97211"/><tag k="addr:city" v="Portland"/><tag k="addr:street" v="Northeast Oneonta Street"/></node>
<node id="-48" lat="45.572167192" lon="-122.656630925" visible="true"><tag k="addr:housenumber" v="901"/><tag k="addr:postcode" v="97211"/><tag k="addr:city" v="Portland"/><tag k="addr:street" v="Northeast Oneonta Street"/></node>
<node id="-49" lat="45.572165955" lon="-122.656631211" visible="true"><tag k="addr:housenumber" v="909"/><tag k="addr:postcode" v="97211"/><tag k="addr:city" v="Portland"/><tag k="addr:street" v="Northeast Oneonta Street"/></node>
<node id="-50" lat="45.572167464" lon="-122.656635395" visible="true"><tag k="addr:housenumber" v="915"/><tag k="addr:postcode" v="97211"/><tag k="addr:city" v="Portland"/><tag k="addr:street" v="Northeast Oneonta Street"/></node>
<node id="-51" lat="45.572162331" lon="-122.656633809" visible="true"><tag k="addr:housenumber" v="919"/><tag k="addr:postcode" v="97211"/><tag k="addr:city" v="Portland"/><tag k="addr:street" v="Northeast Oneonta Street"/></node>
<node id="-52" lat="45.572290888" lon="-122.656548368" visible="true"><tag k="addr:housenumber" v="925"/><tag k="addr:postcode" v="97211"/><tag k="addr:city" v="Portland"/><tag k="addr:street" v="Northeast Oneonta Street"/></node>
<node id="-53" lat="45.572293953" lon="-122.656548956" visible="true"><tag k="addr:housenumber" v="927"/><tag k="addr:postcode" v="97211"/><tag k="addr:city" v="Portland"/><tag k="addr:street" v="Northeast Oneonta Street"/></node>
<node id="-54" lat="45.576671204" lon="-122.656746092" visible="true"><tag k="addr:housenumber" v="763"/><tag k="addr:postcode" v="97211"/><tag k="addr:city" v="Portland"/><tag k="addr:street" v="Northeast Stafford Street"/></node>
<node id="-55" lat="45.571314242" lon="-122.654901557" visible="true"><tag k="addr:housenumber" v="937"/><tag k="addr:postcode" v="97211"/><tag k="addr:city" v="Portland"/><tag k="addr:street" v="Northeast Winona Street"/></node>
<node id="-56" lat="45.571306286" lon="-122.654895418" visible="true"><tag k="addr:housenumber" v="943"/><tag k="addr:postcode" v="97211"/><tag k="addr:city" v="Portland"/><tag k="addr:street" v="Northeast Winona Street"/></node>
<node id="-57" lat="45.571378385" lon="-122.654083891" visible="true"><tag k="addr:housenumber" v="974"/><tag k="addr:postcode" v="97211"/><tag k="addr:city" v="Portland"/><tag k="addr:street" v="Northeast Winona Street"/></node>
</osm>