<?xml version="1.0"?>
<osm version="0.6" upload="false" generator="uvmogr2osm">
<node id="-1" lat="45.584358737" lon="-122.72720399" visible="true"><tag k="addr:housenumber" v="7611"/><tag k="addr:postcode" v="97203"/><tag k="addr:city" v="Portland"/><tag k="addr:street" v="North Berkeley Avenue"/></node>
<node id="-2" lat="45.58436432" lon="-122.72720111" visible="true"><tag k="addr:housenumber" v="7613"/><tag k="addr:postcode" v="97203"/><tag k="addr:city" v="Portland"/><tag k="addr:street" v="North Berkeley Avenue"/></node>
<node id="-3" lat="45.585413603" lon="-122.725755972" visible="true"><tag k="addr:housenumber" v="8020"/><tag k="addr:postcode" v="97203"/><tag k="addr:city" v="Portland"/><tag k="addr:street" v="North Berkeley Avenue"/></node>
<node id="-4" lat="45.588087031" lon="-122.725035611" visible="true"><tag k="addr:housenumber" v="9006"/><tag k="addr:postcode" v="97203"/><tag k="addr:city" v="Portland"/><tag k="addr:street" v="North Berkeley Avenue"/></node>
<node id="-5" lat="45.589996481" lon="-122.73003924" visible="true"><tag k="addr:housenumber" v="9233"/><tag k="addr:postcode" v="97203"/><tag k="addr:city" v="Portland"/><tag k="addr:street" v="North Fortune Avenue"/></node>
<node id="-6" lat="45.589996611" lon="-122.730038932" visible="true"><tag k="addr:housenumber" v="9235"/><tag k="addr:postcode" v="97203"/><tag k="addr:city" v="Portland"/><tag k="addr:street" v="North Fortune Avenue"/></node>
<node id="-7" lat="45.588091518" lon="-122.725037799" visible="true"><tag k="addr:housenumber" v="5709"/><tag k="addr:postcode" v="97203"/><tag k="addr:city" v="Portland"/><tag k="addr:street" v="North Hudson Street"/></node>
<node id="-8" lat="45.584277032" lon="-122.72834975" visible="true"><tag k="addr:housenumber" v="5903"/><tag k="addr:postcode" v="97203"/><tag k="addr:city" v="Portland"/><tag k="addr:street" v="North Lombard Street"/></node>
<node id="-9" lat="45.584272958" lon="-122.728350045" visible="true"><tag k="addr:housenumber" v="5905"/><tag k="addr:postcode" v="97203"/><tag k="addr:city" v="Portland"/><tag k="addr:street" v="North Lombard Street"/></node>
<node id="-10" lat="45.584273055" lon="-122.728349529" visible="true"><tag k="addr:housenumber" v="5907"/><tag k="addr:postcode" v="97203"/><tag k="addr:city" v="Portland"/><tag k="addr:street" v="North Lombard Street"/></node>
<node id="-11" lat="45.585063651" lon="-122.73163969" visible="true"><tag k="addr:housenumber" v="6300"/><tag k="addr:postcode" v="97203"/><tag k="addr:city" v="Portland"/><tag k="addr:street" v="North Lombard Street"/></node>
<node id="-12" lat="45.585004685" lon="-122.731494756" visible="true"><tag k="addr:housenumber" v="6330"/><tag k="addr:postcode" v="97203"/><tag k="addr:city" v="Portland"/><tag k="addr:street" v="North Lombard Street"/></node>
<node id="-13" lat="45.586100907" lon="-122.73279786" visible="true"><tag k="addr:housenumber" v="6431"/><tag k="addr:postcode" v="97203"/><tag k="addr:city" v="Portland"/><tag k="addr:street" v="North Lombard Street"/></node>
<node id="-14" lat="45.586106022" lon="-122.73279543" visible="true"><tag k="addr:housenumber" v="6443"/><tag k="addr:postcode" v="97203"/><tag k="addr:city" v="Portland"/><tag k="addr:street" v="North Lombard Street"/></node>
<node id="-15" lat="45.590152456" lon="-122.732320572" visible="true"><tag k="addr:housenumber" v="9211"/><tag k="addr:postcode" v="97203"/><tag k="addr:city" v="Portland"/><tag k="addr:street" v="North Macrum Avenue"/></node>
<node id="-16" lat="45.590160295" lon="-122.732317268" visible="true"><tag k="addr:housenumber" v="9215"/><tag k="addr:postcode" v="97203"/><tag k="addr:city" v="Portland"/><tag k="addr:street" v="North Macrum Avenue"/></node>
<node id="-17" lat="45.586099891" lon="-122.732791342" visible="true"><tag k="addr:housenumber" v="7636"/><tag k="addr:postcode" v="97203"/><tag k="addr:city" v="Portland"/><tag k="addr:street" v="North Newell Avenue"/></node>
<node id="-18" lat="45.591070052" lon="-122.732133559" visible="true"><tag k="addr:housenumber" v="6622"/><tag k="addr:postcode" v="97203"/><tag k="addr:city" v="Portland"/><tag k="addr:street" v="North Seneca Street"/></node>
<node id="-19" lat="45.591072202" lon="-122.732129865" visible="true"><tag k="addr:housenumber" v="6630"/><tag k="addr:postcode" v="97203"/><tag k="addr:city" v="Portland"/><tag k="addr:street" v="North Seneca Street"/></node>
<node id="-20" lat="45.587487752" lon="-122.723511141" visible="true"><tag k="addr:housenumber" v="8959"/><tag k="addr:postcode" v="97203"/><tag k="addr:city" v="Portland"/><tag k="addr:street" v="North Van Houten Avenue"/></node>
<node id="-21" lat="45.587493477" lon="-122.723506696" visible="true"><tag k="addr:housenumber" v="8961"/><tag k="addr:postcode" v="97203"/><tag k="addr:city" v="Portland"/><tag k="addr:street" v="North Van Houten Avenue"/></node>
<node id="-22" lat="45.584871037" lon="-122.729067704" visible="true"><tag k="addr:housenumber" v="7602"/><tag k="addr:postcode" v="97203"/><tag k="addr:city" v="Portland"/><tag k="addr:street" v="North Wall Avenue"/></node>
<node id="-23" lat="45.584871039" lon="-122.729067516" visible="true"><tag k="addr:housenumber" v="7604"/><tag k="addr:postcode" v="97203"/><tag k="addr:city" v="Portland"/><tag k="addr:street" v="North Wall Avenue"/></node>
<node id="-24" lat="45.585123952" lon="-122.729477828" visible="true"><tag k="addr:housenumber" v="7605"/><tag k="addr:postcode" v="97203"/><tag k="addr:city" v="Portland"/><tag k="addr:street" v="North Wall Avenue"/></node>
<node id="-25" lat="45.585126985" lon="-122.729475734" visible="true"><tag k="addr:housenumber" v="7607"/><tag k="addr:postcode" v="97203"/><tag k="addr:city" v="Portland"/><tag k="addr:street" v="North Wall Avenue"/></node>
<node id="-26" lat="45.585125094" lon="-122.729477503" visible="true"><tag k="addr:housenumber" v="7609"/><tag k="addr:postcode" v="97203"/><tag k="addr:city" v="Portland"/><tag k="addr:street" v="North Wall Avenue"/></node>
<node id="-27" lat="45.585129509" lon="-122.72948453" visible="true"><tag k="addr:housenumber" v="7611"/><tag k="addr:postcode" v="97203"/><tag k="addr:city" v="Portland"/><tag k="addr:street" v="North Wall Avenue"/></node>
<node id="-28" lat="45.584398349" lon="-122.733178383" visible="true"><tag k="addr:housenumber" v="7419"/><tag k="addr:postcode" v="97203"/><tag k="addr:city" v="Portland"/><tag k="addr:street" v="North Westanna Avenue"/></node>
<node id="-29" lat="45.584390272" lon="-122.733176116" visible="true"><tag k="addr:housenumber" v="7423"/><tag k="addr:postcode" v="97203"/><tag k="addr:city" v="Portland"/><tag k="addr:street" v="North Westanna Avenue"/></node>
<node id="-30" lat="45.586015865" lon="-122.73233748" visible="true"><tag k="addr:housenumber" v="7533"/><tag k="addr:postcode" v="97203"/><tag k="addr:city" v="Portland"/><tag k="addr:street" v="North Westanna Avenue"/></node>
<node id="-31" lat="45.586010391" lon="-122.732340629" visible="true"><tag k="addr:housenumber" v="7535"/><tag k="addr:postcode" v="97203"/><tag k="addr:city" v="Portland"/><tag k="addr:street" v="North Westanna Avenue"/></node>
<node id="-32" lat="45.585416093" lon="-122.725752912" visible="true"><tag k="addr:housenumber" v="5710"/><tag k="addr:postcode" v="97203"/><tag k="addr:city" v="Portland"/><tag k="addr:street" v="North Willis Boulevard"/></node>
</osm>