<?xml version="1.0"?>
<osm version="0.6" upload="false" generator="uvmogr2osm">
<node id="-1" lat="45.566549281" lon="-122.694830516" visible="true"><tag k="addr:housenumber" v="2705"/><tag k="addr:postcode" v="97217"/><tag k="addr:city" v="Portland"/><tag k="addr:street" v="North Ainsworth Street"/></node>
<node id="-2" lat="45.566254286" lon="-122.695295149" visible="true"><tag k="addr:housenumber" v="2724"/><tag k="addr:postcode" v="97217"/><tag k="addr:city" v="Portland"/><tag k="addr:street" v="North Ainsworth Street"/></node>
<node id="-3" lat="45.566551976" lon="-122.694831648" visible="true"><tag k="addr:housenumber" v="2814"/><tag k="addr:postcode" v="97217"/><tag k="addr:city" v="Portland"/><tag k="addr:street" v="North Ainsworth Street"/></node>
<node id="-4" lat="45.568894284" lon="-122.696882876" visible="true"><tag k="addr:housenumber" v="6343"/><tag k="addr:postcode" v="97217"/><tag k="addr:city" v="Portland"/><tag k="addr:street" v="North Atlantic Avenue"/></node>
<node id="-5" lat="45.568890967" lon="-122.696881923" visible="true"><tag k="addr:housenumber" v="6345"/><tag k="addr:postcode" v="97217"/><tag k="addr:city" v="Portland"/><tag k="addr:street" v="North Atlantic Avenue"/></node>
<node id="-6" lat="45.563230041" lon="-122.692857011" visible="true"><tag k="addr:housenumber" v="5521"/><tag k="addr:postcode" v="97217"/><tag k="addr:city" v="Portland"/><tag k="addr:street" v="North Delaware Avenue"/></node>
<node id="-7" lat="45.563223937" lon="-122.692852134" visible="true"><tag k="addr:housenumber" v="5529"/><tag k="addr:postcode" v="97217"/><tag k="addr:city" v="Portland"/><tag k="addr:street" v="North Delaware Avenue"/></node>
<node id="-8" lat="45.563506404" lon="-122.695973901" visible="true"><tag k="addr:housenumber" v="5543"/><tag k="addr:postcode" v="97217"/><tag k="addr:city" v="Portland"/><tag k="addr:street" v="North Greeley Avenue"/></node>
<node id="-9" lat="45.563506529" lon="-122.695976841" visible="true"><tag k="addr:housenumber" v="5547"/><tag k="addr:postcode" v="97217"/><tag k="addr:city" v="Portland"/><tag k="addr:street" v="North Greeley Avenue"/></node>
<node id="-10" lat="45.563499922" lon="-122.695977839" visible="true"><tag k="addr:housenumber" v="5551"/><tag k="addr:postcode" v="97217"/><tag k="addr:city" v="Portland"/><tag k="addr:street" v="North Greeley Avenue"/></node>
<node id="-11" lat="45.563505515" lon="-122.695971815" visible="true"><tag k="addr:housenumber" v="5553"/><tag k="addr:postcode" v="97217"/><tag k="addr:city" v="Portland"/><tag k="addr:street" v="North Greeley Avenue"/></node>
<node id="-12" lat="45.563505438" lon="-122.695972173" visible="true"><tag k="addr:housenumber" v="5557"/><tag k="addr:postcode" v="97217"/><tag k="addr:city" v="Portland"/><tag k="addr:street" v="North Greeley Avenue"/></node>
<node id="-13" lat="45.563504166" lon="-122.69597537" visible="true"><tag k="addr:housenumber" v="5561"/><tag k="addr:postcode" v="97217"/><tag k="addr:city" v="Portland"/><tag k="addr:street" v="North Greeley Avenue"/></node>
<node id="-14" lat="45.565140659" lon="-122.695372147" visible="true"><tag k="addr:housenumber" v="5736"/><tag k="addr:postcode" v="97217"/><tag k="addr:city" v="Portland"/><tag k="addr:street" v="North Greeley Avenue"/></node>
<node id="-15" lat="45.565141639" lon="-122.695372645" visible="true"><tag k="addr:housenumber" v="5738"/><tag k="addr:postcode" v="97217"/><tag k="addr:city" v="Portland"/><tag k="addr:street" v="North Greeley Avenue"/></node>
<node id="-16" lat="45.565271312" lon="-122.695901426" visible="true"><tag k="addr:housenumber" v="5802"/><tag k="addr:postcode" v="97217"/><tag k="addr:city" v="Portland"/><tag k="addr:street" v="North Greeley Avenue"/></node>
<node id="-17" lat="45.565270142" lon="-122.69589596" visible="true"><tag k="addr:housenumber" v="5803"/><tag k="addr:postcode" v="97217"/><tag k="addr:city" v="Portland"/><tag k="addr:street" v="North Greeley Avenue"/></node>
<node id="-18" lat="45.566255679" lon="-122.695288162" visible="true"><tag k="addr:housenumber" v="5934"/><tag k="addr:postcode" v="97217"/><tag k="addr:city" v="Portland"/><tag k="addr:street" v="North Greeley Avenue"/></node>
<node id="-19" lat="45.56625747" lon="-122.69529652" visible="true"><tag k="addr:housenumber" v="5938"/><tag k="addr:postcode" v="97217"/><tag k="addr:city" v="Portland"/><tag k="addr:street" v="North Greeley Avenue"/></node>
<node id="-20" lat="45.56861546" lon="-122.695864737" visible="true"><tag k="addr:housenumber" v="6323"/><tag k="addr:postcode" v="97217"/><tag k="addr:city" v="Portland"/><tag k="addr:street" v="North Greeley Avenue"/></node>
<node id="-21" lat="45.568613545" lon="-122.695863028" visible="true"><tag k="addr:housenumber" v="6325"/><tag k="addr:postcode" v="97217"/><tag k="addr:city" v="Portland"/><tag k="addr:street" v="North Greeley Avenue"/></node>
<node id="-22" lat="45.568744946" lon="-122.695242128" visible="true"><tag k="addr:housenumber" v="6330"/><tag k="addr:postcode" v="97217"/><tag k="addr:city" v="Portland"/><tag k="addr:street" v="North Greeley Avenue"/></node>
<node id="-23" lat="45.568751213" lon="-122.695239183" visible="true"><tag k="addr:housenumber" v="6332"/><tag k="addr:postcode" v="97217"/><tag k="addr:city" v="Portland"/><tag k="addr:street" v="North Greeley Avenue"/></node>
<node id="-24" lat="45.562930357" lon="-122.694790633" visible="true"><tag k="addr:housenumber" v="2705"/><tag k="addr:postcode" v="97217"/><tag k="addr:city" v="Portland"/><tag k="addr:street" v="North Killingsworth Street"/></node>
<node id="-25" lat="45.562928402" lon="-122.694796903" visible="true"><tag k="addr:housenumber" v="2717"/><tag k="addr:postcode" v="97217"/><tag k="addr:city" v="Portland"/><tag k="addr:street" v="North Killingsworth Street"/></node>
<node id="-26" lat="45.562925978" lon="-122.695259101" visible="true"><tag k="addr:housenumber" v="2721"/><tag k="addr:postcode" v="97217"/><tag k="addr:city" v="Portland"/><tag k="addr:street" v="North Killingsworth Street"/></node>
<node id="-27" lat="45.562918821" lon="-122.695251239" visible="true"><tag k="addr:housenumber" v="2731"/><tag k="addr:postcode" v="97217"/><tag k="addr:city" v="Portland"/><tag k="addr:street" v="North Killingsworth Street"/></node>
<node id="-28" lat="45.562925551" lon="-122.695251672" visible="true"><tag k="addr:housenumber" v="2735"/><tag k="addr:postcode" v="97217"/><tag k="addr:city" v="Portland"/><tag k="addr:street" v="North Killingsworth Street"/></node>
<node id="-29" lat="45.569580792" lon="-122.693831143" visible="true"><tag k="addr:housenumber" v="6437"/><tag k="addr:postcode" v="97217"/><tag k="addr:city" v="Portland"/><tag k="addr:street" v="North Wilbur Avenue"/></node>
<node id="-30" lat="45.569584552" lon="-122.693822991" visible="true"><tag k="addr:housenumber" v="6439"/><tag k="addr:postcode" v="97217"/><tag k="addr:city" v="Portland"/><tag k="addr:street" v="North Wilbur Avenue"/></node>
<node id="-31" lat="45.569575278" lon="-122.693826824" visible="true"><tag k="addr:housenumber" v="6441"/><tag k="addr:postcode" v="97217"/><tag k="addr:city" v="Portland"/><tag k="addr:street" v="North Wilbur Avenue"/></node>
<node id="-32" lat="45.569575404" lon="-122.693824589" visible="true"><tag k="addr:housenumber" v="6443"/><tag k="addr:postcode" v="97217"/><tag k="addr:city" v="Portland"/><tag k="addr:street" v="North Wilbur Avenue"/></node>
</osm>