<?xml version="1.0"?>
<osm version="0.6" upload="false" generator="uvmogr2osm">
<node id="-1" lat="45.577465645" lon="-122.666410815" visible="true"><tag k="addr:housenumber" v="17"/><tag k="addr:postcode" v="97217"/><tag k="addr:city" v="Portland"/><tag k="addr:street" v="North Lombard Street"/></node>
<node id="-2" lat="45.577467327" lon="-122.669945209" visible="true"><tag k="addr:housenumber" v="327"/><tag k="addr:postcode" v="97217"/><tag k="addr:city" v="Portland"/><tag k="addr:street" v="North Lombard Street"/></node>
<node id="-3" lat="45.577468385" lon="-122.669944083" visible="true"><tag k="addr:housenumber" v="333"/><tag k="addr:postcode" v="97217"/><tag k="addr:city" v="Portland"/><tag k="addr:street" v="North Lombard Street"/></node>
<node id="-4" lat="45.577467443" lon="-122.666404355" visible="true"><tag k="addr:housenumber" v="9"/><tag k="addr:postcode" v="97217"/><tag k="addr:city" v="Portland"/><tag k="addr:street" v="North Lombard Street"/></node>
<node id="-5" lat="45.577810997" lon="-122.668046553" visible="true"><tag k="addr:housenumber" v="136"/><tag k="addr:postcode" v="97217"/><tag k="addr:city" v="Portland"/><tag k="addr:street" v="North Russet Street"/></node>
<node id="-6" lat="45.577810478" lon="-122.668042323" visible="true"><tag k="addr:housenumber" v="138"/><tag k="addr:postcode" v="97217"/><tag k="addr:city" v="Portland"/><tag k="addr:street" v="North Russet Street"/></node>
<node id="-7" lat="45.578353828" lon="-122.667998604" visible="true"><tag k="addr:housenumber" v="7610"/><tag k="addr:postcode" v="97217"/><tag k="addr:city" v="Portland"/><tag k="addr:street" v="North Vancouver Avenue"/></node>
<node id="-8" lat="45.578361969" lon="-122.667998574" visible="true"><tag k="addr:housenumber" v="7612"/><tag k="addr:postcode" v="97217"/><tag k="addr:city" v="Portland"/><tag k="addr:street" v="North Vancouver Avenue"/></node>
<node id="-9" lat="45.579048937" lon="-122.668559667" visible="true"><tag k="addr:housenumber" v="7661"/><tag k="addr:postcode" v="97217"/><tag k="addr:city" v="Portland"/><tag k="addr:street" v="North Vancouver Avenue"/></node>
<node id="-10" lat="45.579048786" lon="-122.66856319" visible="true"><tag k="addr:housenumber" v="7663"/><tag k="addr:postcode" v="97217"/><tag k="addr:city" v="Portland"/><tag k="addr:street" v="North Vancouver Avenue"/></node>
<node id="-11" lat="45.579006565" lon="-122.667936272" visible="true"><tag k="addr:housenumber" v="7668"/><tag k="addr:postcode" v="97217"/><tag k="addr:city" v="Portland"/><tag k="addr:street" v="North Vancouver Avenue"/></node>
<node id="-12" lat="45.579006579" lon="-122.667935905" visible="true"><tag k="addr:housenumber" v="7670"/><tag k="addr:postcode" v="97217"/><tag k="addr:city" v="Portland"/><tag k="addr:street" v="North Vancouver Avenue"/></node>
<node id="-13" lat="45.579003644" lon="-122.667933031" visible="true"><tag k="addr:housenumber" v="7672"/><tag k="addr:postcode" v="97217"/><tag k="addr:city" v="Portland"/><tag k="addr:street" v="North Vancouver Avenue"/></node>
<node id="-14" lat="45.577587402" lon="-122.652917677" visible="true"><tag k="addr:housenumber" v="7500"/><tag k="addr:postcode" v="97211"/><tag k="addr:city" v="Portland"/><tag k="addr:street" v="Northeast 11th Avenue"/></node>
<node id="-15" lat="45.578835241" lon="-122.665209424" visible="true"><tag k="addr:housenumber" v="71"/><tag k="addr:postcode" v="97211"/><tag k="addr:city" v="Portland"/><tag k="addr:street" v="Northeast Baldwin Street"/></node>
<node id="-16" lat="45.579005344" lon="-122.654718955" visible="true"><tag k="addr:housenumber" v="1012"/><tag k="addr:postcode" v="97211"/><tag k="addr:city" v="Portland"/><tag k="addr:street" v="Northeast Columbia Boulevard"/></node>
<node id="-17" lat="45.579010043" lon="-122.654720918" visible="true"><tag k="addr:housenumber" v="1025"/><tag k="addr:postcode" v="97211"/><tag k="addr:city" v="Portland"/><tag k="addr:street" v="Northeast Columbia Boulevard"/></node>
<node id="-18" lat="45.582303477" lon="-122.664259362" visible="true"><tag k="addr:housenumber" v="109"/><tag k="addr:postcode" v="97211"/><tag k="addr:city" v="Portland"/><tag k="addr:street" v="Northeast Columbia Boulevard"/></node>
<node id="-19" lat="45.582307713" lon="-122.664261318" visible="true"><tag k="addr:housenumber" v="143"/><tag k="addr:postcode" v="97211"/><tag k="addr:city" v="Portland"/><tag k="addr:street" v="Northeast Columbia Boulevard"/></node>
<node id="-20" lat="45.581088191" lon="-122.663031257" visible="true"><tag k="addr:housenumber" v="220"/><tag k="addr:postcode" v="97211"/><tag k="addr:city" v="Portland"/><tag k="addr:street" v="Northeast Columbia Boulevard"/></node>
<node id="-21" lat="45.58108922" lon="-122.663035106" visible="true"><tag k="addr:housenumber" v="233"/><tag k="addr:postcode" v="97211"/><tag k="addr:city" v="Portland"/><tag k="addr:street" v="Northeast Columbia Boulevard"/></node>
<node id="-22" lat="45.581446822" lon="-122.660682829" visible="true"><tag k="addr:housenumber" v="405"/><tag k="addr:postcode" v="97211"/><tag k="addr:city" v="Portland"/><tag k="addr:street" v="Northeast Columbia Boulevard"/></node>
<node id="-23" lat="45.580601637" lon="-122.660612165" visible="true"><tag k="addr:housenumber" v="410"/><tag k="addr:postcode" v="97211"/><tag k="addr:city" v="Portland"/><tag k="addr:street" v="Northeast Columbia Boulevard"/></node>
<node id="-24" lat="45.580600864" lon="-122.660609392" visible="true"><tag k="addr:housenumber" v="430"/><tag k="addr:postcode" v="97211"/><tag k="addr:city" v="Portland"/><tag k="addr:street" v="Northeast Columbia Boulevard"/></node>
<node id="-25" lat="45.598339874" lon="-122.658633808" visible="true"><tag k="addr:housenumber" v="740"/><tag k="addr:postcode" v="97211"/><tag k="addr:city" v="Portland"/><tag k="addr:street" v="Northeast Faloma Road"/></node>
<node id="-26" lat="45.598330878" lon="-122.658632092" visible="true"><tag k="addr:housenumber" v="780"/><tag k="addr:postcode" v="97211"/><tag k="addr:city" v="Portland"/><tag k="addr:street" v="Northeast Faloma Road"/></node>
<node id="-27" lat="45.598437265" lon="-122.658121108" visible="true"><tag k="addr:housenumber" v="802"/><tag k="addr:postcode" v="97211"/><tag k="addr:city" v="Portland"/><tag k="addr:street" v="Northeast Faloma Road"/></node>
<node id="-28" lat="45.598433079" lon="-122.658124519" visible="true"><tag k="addr:housenumber" v="814"/><tag k="addr:postcode" v="97211"/><tag k="addr:city" v="Portland"/><tag k="addr:street" v="Northeast Faloma Road"/></node>
<node id="-29" lat="45.597567578" lon="-122.655343703" visible="true"><tag k="addr:housenumber" v="934"/><tag k="addr:postcode" v="97211"/><tag k="addr:city" v="Portland"/><tag k="addr:street" v="Northeast Faloma Road"/></node>
<node id="-30" lat="45.597572841" lon="-122.655339886" visible="true"><tag k="addr:housenumber" v="936"/><tag k="addr:postcode" v="97211"/><tag k="addr:city" v="Portland"/><tag k="addr:street" v="Northeast Faloma Road"/></node>
<node id="-31" lat="45.597574244" lon="-122.655339578" visible="true"><tag k="addr:housenumber" v="946"/><tag k="addr:postcode" v="97211"/><tag k="addr:city" v="Portland"/><tag k="addr:street" v="Northeast Faloma Road"/></node>
<node id="-32" lat="45.591582567" lon="-122.666000212" visible="true"><tag k="addr:housenumber" v="9500"/><tag k="addr:postcode" v="97211"/><tag k="addr:city" v="Portland"/><tag k="addr:street" v="Northeast Gertz Circle"/></node>
<node id="-33" lat="45.591581744" lon="-122.66600652" visible="true"><tag k="addr:housenumber" v="9502"/><tag k="addr:postcode" v="97211"/><tag k="addr:city" v="Portland"/><tag k="addr:street" v="Northeast Gertz Circle"/></node>
<node id="-34" lat="45.591426964" lon="-122.652987874" visible="true"><tag k="addr:housenumber" v="1215"/><tag k="addr:postcode" v="97211"/><tag k="addr:city" v="Portland"/><tag k="addr:street" v="Northeast Gertz Road"/></node>
<node id="-35" lat="45.591796665" lon="-122.654881145" visible="true"><tag k="addr:housenumber" v="1022"/><tag k="addr:postcode" v="97211"/><tag k="addr:city" v="Portland"/><tag k="addr:street" v="Northeast Lija Loop"/></node>
<node id="-36" lat="45.591797068" lon="-122.654882005" visible="true"><tag k="addr:housenumber" v="1034"/><tag k="addr:postcode" v="97211"/><tag k="addr:city" v="Portland"/><tag k="addr:street" v="Northeast Lija Loop"/></node>
<node id="-37" lat="45.591982731" lon="-122.6546117" visible="true"><tag k="addr:housenumber" v="1042"/><tag k="addr:postcode" v="97211"/><tag k="addr:city" v="Portland"/><tag k="addr:street" v="Northeast Lija Loop"/></node>
<node id="-38" lat="45.591977351" lon="-122.654620186" visible="true"><tag k="addr:housenumber" v="1108"/><tag k="addr:postcode" v="97211"/><tag k="addr:city" v="Portland"/><tag k="addr:street" v="Northeast Lija Loop"/></node>
<node id="-39" lat="45.577462978" lon="-122.663925569" visible="true"><tag k="addr:housenumber" v="147"/><tag k="addr:postcode" v="97211"/><tag k="addr:city" v="Portland"/><tag k="addr:street" v="Northeast Lombard Street"/></node>
<node id="-40" lat="45.577463195" lon="-122.663927448" visible="true"><tag k="addr:housenumber" v="149"/><tag k="addr:postcode" v="97211"/><tag k="addr:city" v="Portland"/><tag k="addr:street" v="Northeast Lombard Street"/></node>
<node id="-41" lat="45.577470352" lon="-122.666408796" visible="true"><tag k="addr:housenumber" v="17"/><tag k="addr:postcode" v="97211"/><tag k="addr:city" v="Portland"/><tag k="addr:street" v="Northeast Lombard Street"/></node>
<node id="-42" lat="45.577543171" lon="-122.657011599" visible="true"><tag k="addr:housenumber" v="749"/><tag k="addr:postcode" v="97211"/><tag k="addr:city" v="Portland"/><tag k="addr:street" v="Northeast Lombard Street"/></node>
<node id="-43" lat="45.577544749" lon="-122.657003393" visible="true"><tag k="addr:housenumber" v="751"/><tag k="addr:postcode" v="97211"/><tag k="addr:city" v="Portland"/><tag k="addr:street" v="Northeast Lombard Street"/></node>
<node id="-44" lat="45.580879554" lon="-122.66160353" visible="true"><tag k="addr:housenumber" v="7021"/><tag k="addr:postcode" v="97211"/><tag k="addr:city" v="Portland"/><tag k="addr:street" v="Northeast Martin Luther King Jr Boulevard"/></node>
<node id="-45" lat="45.58063392" lon="-122.660926894" visible="true"><tag k="addr:housenumber" v="7906"/><tag k="addr:postcode" v="97211"/><tag k="addr:city" v="Portland"/><tag k="addr:street" v="Northeast Martin Luther King Jr Boulevard"/></node>
<node id="-46" lat="45.580633392" lon="-122.66092571" visible="true"><tag k="addr:housenumber" v="7908"/><tag k="addr:postcode" v="97211"/><tag k="addr:city" v="Portland"/><tag k="addr:street" v="Northeast Martin Luther King Jr Boulevard"/></node>
<node id="-47" lat="45.580633394" lon="-122.660930542" visible="true"><tag k="addr:housenumber" v="7912"/><tag k="addr:postcode" v="97211"/><tag k="addr:city" v="Portland"/><tag k="addr:street" v="Northeast Martin Luther King Jr Boulevard"/></node>
<node id="-48" lat="45.580885628" lon="-122.66159539" visible="true"><tag k="addr:housenumber" v="7921"/><tag k="addr:postcode" v="97211"/><tag k="addr:city" v="Portland"/><tag k="addr:street" v="Northeast Martin Luther King Jr Boulevard"/></node>
<node id="-49" lat="45.581446809" lon="-122.660683007" visible="true"><tag k="addr:housenumber" v="8010"/><tag k="addr:postcode" v="97211"/><tag k="addr:city" v="Portland"/><tag k="addr:street" v="Northeast Martin Luther King Jr Boulevard"/></node>
<node id="-50" lat="45.591079141" lon="-122.652364592" visible="true"><tag k="addr:housenumber" v="9400"/><tag k="addr:postcode" v="97211"/><tag k="addr:city" v="Portland"/><tag k="addr:street" v="Northeast River Pointe Circle"/></node>
<node id="-51" lat="45.59122911" lon="-122.652590671" visible="true"><tag k="addr:housenumber" v="9412"/><tag k="addr:postcode" v="97211"/><tag k="addr:city" v="Portland"/><tag k="addr:street" v="Northeast River Pointe Circle"/></node>
<node id="-52" lat="45.591222037" lon="-122.653091915" visible="true"><tag k="addr:housenumber" v="9415"/><tag k="addr:postcode" v="97211"/><tag k="addr:city" v="Portland"/><tag k="addr:street" v="Northeast River Pointe Circle"/></node>
<node id="-53" lat="45.591429131" lon="-122.652983189" visible="true"><tag k="addr:housenumber" v="9427"/><tag k="addr:postcode" v="97211"/><tag k="addr:city" v="Portland"/><tag k="addr:street" v="Northeast River Pointe Circle"/></node>
<node id="-54" lat="45.577736529" lon="-122.665217763" visible="true"><tag k="addr:housenumber" v="7527"/><tag k="addr:postcode" v="97211"/><tag k="addr:city" v="Portland"/><tag k="addr:street" v="Northeast Rodney Avenue"/></node>
<node id="-55" lat="45.577590713" lon="-122.652912337" visible="true"><tag k="addr:housenumber" v="1228"/><tag k="addr:postcode" v="97211"/><tag k="addr:city" v="Portland"/><tag k="addr:street" v="Northeast Russet Street"/></node>
<node id="-56" lat="45.57774172" lon="-122.665215005" visible="true"><tag k="addr:housenumber" v="74"/><tag k="addr:postcode" v="97211"/><tag k="addr:city" v="Portland"/><tag k="addr:street" v="Northeast Russet Street"/></node>
<node id="-57" lat="45.589233576" lon="-122.662250833" visible="true"><tag k="addr:housenumber" v="9115"/><tag k="addr:postcode" v="97211"/><tag k="addr:city" v="Portland"/><tag k="addr:street" v="Northeast Vancouver Way"/></node>
<node id="-58" lat="45.589236928" lon="-122.66224676" visible="true"><tag k="addr:housenumber" v="9125"/><tag k="addr:postcode" v="97211"/><tag k="addr:city" v="Portland"/><tag k="addr:street" v="Northeast Vancouver Way"/></node>
<node id="-59" lat="45.578833425" lon="-122.665209929" visible="true"><tag k="addr:housenumber" v="26"/><tag k="addr:postcode" v="97211"/><tag k="addr:city" v="Portland"/><tag k="addr:street" v="Northeast Winchell Street"/></node>
<node id="-60" lat="45.591078565" lon="-122.652369563" visible="true"><tag k="addr:housenumber" v="9400"/><tag k="addr:postcode" v="97211"/><tag k="addr:city" v="Portland"/><tag k="addr:street" v="Southeast Lincoln Street"/></node>
<node id="-61" lat="45.591231797" lon="-122.65259398" visible="true"><tag k="addr:housenumber" v="9412"/><tag k="addr:postcode" v="97211"/><tag k="addr:city" v="Portland"/><tag k="addr:street" v="Southeast Lincoln Street"/></node>
<node id="-62" lat="45.591222576" lon="-122.653086786" visible="true"><tag k="addr:housenumber" v="9415"/><tag k="addr:postcode" v="97211"/><tag k="addr:city" v="Portland"/><tag k="addr:street" v="Southeast Lincoln Street"/></node>
<node id="-63" lat="45.591420048" lon="-122.652984139" visible="true"><tag k="addr:housenumber" v="9427"/><tag k="addr:postcode" v="97211"/><tag k="addr:city" v="Portland"/><tag k="addr:street" v="Southeast Lincoln Street"/></node>
</osm>