<?xml version="1.0"?>
<osm version="0.6" upload="false" generator="uvmogr2osm">
<node id="-1" lat="45.597551429" lon="-122.743438397" visible="true"><tag k="addr:housenumber" v="10035"/><tag k="addr:postcode" v="97203"/><tag k="addr:city" v="Portland"/><tag k="addr:street" v="North Allegheny Avenue"/></node>
<node id="-2" lat="45.597553485" lon="-122.743435386" visible="true"><tag k="addr:housenumber" v="10043"/><tag k="addr:postcode" v="97203"/><tag k="addr:city" v="Portland"/><tag k="addr:street" v="North Allegheny Avenue"/></node>
<node id="-3" lat="45.59700862" lon="-122.738353632" visible="true"><tag k="addr:housenumber" v="7408"/><tag k="addr:postcode" v="97203"/><tag k="addr:city" v="Portland"/><tag k="addr:street" v="North Bank Street"/></node>
<node id="-4" lat="45.592601231" lon="-122.74094671" visible="true"><tag k="addr:housenumber" v="9236"/><tag k="addr:postcode" v="97203"/><tag k="addr:city" v="Portland"/><tag k="addr:street" v="North Buchanan Avenue"/></node>
<node id="-5" lat="45.592597787" lon="-122.740948304" visible="true"><tag k="addr:housenumber" v="9238"/><tag k="addr:postcode" v="97203"/><tag k="addr:city" v="Portland"/><tag k="addr:street" v="North Buchanan Avenue"/></node>
<node id="-6" lat="45.593985215" lon="-122.740244489" visible="true"><tag k="addr:housenumber" v="9444"/><tag k="addr:postcode" v="97203"/><tag k="addr:city" v="Portland"/><tag k="addr:street" v="North Buchanan Avenue"/></node>
<node id="-7" lat="45.593984888" lon="-122.740241295" visible="true"><tag k="addr:housenumber" v="9448"/><tag k="addr:postcode" v="97203"/><tag k="addr:city" v="Portland"/><tag k="addr:street" v="North Buchanan Avenue"/></node>
<node id="-8" lat="45.594662302" lon="-122.737750591" visible="true"><tag k="addr:housenumber" v="9532"/><tag k="addr:postcode" v="97203"/><tag k="addr:city" v="Portland"/><tag k="addr:street" v="North Burr Avenue"/></node>
<node id="-9" lat="45.594665776" lon="-122.737752556" visible="true"><tag k="addr:housenumber" v="9534"/><tag k="addr:postcode" v="97203"/><tag k="addr:city" v="Portland"/><tag k="addr:street" v="North Burr Avenue"/></node>
<node id="-10" lat="45.597011101" lon="-122.738351263" visible="true"><tag k="addr:housenumber" v="10141"/><tag k="addr:postcode" v="97203"/><tag k="addr:city" v="Portland"/><tag k="addr:street" v="North Calhoun Avenue"/></node>
<node id="-11" lat="45.592560425" lon="-122.740551905" visible="true"><tag k="addr:housenumber" v="9241"/><tag k="addr:postcode" v="97203"/><tag k="addr:city" v="Portland"/><tag k="addr:street" v="North Calhoun Avenue"/></node>
<node id="-12" lat="45.592558425" lon="-122.740548437" visible="true"><tag k="addr:housenumber" v="9245"/><tag k="addr:postcode" v="97203"/><tag k="addr:city" v="Portland"/><tag k="addr:street" v="North Calhoun Avenue"/></node>
<node id="-13" lat="45.594155754" lon="-122.739738964" visible="true"><tag k="addr:housenumber" v="9461"/><tag k="addr:postcode" v="97203"/><tag k="addr:city" v="Portland"/><tag k="addr:street" v="North Calhoun Avenue"/></node>
<node id="-14" lat="45.594156738" lon="-122.739738453" visible="true"><tag k="addr:housenumber" v="9465"/><tag k="addr:postcode" v="97203"/><tag k="addr:city" v="Portland"/><tag k="addr:street" v="North Calhoun Avenue"/></node>
<node id="-15" lat="45.59475959" lon="-122.738776865" visible="true"><tag k="addr:housenumber" v="9524"/><tag k="addr:postcode" v="97203"/><tag k="addr:city" v="Portland"/><tag k="addr:street" v="North Calhoun Avenue"/></node>
<node id="-16" lat="45.594766131" lon="-122.738779404" visible="true"><tag k="addr:housenumber" v="9526"/><tag k="addr:postcode" v="97203"/><tag k="addr:city" v="Portland"/><tag k="addr:street" v="North Calhoun Avenue"/></node>
<node id="-17" lat="45.592229965" lon="-122.73410198" visible="true"><tag k="addr:housenumber" v="6870"/><tag k="addr:postcode" v="97203"/><tag k="addr:city" v="Portland"/><tag k="addr:street" v="North Columbia Way"/></node>
<node id="-18" lat="45.59223024" lon="-122.734099718" visible="true"><tag k="addr:housenumber" v="6872"/><tag k="addr:postcode" v="97203"/><tag k="addr:city" v="Portland"/><tag k="addr:street" v="North Columbia Way"/></node>
<node id="-19" lat="45.592506352" lon="-122.734753524" visible="true"><tag k="addr:housenumber" v="6903"/><tag k="addr:postcode" v="97203"/><tag k="addr:city" v="Portland"/><tag k="addr:street" v="North Columbia Way"/></node>
<node id="-20" lat="45.592511943" lon="-122.734947702" visible="true"><tag k="addr:housenumber" v="6907"/><tag k="addr:postcode" v="97203"/><tag k="addr:city" v="Portland"/><tag k="addr:street" v="North Columbia Way"/></node>
<node id="-21" lat="45.592493534" lon="-122.735042462" visible="true"><tag k="addr:housenumber" v="6911"/><tag k="addr:postcode" v="97203"/><tag k="addr:city" v="Portland"/><tag k="addr:street" v="North Columbia Way"/></node>
<node id="-22" lat="45.591844133" lon="-122.735489357" visible="true"><tag k="addr:housenumber" v="6956"/><tag k="addr:postcode" v="97203"/><tag k="addr:city" v="Portland"/><tag k="addr:street" v="North Columbia Way"/></node>
<node id="-23" lat="45.593560591" lon="-122.734551215" visible="true"><tag k="addr:housenumber" v="6923"/><tag k="addr:postcode" v="97203"/><tag k="addr:city" v="Portland"/><tag k="addr:street" v="North Fessenden Street"/></node>
<node id="-24" lat="45.59356009" lon="-122.734549239" visible="true"><tag k="addr:housenumber" v="6927"/><tag k="addr:postcode" v="97203"/><tag k="addr:city" v="Portland"/><tag k="addr:street" v="North Fessenden Street"/></node>
<node id="-25" lat="45.59364157" lon="-122.735123294" visible="true"><tag k="addr:housenumber" v="6965"/><tag k="addr:postcode" v="97203"/><tag k="addr:city" v="Portland"/><tag k="addr:street" v="North Fessenden Street"/></node>
<node id="-26" lat="45.59413503" lon="-122.736577304" visible="true"><tag k="addr:housenumber" v="7117"/><tag k="addr:postcode" v="97203"/><tag k="addr:city" v="Portland"/><tag k="addr:street" v="North Fessenden Street"/></node>
<node id="-27" lat="45.594131472" lon="-122.736579262" visible="true"><tag k="addr:housenumber" v="7119"/><tag k="addr:postcode" v="97203"/><tag k="addr:city" v="Portland"/><tag k="addr:street" v="North Fessenden Street"/></node>
<node id="-28" lat="45.594131275" lon="-122.736575956" visible="true"><tag k="addr:housenumber" v="7121"/><tag k="addr:postcode" v="97203"/><tag k="addr:city" v="Portland"/><tag k="addr:street" v="North Fessenden Street"/></node>
<node id="-29" lat="45.593827865" lon="-122.737945674" visible="true"><tag k="addr:housenumber" v="7200"/><tag k="addr:postcode" v="97203"/><tag k="addr:city" v="Portland"/><tag k="addr:street" v="North Fessenden Street"/></node>
<node id="-30" lat="45.594259657" lon="-122.737538213" visible="true"><tag k="addr:housenumber" v="7209"/><tag k="addr:postcode" v="97203"/><tag k="addr:city" v="Portland"/><tag k="addr:street" v="North Fessenden Street"/></node>
<node id="-31" lat="45.594257672" lon="-122.737531276" visible="true"><tag k="addr:housenumber" v="7211"/><tag k="addr:postcode" v="97203"/><tag k="addr:city" v="Portland"/><tag k="addr:street" v="North Fessenden Street"/></node>
<node id="-32" lat="45.594262127" lon="-122.737533588" visible="true"><tag k="addr:housenumber" v="7219"/><tag k="addr:postcode" v="97203"/><tag k="addr:city" v="Portland"/><tag k="addr:street" v="North Fessenden Street"/></node>
<node id="-33" lat="45.593830477" lon="-122.737946147" visible="true"><tag k="addr:housenumber" v="7230"/><tag k="addr:postcode" v="97203"/><tag k="addr:city" v="Portland"/><tag k="addr:street" v="North Fessenden Street"/></node>
<node id="-34" lat="45.594764059" lon="-122.739498031" visible="true"><tag k="addr:housenumber" v="7403"/><tag k="addr:postcode" v="97203"/><tag k="addr:city" v="Portland"/><tag k="addr:street" v="North Fessenden Street"/></node>
<node id="-35" lat="45.594761097" lon="-122.739497137" visible="true"><tag k="addr:housenumber" v="7405"/><tag k="addr:postcode" v="97203"/><tag k="addr:city" v="Portland"/><tag k="addr:street" v="North Fessenden Street"/></node>
<node id="-36" lat="45.594760935" lon="-122.739493182" visible="true"><tag k="addr:housenumber" v="7407"/><tag k="addr:postcode" v="97203"/><tag k="addr:city" v="Portland"/><tag k="addr:street" v="North Fessenden Street"/></node>
<node id="-37" lat="45.594757787" lon="-122.739492139" visible="true"><tag k="addr:housenumber" v="7411"/><tag k="addr:postcode" v="97203"/><tag k="addr:city" v="Portland"/><tag k="addr:street" v="North Fessenden Street"/></node>
<node id="-38" lat="45.594755779" lon="-122.739492962" visible="true"><tag k="addr:housenumber" v="7413"/><tag k="addr:postcode" v="97203"/><tag k="addr:city" v="Portland"/><tag k="addr:street" v="North Fessenden Street"/></node>
<node id="-39" lat="45.594762327" lon="-122.739493129" visible="true"><tag k="addr:housenumber" v="7415"/><tag k="addr:postcode" v="97203"/><tag k="addr:city" v="Portland"/><tag k="addr:street" v="North Fessenden Street"/></node>
<node id="-40" lat="45.594779992" lon="-122.739738054" visible="true"><tag k="addr:housenumber" v="7425"/><tag k="addr:postcode" v="97203"/><tag k="addr:city" v="Portland"/><tag k="addr:street" v="North Fessenden Street"/></node>
<node id="-41" lat="45.594777288" lon="-122.739743858" visible="true"><tag k="addr:housenumber" v="7429"/><tag k="addr:postcode" v="97203"/><tag k="addr:city" v="Portland"/><tag k="addr:street" v="North Fessenden Street"/></node>
<node id="-42" lat="45.594666129" lon="-122.740973761" visible="true"><tag k="addr:housenumber" v="7530"/><tag k="addr:postcode" v="97203"/><tag k="addr:city" v="Portland"/><tag k="addr:street" v="North Fessenden Street"/></node>
<node id="-43" lat="45.59482316" lon="-122.741560598" visible="true"><tag k="addr:housenumber" v="7620"/><tag k="addr:postcode" v="97203"/><tag k="addr:city" v="Portland"/><tag k="addr:street" v="North Fessenden Street"/></node>
<node id="-44" lat="45.595528292" lon="-122.734561225" visible="true"><tag k="addr:housenumber" v="10030"/><tag k="addr:postcode" v="97203"/><tag k="addr:city" v="Portland"/><tag k="addr:street" v="North Midway Avenue"/></node>
<node id="-45" lat="45.592324186" lon="-122.735746765" visible="true"><tag k="addr:housenumber" v="9406"/><tag k="addr:postcode" v="97203"/><tag k="addr:city" v="Portland"/><tag k="addr:street" v="North Midway Avenue"/></node>
<node id="-46" lat="45.592328279" lon="-122.735752967" visible="true"><tag k="addr:housenumber" v="9410"/><tag k="addr:postcode" v="97203"/><tag k="addr:city" v="Portland"/><tag k="addr:street" v="North Midway Avenue"/></node>
<node id="-47" lat="45.593648915" lon="-122.735124418" visible="true"><tag k="addr:housenumber" v="9706"/><tag k="addr:postcode" v="97203"/><tag k="addr:city" v="Portland"/><tag k="addr:street" v="North Midway Avenue"/></node>
<node id="-48" lat="45.593643645" lon="-122.735123581" visible="true"><tag k="addr:housenumber" v="9710"/><tag k="addr:postcode" v="97203"/><tag k="addr:city" v="Portland"/><tag k="addr:street" v="North Midway Avenue"/></node>
<node id="-49" lat="45.593946085" lon="-122.734894918" visible="true"><tag k="addr:housenumber" v="9806"/><tag k="addr:postcode" v="97203"/><tag k="addr:city" v="Portland"/><tag k="addr:street" v="North Midway Avenue"/></node>
<node id="-50" lat="45.593950791" lon="-122.734897587" visible="true"><tag k="addr:housenumber" v="9820"/><tag k="addr:postcode" v="97203"/><tag k="addr:city" v="Portland"/><tag k="addr:street" v="North Midway Avenue"/></node>
<node id="-51" lat="45.592937075" lon="-122.735114157" visible="true"><tag k="addr:housenumber" v="6931"/><tag k="addr:postcode" v="97203"/><tag k="addr:city" v="Portland"/><tag k="addr:street" v="North Nashton Street"/></node>
<node id="-52" lat="45.592937085" lon="-122.735108895" visible="true"><tag k="addr:housenumber" v="6947"/><tag k="addr:postcode" v="97203"/><tag k="addr:city" v="Portland"/><tag k="addr:street" v="North Nashton Street"/></node>
<node id="-53" lat="45.595534405" lon="-122.734566515" visible="true"><tag k="addr:housenumber" v="6951"/><tag k="addr:postcode" v="97203"/><tag k="addr:city" v="Portland"/><tag k="addr:street" v="North Olympia Street"/></node>
<node id="-54" lat="45.596852346" lon="-122.741640845" visible="true"><tag k="addr:housenumber" v="10001"/><tag k="addr:postcode" v="97203"/><tag k="addr:city" v="Portland"/><tag k="addr:street" v="North Polk Avenue"/></node>
<node id="-55" lat="45.596855907" lon="-122.741637296" visible="true"><tag k="addr:housenumber" v="10021"/><tag k="addr:postcode" v="97203"/><tag k="addr:city" v="Portland"/><tag k="addr:street" v="North Polk Avenue"/></node>
<node id="-56" lat="45.593562602" lon="-122.734547237" visible="true"><tag k="addr:housenumber" v="6940"/><tag k="addr:postcode" v="97203"/><tag k="addr:city" v="Portland"/><tag k="addr:street" v="North Powers Street"/></node>
<node id="-57" lat="45.593563175" lon="-122.734544254" visible="true"><tag k="addr:housenumber" v="6944"/><tag k="addr:postcode" v="97203"/><tag k="addr:city" v="Portland"/><tag k="addr:street" v="North Powers Street"/></node>
<node id="-58" lat="45.593643347" lon="-122.73512501" visible="true"><tag k="addr:housenumber" v="6986"/><tag k="addr:postcode" v="97203"/><tag k="addr:city" v="Portland"/><tag k="addr:street" v="North Powers Street"/></node>
<node id="-59" lat="45.591953705" lon="-122.734267959" visible="true"><tag k="addr:housenumber" v="6847"/><tag k="addr:postcode" v="97203"/><tag k="addr:city" v="Portland"/><tag k="addr:street" v="North Seneca Street"/></node>
<node id="-60" lat="45.591947944" lon="-122.734271855" visible="true"><tag k="addr:housenumber" v="6849"/><tag k="addr:postcode" v="97203"/><tag k="addr:city" v="Portland"/><tag k="addr:street" v="North Seneca Street"/></node>
<node id="-61" lat="45.591660982" lon="-122.739002537" visible="true"><tag k="addr:housenumber" v="7211"/><tag k="addr:postcode" v="97203"/><tag k="addr:city" v="Portland"/><tag k="addr:street" v="North Smith Street"/></node>
<node id="-62" lat="45.591662808" lon="-122.739001854" visible="true"><tag k="addr:housenumber" v="7215"/><tag k="addr:postcode" v="97203"/><tag k="addr:city" v="Portland"/><tag k="addr:street" v="North Smith Street"/></node>
<node id="-63" lat="45.59214991" lon="-122.742918965" visible="true"><tag k="addr:housenumber" v="7610"/><tag k="addr:postcode" v="97203"/><tag k="addr:city" v="Portland"/><tag k="addr:street" v="North Smith Street"/></node>
<node id="-64" lat="45.592147814" lon="-122.742915974" visible="true"><tag k="addr:housenumber" v="7612"/><tag k="addr:postcode" v="97203"/><tag k="addr:city" v="Portland"/><tag k="addr:street" v="North Smith Street"/></node>
<node id="-65" lat="45.597365909" lon="-122.733941313" visible="true"><tag k="addr:housenumber" v="6918"/><tag k="addr:postcode" v="97203"/><tag k="addr:city" v="Portland"/><tag k="addr:street" v="North Swift Street"/></node>
<node id="-66" lat="45.597362005" lon="-122.733932324" visible="true"><tag k="addr:housenumber" v="6928"/><tag k="addr:postcode" v="97203"/><tag k="addr:city" v="Portland"/><tag k="addr:street" v="North Swift Street"/></node>
<node id="-67" lat="45.594823993" lon="-122.741563082" visible="true"><tag k="addr:housenumber" v="9481"/><tag k="addr:postcode" v="97203"/><tag k="addr:city" v="Portland"/><tag k="addr:street" v="North Tioga Avenue"/></node>
<node id="-68" lat="45.5946666" lon="-122.740971334" visible="true"><tag k="addr:housenumber" v="9486"/><tag k="addr:postcode" v="97203"/><tag k="addr:city" v="Portland"/><tag k="addr:street" v="North Tioga Avenue"/></node>
<node id="-69" lat="45.592508429" lon="-122.734750129" visible="true"><tag k="addr:housenumber" v="6903"/><tag k="addr:postcode" v="97203"/><tag k="addr:city" v="Portland"/><tag k="addr:street" v="Southwest Burlingame Avenue"/></node>
<node id="-70" lat="45.592511871" lon="-122.734940323" visible="true"><tag k="addr:housenumber" v="6907"/><tag k="addr:postcode" v="97203"/><tag k="addr:city" v="Portland"/><tag k="addr:street" v="Southwest Burlingame Avenue"/></node>
<node id="-71" lat="45.592498601" lon="-122.735040222" visible="true"><tag k="addr:housenumber" v="6911"/><tag k="addr:postcode" v="97203"/><tag k="addr:city" v="Portland"/><tag k="addr:street" v="Southwest Burlingame Avenue"/></node>
<node id="-72" lat="45.59184322" lon="-122.735493152" visible="true"><tag k="addr:housenumber" v="6956"/><tag k="addr:postcode" v="97203"/><tag k="addr:city" v="Portland"/><tag k="addr:street" v="Southwest Burlingame Avenue"/></node>
</osm>