<?xml version="1.0"?>
<osm version="0.6" upload="false" generator="uvmogr2osm">
<node id="-1" lat="45.580606116" lon="-122.646966369" visible="true"><tag k="addr:housenumber" v="1761"/><tag k="addr:postcode" v="97217"/><tag k="addr:city" v="Portland"/><tag k="addr:street" v="North Argyle Street"/></node>
<node id="-2" lat="45.575902998" lon="-122.635710093" visible="true"><tag k="addr:housenumber" v="2900"/><tag k="addr:postcode" v="97217"/><tag k="addr:city" v="Portland"/><tag k="addr:street" v="North Argyle Street"/></node>
<node id="-3" lat="45.57799708" lon="-122.64469826" visible="true"><tag k="addr:housenumber" v="7605"/><tag k="addr:postcode" v="97211"/><tag k="addr:city" v="Portland"/><tag k="addr:street" v="Northeast 21st Avenue"/></node>
<node id="-4" lat="45.577994168" lon="-122.644705079" visible="true"><tag k="addr:housenumber" v="7607"/><tag k="addr:postcode" v="97211"/><tag k="addr:city" v="Portland"/><tag k="addr:street" v="Northeast 21st Avenue"/></node>
<node id="-5" lat="45.575060985" lon="-122.638428365" visible="true"><tag k="addr:housenumber" v="7306"/><tag k="addr:postcode" v="97211"/><tag k="addr:city" v="Portland"/><tag k="addr:street" v="Northeast 27th Avenue"/></node>
<node id="-6" lat="45.580185582" lon="-122.647685965" visible="true"><tag k="addr:housenumber" v="1703"/><tag k="addr:postcode" v="97211"/><tag k="addr:city" v="Portland"/><tag k="addr:street" v="Northeast Argyle Street"/></node>
<node id="-7" lat="45.58019001" lon="-122.647685373" visible="true"><tag k="addr:housenumber" v="1705"/><tag k="addr:postcode" v="97211"/><tag k="addr:city" v="Portland"/><tag k="addr:street" v="Northeast Argyle Street"/></node>
<node id="-8" lat="45.580185746" lon="-122.647691444" visible="true"><tag k="addr:housenumber" v="1707"/><tag k="addr:postcode" v="97211"/><tag k="addr:city" v="Portland"/><tag k="addr:street" v="Northeast Argyle Street"/></node>
<node id="-9" lat="45.580187421" lon="-122.647683993" visible="true"><tag k="addr:housenumber" v="1709"/><tag k="addr:postcode" v="97211"/><tag k="addr:city" v="Portland"/><tag k="addr:street" v="Northeast Argyle Street"/></node>
<node id="-10" lat="45.580603357" lon="-122.646961766" visible="true"><tag k="addr:housenumber" v="1735"/><tag k="addr:postcode" v="97211"/><tag k="addr:city" v="Portland"/><tag k="addr:street" v="Northeast Argyle Street"/></node>
<node id="-11" lat="45.580600963" lon="-122.646960572" visible="true"><tag k="addr:housenumber" v="1749"/><tag k="addr:postcode" v="97211"/><tag k="addr:city" v="Portland"/><tag k="addr:street" v="Northeast Argyle Street"/></node>
<node id="-12" lat="45.580604427" lon="-122.646961977" visible="true"><tag k="addr:housenumber" v="1751"/><tag k="addr:postcode" v="97211"/><tag k="addr:city" v="Portland"/><tag k="addr:street" v="Northeast Argyle Street"/></node>
<node id="-13" lat="45.58060656" lon="-122.646963806" visible="true"><tag k="addr:housenumber" v="1753"/><tag k="addr:postcode" v="97211"/><tag k="addr:city" v="Portland"/><tag k="addr:street" v="Northeast Argyle Street"/></node>
<node id="-14" lat="45.580607174" lon="-122.646964582" visible="true"><tag k="addr:housenumber" v="1755"/><tag k="addr:postcode" v="97211"/><tag k="addr:city" v="Portland"/><tag k="addr:street" v="Northeast Argyle Street"/></node>
<node id="-15" lat="45.580599786" lon="-122.64696379" visible="true"><tag k="addr:housenumber" v="1759"/><tag k="addr:postcode" v="97211"/><tag k="addr:city" v="Portland"/><tag k="addr:street" v="Northeast Argyle Street"/></node>
<node id="-16" lat="45.580604149" lon="-122.646960061" visible="true"><tag k="addr:housenumber" v="1763"/><tag k="addr:postcode" v="97211"/><tag k="addr:city" v="Portland"/><tag k="addr:street" v="Northeast Argyle Street"/></node>
<node id="-17" lat="45.57775769" lon="-122.640655707" visible="true"><tag k="addr:housenumber" v="2401"/><tag k="addr:postcode" v="97211"/><tag k="addr:city" v="Portland"/><tag k="addr:street" v="Northeast Argyle Street"/></node>
<node id="-18" lat="45.577762065" lon="-122.640652371" visible="true"><tag k="addr:housenumber" v="2411"/><tag k="addr:postcode" v="97211"/><tag k="addr:city" v="Portland"/><tag k="addr:street" v="Northeast Argyle Street"/></node>
<node id="-19" lat="45.575901369" lon="-122.635709562" visible="true"><tag k="addr:housenumber" v="2900"/><tag k="addr:postcode" v="97211"/><tag k="addr:city" v="Portland"/><tag k="addr:street" v="Northeast Argyle Street"/></node>
<node id="-20" lat="45.573469482" lon="-122.63738958" visible="true"><tag k="addr:housenumber" v="2731"/><tag k="addr:postcode" v="97211"/><tag k="addr:city" v="Portland"/><tag k="addr:street" v="Northeast Bryant Street"/></node>
<node id="-21" lat="45.573475192" lon="-122.63738821" visible="true"><tag k="addr:housenumber" v="2733"/><tag k="addr:postcode" v="97211"/><tag k="addr:city" v="Portland"/><tag k="addr:street" v="Northeast Bryant Street"/></node>
<node id="-22" lat="45.575063133" lon="-122.638427876" visible="true"><tag k="addr:housenumber" v="2634"/><tag k="addr:postcode" v="97211"/><tag k="addr:city" v="Portland"/><tag k="addr:street" v="Northeast Columbia Boulevard"/></node>
<node id="-23" lat="45.575064257" lon="-122.638421163" visible="true"><tag k="addr:housenumber" v="2638"/><tag k="addr:postcode" v="97211"/><tag k="addr:city" v="Portland"/><tag k="addr:street" v="Northeast Columbia Boulevard"/></node>
<node id="-24" lat="45.575627665" lon="-122.638009071" visible="true"><tag k="addr:housenumber" v="2711"/><tag k="addr:postcode" v="97211"/><tag k="addr:city" v="Portland"/><tag k="addr:street" v="Northeast Columbia Boulevard"/></node>
<node id="-25" lat="45.575634513" lon="-122.63801319" visible="true"><tag k="addr:housenumber" v="2725"/><tag k="addr:postcode" v="97211"/><tag k="addr:city" v="Portland"/><tag k="addr:street" v="Northeast Columbia Boulevard"/></node>
<node id="-26" lat="45.574035333" lon="-122.635370545" visible="true"><tag k="addr:housenumber" v="2854"/><tag k="addr:postcode" v="97211"/><tag k="addr:city" v="Portland"/><tag k="addr:street" v="Northeast Columbia Boulevard"/></node>
<node id="-27" lat="45.57403687" lon="-122.6353655" visible="true"><tag k="addr:housenumber" v="2946"/><tag k="addr:postcode" v="97211"/><tag k="addr:city" v="Portland"/><tag k="addr:street" v="Northeast Columbia Boulevard"/></node>
<node id="-28" lat="45.572112854" lon="-122.63495006" visible="true"><tag k="addr:housenumber" v="2969"/><tag k="addr:postcode" v="97211"/><tag k="addr:city" v="Portland"/><tag k="addr:street" v="Northeast Dekum Street"/></node>
<node id="-29" lat="45.572112425" lon="-122.634954111" visible="true"><tag k="addr:housenumber" v="3003"/><tag k="addr:postcode" v="97211"/><tag k="addr:city" v="Portland"/><tag k="addr:street" v="Northeast Dekum Street"/></node>
<node id="-30" lat="45.583271911" lon="-122.641945777" visible="true"><tag k="addr:housenumber" v="2167"/><tag k="addr:postcode" v="97211"/><tag k="addr:city" v="Portland"/><tag k="addr:street" v="Northeast Elrod Drive"/></node>
<node id="-31" lat="45.583268119" lon="-122.641947725" visible="true"><tag k="addr:housenumber" v="2171"/><tag k="addr:postcode" v="97211"/><tag k="addr:city" v="Portland"/><tag k="addr:street" v="Northeast Elrod Drive"/></node>
<node id="-32" lat="45.58327348" lon="-122.641949435" visible="true"><tag k="addr:housenumber" v="2185"/><tag k="addr:postcode" v="97211"/><tag k="addr:city" v="Portland"/><tag k="addr:street" v="Northeast Elrod Drive"/></node>
<node id="-33" lat="45.590925172" lon="-122.651035662" visible="true"><tag k="addr:housenumber" v="1313"/><tag k="addr:postcode" v="97211"/><tag k="addr:city" v="Portland"/><tag k="addr:street" v="Northeast Gertz Road"/></node>
<node id="-34" lat="45.59091764" lon="-122.651028184" visible="true"><tag k="addr:housenumber" v="1315"/><tag k="addr:postcode" v="97211"/><tag k="addr:city" v="Portland"/><tag k="addr:street" v="Northeast Gertz Road"/></node>
<node id="-35" lat="45.590762851" lon="-122.649665371" visible="true"><tag k="addr:housenumber" v="1539"/><tag k="addr:postcode" v="97211"/><tag k="addr:city" v="Portland"/><tag k="addr:street" v="Northeast Gertz Road"/></node>
<node id="-36" lat="45.59076235" lon="-122.649664289" visible="true"><tag k="addr:housenumber" v="2031"/><tag k="addr:postcode" v="97211"/><tag k="addr:city" v="Portland"/><tag k="addr:street" v="Northeast Gertz Road"/></node>
<node id="-37" lat="45.577534489" lon="-122.650238569" visible="true"><tag k="addr:housenumber" v="1419"/><tag k="addr:postcode" v="97211"/><tag k="addr:city" v="Portland"/><tag k="addr:street" v="Northeast Lombard Place"/></node>
<node id="-38" lat="45.577534714" lon="-122.650246142" visible="true"><tag k="addr:housenumber" v="1419"/><tag k="addr:postcode" v="97211"/><tag k="addr:city" v="Portland"/><tag k="addr:street" v="Northeast Lombard Street"/></node>
<node id="-39" lat="45.573780903" lon="-122.638654843" visible="true"><tag k="addr:housenumber" v="2620"/><tag k="addr:postcode" v="97211"/><tag k="addr:city" v="Portland"/><tag k="addr:street" v="Northeast Lombard Street"/></node>
<node id="-40" lat="45.573774603" lon="-122.638660454" visible="true"><tag k="addr:housenumber" v="2622"/><tag k="addr:postcode" v="97211"/><tag k="addr:city" v="Portland"/><tag k="addr:street" v="Northeast Lombard Street"/></node>
<node id="-41" lat="45.573781372" lon="-122.638652951" visible="true"><tag k="addr:housenumber" v="2624"/><tag k="addr:postcode" v="97211"/><tag k="addr:city" v="Portland"/><tag k="addr:street" v="Northeast Lombard Street"/></node>
<node id="-42" lat="45.573782675" lon="-122.638659094" visible="true"><tag k="addr:housenumber" v="2626"/><tag k="addr:postcode" v="97211"/><tag k="addr:city" v="Portland"/><tag k="addr:street" v="Northeast Lombard Street"/></node>
<node id="-43" lat="45.574119894" lon="-122.640606121" visible="true"><tag k="addr:housenumber" v="2424"/><tag k="addr:postcode" v="97211"/><tag k="addr:city" v="Portland"/><tag k="addr:street" v="Northeast Morgan Street"/></node>
<node id="-44" lat="45.574122128" lon="-122.640598105" visible="true"><tag k="addr:housenumber" v="2427"/><tag k="addr:postcode" v="97211"/><tag k="addr:city" v="Portland"/><tag k="addr:street" v="Northeast Morgan Street"/></node>
<node id="-45" lat="45.57412401" lon="-122.640607321" visible="true"><tag k="addr:housenumber" v="2428"/><tag k="addr:postcode" v="97211"/><tag k="addr:city" v="Portland"/><tag k="addr:street" v="Northeast Morgan Street"/></node>
<node id="-46" lat="45.574127085" lon="-122.640600929" visible="true"><tag k="addr:housenumber" v="2429"/><tag k="addr:postcode" v="97211"/><tag k="addr:city" v="Portland"/><tag k="addr:street" v="Northeast Morgan Street"/></node>
<node id="-47" lat="45.574119708" lon="-122.640606286" visible="true"><tag k="addr:housenumber" v="2430"/><tag k="addr:postcode" v="97211"/><tag k="addr:city" v="Portland"/><tag k="addr:street" v="Northeast Morgan Street"/></node>
<node id="-48" lat="45.574122116" lon="-122.640597922" visible="true"><tag k="addr:housenumber" v="2431"/><tag k="addr:postcode" v="97211"/><tag k="addr:city" v="Portland"/><tag k="addr:street" v="Northeast Morgan Street"/></node>
<node id="-49" lat="45.574124061" lon="-122.640605379" visible="true"><tag k="addr:housenumber" v="2432"/><tag k="addr:postcode" v="97211"/><tag k="addr:city" v="Portland"/><tag k="addr:street" v="Northeast Morgan Street"/></node>
<node id="-50" lat="45.57412286" lon="-122.640604068" visible="true"><tag k="addr:housenumber" v="2433"/><tag k="addr:postcode" v="97211"/><tag k="addr:city" v="Portland"/><tag k="addr:street" v="Northeast Morgan Street"/></node>
<node id="-51" lat="45.574127077" lon="-122.640602109" visible="true"><tag k="addr:housenumber" v="2434"/><tag k="addr:postcode" v="97211"/><tag k="addr:city" v="Portland"/><tag k="addr:street" v="Northeast Morgan Street"/></node>
<node id="-52" lat="45.574126125" lon="-122.640605686" visible="true"><tag k="addr:housenumber" v="2435"/><tag k="addr:postcode" v="97211"/><tag k="addr:city" v="Portland"/><tag k="addr:street" v="Northeast Morgan Street"/></node>
<node id="-53" lat="45.574122222" lon="-122.640606102" visible="true"><tag k="addr:housenumber" v="2437"/><tag k="addr:postcode" v="97211"/><tag k="addr:city" v="Portland"/><tag k="addr:street" v="Northeast Morgan Street"/></node>
<node id="-54" lat="45.574062062" lon="-122.640271563" visible="true"><tag k="addr:housenumber" v="2441"/><tag k="addr:postcode" v="97211"/><tag k="addr:city" v="Portland"/><tag k="addr:street" v="Northeast Morgan Street"/></node>
<node id="-55" lat="45.574058191" lon="-122.640276547" visible="true"><tag k="addr:housenumber" v="2443"/><tag k="addr:postcode" v="97211"/><tag k="addr:city" v="Portland"/><tag k="addr:street" v="Northeast Morgan Street"/></node>
<node id="-56" lat="45.574059798" lon="-122.640276719" visible="true"><tag k="addr:housenumber" v="2445"/><tag k="addr:postcode" v="97211"/><tag k="addr:city" v="Portland"/><tag k="addr:street" v="Northeast Morgan Street"/></node>
<node id="-57" lat="45.574059203" lon="-122.640278342" visible="true"><tag k="addr:housenumber" v="2447"/><tag k="addr:postcode" v="97211"/><tag k="addr:city" v="Portland"/><tag k="addr:street" v="Northeast Morgan Street"/></node>
<node id="-58" lat="45.574030182" lon="-122.639897424" visible="true"><tag k="addr:housenumber" v="2509"/><tag k="addr:postcode" v="97211"/><tag k="addr:city" v="Portland"/><tag k="addr:street" v="Northeast Morgan Street"/></node>
<node id="-59" lat="45.574023343" lon="-122.639899687" visible="true"><tag k="addr:housenumber" v="2511"/><tag k="addr:postcode" v="97211"/><tag k="addr:city" v="Portland"/><tag k="addr:street" v="Northeast Morgan Street"/></node>
<node id="-60" lat="45.574025549" lon="-122.639895549" visible="true"><tag k="addr:housenumber" v="2513"/><tag k="addr:postcode" v="97211"/><tag k="addr:city" v="Portland"/><tag k="addr:street" v="Northeast Morgan Street"/></node>
<node id="-61" lat="45.574026085" lon="-122.639902219" visible="true"><tag k="addr:housenumber" v="2515"/><tag k="addr:postcode" v="97211"/><tag k="addr:city" v="Portland"/><tag k="addr:street" v="Northeast Morgan Street"/></node>
<node id="-62" lat="45.573901599" lon="-122.639417224" visible="true"><tag k="addr:housenumber" v="2525"/><tag k="addr:postcode" v="97211"/><tag k="addr:city" v="Portland"/><tag k="addr:street" v="Northeast Morgan Street"/></node>
<node id="-63" lat="45.573900149" lon="-122.639412164" visible="true"><tag k="addr:housenumber" v="2527"/><tag k="addr:postcode" v="97211"/><tag k="addr:city" v="Portland"/><tag k="addr:street" v="Northeast Morgan Street"/></node>
<node id="-64" lat="45.573894659" lon="-122.639410325" visible="true"><tag k="addr:housenumber" v="2529"/><tag k="addr:postcode" v="97211"/><tag k="addr:city" v="Portland"/><tag k="addr:street" v="Northeast Morgan Street"/></node>
<node id="-65" lat="45.573896228" lon="-122.639414309" visible="true"><tag k="addr:housenumber" v="2531"/><tag k="addr:postcode" v="97211"/><tag k="addr:city" v="Portland"/><tag k="addr:street" v="Northeast Morgan Street"/></node>
<node id="-66" lat="45.573901969" lon="-122.639417007" visible="true"><tag k="addr:housenumber" v="2533"/><tag k="addr:postcode" v="97211"/><tag k="addr:city" v="Portland"/><tag k="addr:street" v="Northeast Morgan Street"/></node>
<node id="-67" lat="45.573902104" lon="-122.639416573" visible="true"><tag k="addr:housenumber" v="2535"/><tag k="addr:postcode" v="97211"/><tag k="addr:city" v="Portland"/><tag k="addr:street" v="Northeast Morgan Street"/></node>
<node id="-68" lat="45.580735469" lon="-122.640921775" visible="true"><tag k="addr:housenumber" v="2424"/><tag k="addr:postcode" v="97211"/><tag k="addr:city" v="Portland"/><tag k="addr:street" v="Northeast Riverside Way"/></node>
<node id="-69" lat="45.580736976" lon="-122.640917873" visible="true"><tag k="addr:housenumber" v="2426"/><tag k="addr:postcode" v="97211"/><tag k="addr:city" v="Portland"/><tag k="addr:street" v="Northeast Riverside Way"/></node>
<node id="-70" lat="45.581277503" lon="-122.637886181" visible="true"><tag k="addr:housenumber" v="2655"/><tag k="addr:postcode" v="97211"/><tag k="addr:city" v="Portland"/><tag k="addr:street" v="Northeast Riverside Way"/></node>
<node id="-71" lat="45.581279613" lon="-122.637886869" visible="true"><tag k="addr:housenumber" v="2665"/><tag k="addr:postcode" v="97211"/><tag k="addr:city" v="Portland"/><tag k="addr:street" v="Northeast Riverside Way"/></node>
<node id="-72" lat="45.581279682" lon="-122.637888945" visible="true"><tag k="addr:housenumber" v="2669"/><tag k="addr:postcode" v="97211"/><tag k="addr:city" v="Portland"/><tag k="addr:street" v="Northeast Riverside Way"/></node>
<node id="-73" lat="45.581282002" lon="-122.637888227" visible="true"><tag k="addr:housenumber" v="2763"/><tag k="addr:postcode" v="97211"/><tag k="addr:city" v="Portland"/><tag k="addr:street" v="Northeast Riverside Way"/></node>
<node id="-74" lat="45.579402603" lon="-122.636654397" visible="true"><tag k="addr:housenumber" v="2828"/><tag k="addr:postcode" v="97211"/><tag k="addr:city" v="Portland"/><tag k="addr:street" v="Northeast Riverside Way"/></node>
<node id="-75" lat="45.579407151" lon="-122.636646575" visible="true"><tag k="addr:housenumber" v="2840"/><tag k="addr:postcode" v="97211"/><tag k="addr:city" v="Portland"/><tag k="addr:street" v="Northeast Riverside Way"/></node>
<node id="-76" lat="45.570198342" lon="-122.634651062" visible="true"><tag k="addr:housenumber" v="2955"/><tag k="addr:postcode" v="97211"/><tag k="addr:city" v="Portland"/><tag k="addr:street" v="Northeast Rosa Parks Way"/></node>
<node id="-77" lat="45.570200419" lon="-122.634651995" visible="true"><tag k="addr:housenumber" v="3007"/><tag k="addr:postcode" v="97211"/><tag k="addr:city" v="Portland"/><tag k="addr:street" v="Northeast Rosa Parks Way"/></node>
</osm>