<?xml version="1.0"?>
<osm version="0.6" upload="false" generator="uvmogr2osm">
<node id="-1" lat="45.577209076" lon="-122.723888517" visible="true"><tag k="addr:housenumber" v="5105"/><tag k="addr:postcode" v="97203"/><tag k="addr:city" v="Portland"/><tag k="addr:street" v="North Amherst Street"/></node>
<node id="-2" lat="45.577226824" lon="-122.723940131" visible="true"><tag k="addr:housenumber" v="5111"/><tag k="addr:postcode" v="97203"/><tag k="addr:city" v="Portland"/><tag k="addr:street" v="North Amherst Street"/></node>
<node id="-3" lat="45.577461996" lon="-122.725847646" visible="true"><tag k="addr:housenumber" v="5230"/><tag k="addr:postcode" v="97203"/><tag k="addr:city" v="Portland"/><tag k="addr:street" v="North Amherst Street"/></node>
<node id="-4" lat="45.577469097" lon="-122.725840956" visible="true"><tag k="addr:housenumber" v="5238"/><tag k="addr:postcode" v="97203"/><tag k="addr:city" v="Portland"/><tag k="addr:street" v="North Amherst Street"/></node>
<node id="-5" lat="45.579929498" lon="-122.725074103" visible="true"><tag k="addr:housenumber" v="5264"/><tag k="addr:postcode" v="97203"/><tag k="addr:city" v="Portland"/><tag k="addr:street" v="North Depauw Street"/></node>
<node id="-6" lat="45.579929474" lon="-122.72508135" visible="true"><tag k="addr:housenumber" v="5272"/><tag k="addr:postcode" v="97203"/><tag k="addr:city" v="Portland"/><tag k="addr:street" v="North Depauw Street"/></node>
<node id="-7" lat="45.583213139" lon="-122.732981067" visible="true"><tag k="addr:housenumber" v="6345"/><tag k="addr:postcode" v="97203"/><tag k="addr:city" v="Portland"/><tag k="addr:street" v="North Depauw Street"/></node>
<node id="-8" lat="45.577441256" lon="-122.729486594" visible="true"><tag k="addr:housenumber" v="5431"/><tag k="addr:postcode" v="97203"/><tag k="addr:city" v="Portland"/><tag k="addr:street" v="North Harvard Street"/></node>
<node id="-9" lat="45.577570669" lon="-122.731020113" visible="true"><tag k="addr:housenumber" v="5628"/><tag k="addr:postcode" v="97203"/><tag k="addr:city" v="Portland"/><tag k="addr:street" v="North Harvard Street"/></node>
<node id="-10" lat="45.578066476" lon="-122.72376426" visible="true"><tag k="addr:housenumber" v="7106"/><tag k="addr:postcode" v="97203"/><tag k="addr:city" v="Portland"/><tag k="addr:street" v="North Hodge Avenue"/></node>
<node id="-11" lat="45.57807004" lon="-122.72375718" visible="true"><tag k="addr:housenumber" v="7110"/><tag k="addr:postcode" v="97203"/><tag k="addr:city" v="Portland"/><tag k="addr:street" v="North Hodge Avenue"/></node>
<node id="-12" lat="45.582108749" lon="-122.723948902" visible="true"><tag k="addr:housenumber" v="5282"/><tag k="addr:postcode" v="97203"/><tag k="addr:city" v="Portland"/><tag k="addr:street" v="North Lombard Street"/></node>
<node id="-13" lat="45.582108923" lon="-122.723955341" visible="true"><tag k="addr:housenumber" v="5284"/><tag k="addr:postcode" v="97203"/><tag k="addr:city" v="Portland"/><tag k="addr:street" v="North Lombard Street"/></node>
<node id="-14" lat="45.582607142" lon="-122.723718846" visible="true"><tag k="addr:housenumber" v="5287"/><tag k="addr:postcode" v="97203"/><tag k="addr:city" v="Portland"/><tag k="addr:street" v="North Lombard Street"/></node>
<node id="-15" lat="45.582430051" lon="-122.724538012" visible="true"><tag k="addr:housenumber" v="5300"/><tag k="addr:postcode" v="97203"/><tag k="addr:city" v="Portland"/><tag k="addr:street" v="North Lombard Street"/></node>
<node id="-16" lat="45.58242132" lon="-122.724540916" visible="true"><tag k="addr:housenumber" v="5302"/><tag k="addr:postcode" v="97203"/><tag k="addr:city" v="Portland"/><tag k="addr:street" v="North Lombard Street"/></node>
<node id="-17" lat="45.582547646" lon="-122.724912667" visible="true"><tag k="addr:housenumber" v="5328"/><tag k="addr:postcode" v="97203"/><tag k="addr:city" v="Portland"/><tag k="addr:street" v="North Lombard Street"/></node>
<node id="-18" lat="45.582548478" lon="-122.724910814" visible="true"><tag k="addr:housenumber" v="5330"/><tag k="addr:postcode" v="97203"/><tag k="addr:city" v="Portland"/><tag k="addr:street" v="North Lombard Street"/></node>
<node id="-19" lat="45.582545456" lon="-122.724912577" visible="true"><tag k="addr:housenumber" v="5336"/><tag k="addr:postcode" v="97203"/><tag k="addr:city" v="Portland"/><tag k="addr:street" v="North Lombard Street"/></node>
<node id="-20" lat="45.584039828" lon="-122.72746521" visible="true"><tag k="addr:housenumber" v="5801"/><tag k="addr:postcode" v="97203"/><tag k="addr:city" v="Portland"/><tag k="addr:street" v="North Lombard Street"/></node>
<node id="-21" lat="45.584041552" lon="-122.727463881" visible="true"><tag k="addr:housenumber" v="5803"/><tag k="addr:postcode" v="97203"/><tag k="addr:city" v="Portland"/><tag k="addr:street" v="North Lombard Street"/></node>
<node id="-22" lat="45.584042426" lon="-122.727462542" visible="true"><tag k="addr:housenumber" v="5807"/><tag k="addr:postcode" v="97203"/><tag k="addr:city" v="Portland"/><tag k="addr:street" v="North Lombard Street"/></node>
<node id="-23" lat="45.584040868" lon="-122.727463351" visible="true"><tag k="addr:housenumber" v="5809"/><tag k="addr:postcode" v="97203"/><tag k="addr:city" v="Portland"/><tag k="addr:street" v="North Lombard Street"/></node>
<node id="-24" lat="45.584041001" lon="-122.727467614" visible="true"><tag k="addr:housenumber" v="5811"/><tag k="addr:postcode" v="97203"/><tag k="addr:city" v="Portland"/><tag k="addr:street" v="North Lombard Street"/></node>
<node id="-25" lat="45.584034983" lon="-122.727461618" visible="true"><tag k="addr:housenumber" v="5813"/><tag k="addr:postcode" v="97203"/><tag k="addr:city" v="Portland"/><tag k="addr:street" v="North Lombard Street"/></node>
<node id="-26" lat="45.584041197" lon="-122.727463946" visible="true"><tag k="addr:housenumber" v="5815"/><tag k="addr:postcode" v="97203"/><tag k="addr:city" v="Portland"/><tag k="addr:street" v="North Lombard Street"/></node>
<node id="-27" lat="45.584046737" lon="-122.729176481" visible="true"><tag k="addr:housenumber" v="6002"/><tag k="addr:postcode" v="97203"/><tag k="addr:city" v="Portland"/><tag k="addr:street" v="North Lombard Street"/></node>
<node id="-28" lat="45.584047502" lon="-122.72917621" visible="true"><tag k="addr:housenumber" v="6010"/><tag k="addr:postcode" v="97203"/><tag k="addr:city" v="Portland"/><tag k="addr:street" v="North Lombard Street"/></node>
<node id="-29" lat="45.584052845" lon="-122.729176193" visible="true"><tag k="addr:housenumber" v="6014"/><tag k="addr:postcode" v="97203"/><tag k="addr:city" v="Portland"/><tag k="addr:street" v="North Lombard Street"/></node>
<node id="-30" lat="45.58405311" lon="-122.72917949" visible="true"><tag k="addr:housenumber" v="6016"/><tag k="addr:postcode" v="97203"/><tag k="addr:city" v="Portland"/><tag k="addr:street" v="North Lombard Street"/></node>
<node id="-31" lat="45.584053902" lon="-122.729177986" visible="true"><tag k="addr:housenumber" v="6022"/><tag k="addr:postcode" v="97203"/><tag k="addr:city" v="Portland"/><tag k="addr:street" v="North Lombard Street"/></node>
<node id="-32" lat="45.577569334" lon="-122.731019998" visible="true"><tag k="addr:housenumber" v="6734"/><tag k="addr:postcode" v="97203"/><tag k="addr:city" v="Portland"/><tag k="addr:street" v="North Monteith Avenue"/></node>
<node id="-33" lat="45.581035478" lon="-122.725691224" visible="true"><tag k="addr:housenumber" v="5316"/><tag k="addr:postcode" v="97203"/><tag k="addr:city" v="Portland"/><tag k="addr:street" v="North Oberlin Street"/></node>
<node id="-34" lat="45.581033129" lon="-122.725698365" visible="true"><tag k="addr:housenumber" v="5318"/><tag k="addr:postcode" v="97203"/><tag k="addr:city" v="Portland"/><tag k="addr:street" v="North Oberlin Street"/></node>
<node id="-35" lat="45.579944742" lon="-122.72638733" visible="true"><tag k="addr:housenumber" v="7205"/><tag k="addr:postcode" v="97203"/><tag k="addr:city" v="Portland"/><tag k="addr:street" v="North Portsmouth Avenue"/></node>
<node id="-36" lat="45.579642304" lon="-122.725783628" visible="true"><tag k="addr:housenumber" v="7212 A"/><tag k="addr:postcode" v="97203"/><tag k="addr:city" v="Portland"/><tag k="addr:street" v="North Portsmouth Avenue"/></node>
<node id="-37" lat="45.579703482" lon="-122.725793215" visible="true"><tag k="addr:housenumber" v="7212 B"/><tag k="addr:postcode" v="97203"/><tag k="addr:city" v="Portland"/><tag k="addr:street" v="North Portsmouth Avenue"/></node>
<node id="-38" lat="45.582605917" lon="-122.723723564" visible="true"><tag k="addr:housenumber" v="7510"/><tag k="addr:postcode" v="97203"/><tag k="addr:city" v="Portland"/><tag k="addr:street" v="North Portsmouth Avenue"/></node>
<node id="-39" lat="45.582861161" lon="-122.723327354" visible="true"><tag k="addr:housenumber" v="7600"/><tag k="addr:postcode" v="97203"/><tag k="addr:city" v="Portland"/><tag k="addr:street" v="North Portsmouth Avenue"/></node>
<node id="-40" lat="45.582852227" lon="-122.723325714" visible="true"><tag k="addr:housenumber" v="7608"/><tag k="addr:postcode" v="97203"/><tag k="addr:city" v="Portland"/><tag k="addr:street" v="North Portsmouth Avenue"/></node>
<node id="-41" lat="45.58051563" lon="-122.730453033" visible="true"><tag k="addr:housenumber" v="5815"/><tag k="addr:postcode" v="97203"/><tag k="addr:city" v="Portland"/><tag k="addr:street" v="North Princeton Street"/></node>
<node id="-42" lat="45.580515941" lon="-122.730453269" visible="true"><tag k="addr:housenumber" v="5817"/><tag k="addr:postcode" v="97203"/><tag k="addr:city" v="Portland"/><tag k="addr:street" v="North Princeton Street"/></node>
<node id="-43" lat="45.579944491" lon="-122.726380367" visible="true"><tag k="addr:housenumber" v="5323"/><tag k="addr:postcode" v="97203"/><tag k="addr:city" v="Portland"/><tag k="addr:street" v="North Syracuse Street"/></node>
<node id="-44" lat="45.581677248" lon="-122.731416452" visible="true"><tag k="addr:housenumber" v="6017"/><tag k="addr:postcode" v="97203"/><tag k="addr:city" v="Portland"/><tag k="addr:street" v="North Syracuse Street"/></node>
<node id="-45" lat="45.577022042" lon="-122.729767098" visible="true"><tag k="addr:housenumber" v="6728"/><tag k="addr:postcode" v="97203"/><tag k="addr:city" v="Portland"/><tag k="addr:street" v="North Van Houten Avenue"/></node>
<node id="-46" lat="45.577026604" lon="-122.729766585" visible="true"><tag k="addr:housenumber" v="6730"/><tag k="addr:postcode" v="97203"/><tag k="addr:city" v="Portland"/><tag k="addr:street" v="North Van Houten Avenue"/></node>
<node id="-47" lat="45.577446869" lon="-122.729490788" visible="true"><tag k="addr:housenumber" v="6812"/><tag k="addr:postcode" v="97203"/><tag k="addr:city" v="Portland"/><tag k="addr:street" v="North Van Houten Avenue"/></node>
<node id="-48" lat="45.58167807" lon="-122.731414523" visible="true"><tag k="addr:housenumber" v="7206"/><tag k="addr:postcode" v="97203"/><tag k="addr:city" v="Portland"/><tag k="addr:street" v="North Wall Avenue"/></node>
<node id="-49" lat="45.583218296" lon="-122.732986396" visible="true"><tag k="addr:housenumber" v="7304"/><tag k="addr:postcode" v="97203"/><tag k="addr:city" v="Portland"/><tag k="addr:street" v="North Westanna Avenue"/></node>
<node id="-50" lat="45.578862811" lon="-122.730874082" visible="true"><tag k="addr:housenumber" v="5717"/><tag k="addr:postcode" v="97203"/><tag k="addr:city" v="Portland"/><tag k="addr:street" v="North Yale Street"/></node>
<node id="-51" lat="45.57886002" lon="-122.730879113" visible="true"><tag k="addr:housenumber" v="5719"/><tag k="addr:postcode" v="97203"/><tag k="addr:city" v="Portland"/><tag k="addr:street" v="North Yale Street"/></node>
</osm>