<?xml version="1.0"?>
<osm version="0.6" upload="false" generator="uvmogr2osm">
<node id="-1" lat="45.566631453" lon="-122.655181985" visible="true"><tag k="addr:housenumber" v="6017"/><tag k="addr:postcode" v="97211"/><tag k="addr:city" v="Portland"/><tag k="addr:street" v="Northeast 10th Avenue"/></node>
<node id="-2" lat="45.569105521" lon="-122.655085234" visible="true"><tag k="addr:housenumber" v="6401"/><tag k="addr:postcode" v="97211"/><tag k="addr:city" v="Portland"/><tag k="addr:street" v="Northeast 10th Avenue"/></node>
<node id="-3" lat="45.569106072" lon="-122.655086505" visible="true"><tag k="addr:housenumber" v="6405"/><tag k="addr:postcode" v="97211"/><tag k="addr:city" v="Portland"/><tag k="addr:street" v="Northeast 10th Avenue"/></node>
<node id="-4" lat="45.563598475" lon="-122.654418913" visible="true"><tag k="addr:housenumber" v="5615"/><tag k="addr:postcode" v="97211"/><tag k="addr:city" v="Portland"/><tag k="addr:street" v="Northeast 11th Avenue"/></node>
<node id="-5" lat="45.56359714" lon="-122.654413511" visible="true"><tag k="addr:housenumber" v="5617"/><tag k="addr:postcode" v="97211"/><tag k="addr:city" v="Portland"/><tag k="addr:street" v="Northeast 11th Avenue"/></node>
<node id="-6" lat="45.565767256" lon="-122.653780513" visible="true"><tag k="addr:housenumber" v="5922"/><tag k="addr:postcode" v="97211"/><tag k="addr:city" v="Portland"/><tag k="addr:street" v="Northeast 11th Avenue"/></node>
<node id="-7" lat="45.56576329" lon="-122.653781862" visible="true"><tag k="addr:housenumber" v="5924"/><tag k="addr:postcode" v="97211"/><tag k="addr:city" v="Portland"/><tag k="addr:street" v="Northeast 11th Avenue"/></node>
<node id="-8" lat="45.562949367" lon="-122.653315206" visible="true"><tag k="addr:housenumber" v="5505"/><tag k="addr:postcode" v="97211"/><tag k="addr:city" v="Portland"/><tag k="addr:street" v="Northeast 12th Avenue"/></node>
<node id="-9" lat="45.562951953" lon="-122.653315787" visible="true"><tag k="addr:housenumber" v="5507"/><tag k="addr:postcode" v="97211"/><tag k="addr:city" v="Portland"/><tag k="addr:street" v="Northeast 12th Avenue"/></node>
<node id="-10" lat="45.562950324" lon="-122.653317096" visible="true"><tag k="addr:housenumber" v="5509"/><tag k="addr:postcode" v="97211"/><tag k="addr:city" v="Portland"/><tag k="addr:street" v="Northeast 12th Avenue"/></node>
<node id="-11" lat="45.564143906" lon="-122.652781347" visible="true"><tag k="addr:housenumber" v="5716"/><tag k="addr:postcode" v="97211"/><tag k="addr:city" v="Portland"/><tag k="addr:street" v="Northeast 12th Avenue"/></node>
<node id="-12" lat="45.564141584" lon="-122.652781328" visible="true"><tag k="addr:housenumber" v="5718"/><tag k="addr:postcode" v="97211"/><tag k="addr:city" v="Portland"/><tag k="addr:street" v="Northeast 12th Avenue"/></node>
<node id="-13" lat="45.567507007" lon="-122.653281137" visible="true"><tag k="addr:housenumber" v="6137"/><tag k="addr:postcode" v="97211"/><tag k="addr:city" v="Portland"/><tag k="addr:street" v="Northeast 12th Avenue"/></node>
<node id="-14" lat="45.56750553" lon="-122.653284256" visible="true"><tag k="addr:housenumber" v="6139"/><tag k="addr:postcode" v="97211"/><tag k="addr:city" v="Portland"/><tag k="addr:street" v="Northeast 12th Avenue"/></node>
<node id="-15" lat="45.563596442" lon="-122.652395115" visible="true"><tag k="addr:housenumber" v="5613"/><tag k="addr:postcode" v="97211"/><tag k="addr:city" v="Portland"/><tag k="addr:street" v="Northeast 13th Avenue"/></node>
<node id="-16" lat="45.563597631" lon="-122.6523933" visible="true"><tag k="addr:housenumber" v="5615"/><tag k="addr:postcode" v="97211"/><tag k="addr:city" v="Portland"/><tag k="addr:street" v="Northeast 13th Avenue"/></node>
<node id="-17" lat="45.563598961" lon="-122.652400358" visible="true"><tag k="addr:housenumber" v="5617"/><tag k="addr:postcode" v="97211"/><tag k="addr:city" v="Portland"/><tag k="addr:street" v="Northeast 13th Avenue"/></node>
<node id="-18" lat="45.569347934" lon="-122.659659298" visible="true"><tag k="addr:housenumber" v="6411"/><tag k="addr:postcode" v="97211"/><tag k="addr:city" v="Portland"/><tag k="addr:street" v="Northeast 6th Avenue"/></node>
<node id="-19" lat="45.569359363" lon="-122.659041607" visible="true"><tag k="addr:housenumber" v="6414"/><tag k="addr:postcode" v="97211"/><tag k="addr:city" v="Portland"/><tag k="addr:street" v="Northeast 6th Avenue"/></node>
<node id="-20" lat="45.569351061" lon="-122.659663896" visible="true"><tag k="addr:housenumber" v="6415"/><tag k="addr:postcode" v="97211"/><tag k="addr:city" v="Portland"/><tag k="addr:street" v="Northeast 6th Avenue"/></node>
<node id="-21" lat="45.56935381" lon="-122.659043506" visible="true"><tag k="addr:housenumber" v="6416"/><tag k="addr:postcode" v="97211"/><tag k="addr:city" v="Portland"/><tag k="addr:street" v="Northeast 6th Avenue"/></node>
<node id="-22" lat="45.569349841" lon="-122.659663036" visible="true"><tag k="addr:housenumber" v="6417"/><tag k="addr:postcode" v="97211"/><tag k="addr:city" v="Portland"/><tag k="addr:street" v="Northeast 6th Avenue"/></node>
<node id="-23" lat="45.568111374" lon="-122.658030178" visible="true"><tag k="addr:housenumber" v="6232"/><tag k="addr:postcode" v="97211"/><tag k="addr:city" v="Portland"/><tag k="addr:street" v="Northeast 7th Avenue"/></node>
<node id="-24" lat="45.568109107" lon="-122.658037059" visible="true"><tag k="addr:housenumber" v="6234"/><tag k="addr:postcode" v="97211"/><tag k="addr:city" v="Portland"/><tag k="addr:street" v="Northeast 7th Avenue"/></node>
<node id="-25" lat="45.566883276" lon="-122.657022581" visible="true"><tag k="addr:housenumber" v="6024"/><tag k="addr:postcode" v="97211"/><tag k="addr:city" v="Portland"/><tag k="addr:street" v="Northeast 8th Avenue"/></node>
<node id="-26" lat="45.566876106" lon="-122.657022151" visible="true"><tag k="addr:housenumber" v="6026"/><tag k="addr:postcode" v="97211"/><tag k="addr:city" v="Portland"/><tag k="addr:street" v="Northeast 8th Avenue"/></node>
<node id="-27" lat="45.567147562" lon="-122.657662255" visible="true"><tag k="addr:housenumber" v="6103"/><tag k="addr:postcode" v="97211"/><tag k="addr:city" v="Portland"/><tag k="addr:street" v="Northeast 8th Avenue"/></node>
<node id="-28" lat="45.567146637" lon="-122.657666895" visible="true"><tag k="addr:housenumber" v="6113"/><tag k="addr:postcode" v="97211"/><tag k="addr:city" v="Portland"/><tag k="addr:street" v="Northeast 8th Avenue"/></node>
<node id="-29" lat="45.567665188" lon="-122.657091215" visible="true"><tag k="addr:housenumber" v="6204 A"/><tag k="addr:postcode" v="97211"/><tag k="addr:city" v="Portland"/><tag k="addr:street" v="Northeast 8th Avenue"/></node>
<node id="-30" lat="45.567655567" lon="-122.656952557" visible="true"><tag k="addr:housenumber" v="6204 B"/><tag k="addr:postcode" v="97211"/><tag k="addr:city" v="Portland"/><tag k="addr:street" v="Northeast 8th Avenue"/></node>
<node id="-31" lat="45.568108856" lon="-122.657640192" visible="true"><tag k="addr:housenumber" v="6231"/><tag k="addr:postcode" v="97211"/><tag k="addr:city" v="Portland"/><tag k="addr:street" v="Northeast 8th Avenue"/></node>
<node id="-32" lat="45.568108856" lon="-122.657639534" visible="true"><tag k="addr:housenumber" v="6233"/><tag k="addr:postcode" v="97211"/><tag k="addr:city" v="Portland"/><tag k="addr:street" v="Northeast 8th Avenue"/></node>
<node id="-33" lat="45.568513515" lon="-122.65704092" visible="true"><tag k="addr:housenumber" v="6316"/><tag k="addr:postcode" v="97211"/><tag k="addr:city" v="Portland"/><tag k="addr:street" v="Northeast 8th Avenue"/></node>
<node id="-34" lat="45.568513182" lon="-122.657042935" visible="true"><tag k="addr:housenumber" v="6318"/><tag k="addr:postcode" v="97211"/><tag k="addr:city" v="Portland"/><tag k="addr:street" v="Northeast 8th Avenue"/></node>
<node id="-35" lat="45.568514265" lon="-122.657044129" visible="true"><tag k="addr:housenumber" v="6320"/><tag k="addr:postcode" v="97211"/><tag k="addr:city" v="Portland"/><tag k="addr:street" v="Northeast 8th Avenue"/></node>
<node id="-36" lat="45.568517654" lon="-122.657039103" visible="true"><tag k="addr:housenumber" v="6322"/><tag k="addr:postcode" v="97211"/><tag k="addr:city" v="Portland"/><tag k="addr:street" v="Northeast 8th Avenue"/></node>
<node id="-37" lat="45.56880687" lon="-122.657641474" visible="true"><tag k="addr:housenumber" v="6333"/><tag k="addr:postcode" v="97211"/><tag k="addr:city" v="Portland"/><tag k="addr:street" v="Northeast 8th Avenue"/></node>
<node id="-38" lat="45.568802695" lon="-122.657635013" visible="true"><tag k="addr:housenumber" v="6337"/><tag k="addr:postcode" v="97211"/><tag k="addr:city" v="Portland"/><tag k="addr:street" v="Northeast 8th Avenue"/></node>
<node id="-39" lat="45.569220512" lon="-122.657632762" visible="true"><tag k="addr:housenumber" v="6407"/><tag k="addr:postcode" v="97211"/><tag k="addr:city" v="Portland"/><tag k="addr:street" v="Northeast 8th Avenue"/></node>
<node id="-40" lat="45.563023727" lon="-122.655815644" visible="true"><tag k="addr:housenumber" v="5512"/><tag k="addr:postcode" v="97211"/><tag k="addr:city" v="Portland"/><tag k="addr:street" v="Northeast 9th Avenue"/></node>
<node id="-41" lat="45.563022013" lon="-122.655814888" visible="true"><tag k="addr:housenumber" v="5514"/><tag k="addr:postcode" v="97211"/><tag k="addr:city" v="Portland"/><tag k="addr:street" v="Northeast 9th Avenue"/></node>
<node id="-42" lat="45.565206498" lon="-122.65582142" visible="true"><tag k="addr:housenumber" v="5830"/><tag k="addr:postcode" v="97211"/><tag k="addr:city" v="Portland"/><tag k="addr:street" v="Northeast 9th Avenue"/></node>
<node id="-43" lat="45.565202796" lon="-122.655819389" visible="true"><tag k="addr:housenumber" v="5832"/><tag k="addr:postcode" v="97211"/><tag k="addr:city" v="Portland"/><tag k="addr:street" v="Northeast 9th Avenue"/></node>
<node id="-44" lat="45.565207327" lon="-122.655824759" visible="true"><tag k="addr:housenumber" v="5834"/><tag k="addr:postcode" v="97211"/><tag k="addr:city" v="Portland"/><tag k="addr:street" v="Northeast 9th Avenue"/></node>
<node id="-45" lat="45.565198073" lon="-122.655823667" visible="true"><tag k="addr:housenumber" v="5836"/><tag k="addr:postcode" v="97211"/><tag k="addr:city" v="Portland"/><tag k="addr:street" v="Northeast 9th Avenue"/></node>
<node id="-46" lat="45.565201355" lon="-122.655815874" visible="true"><tag k="addr:housenumber" v="5838"/><tag k="addr:postcode" v="97211"/><tag k="addr:city" v="Portland"/><tag k="addr:street" v="Northeast 9th Avenue"/></node>
<node id="-47" lat="45.565205022" lon="-122.655820641" visible="true"><tag k="addr:housenumber" v="5840"/><tag k="addr:postcode" v="97211"/><tag k="addr:city" v="Portland"/><tag k="addr:street" v="Northeast 9th Avenue"/></node>
<node id="-48" lat="45.56520199" lon="-122.65582179" visible="true"><tag k="addr:housenumber" v="5842"/><tag k="addr:postcode" v="97211"/><tag k="addr:city" v="Portland"/><tag k="addr:street" v="Northeast 9th Avenue"/></node>
<node id="-49" lat="45.565199727" lon="-122.655824923" visible="true"><tag k="addr:housenumber" v="5844"/><tag k="addr:postcode" v="97211"/><tag k="addr:city" v="Portland"/><tag k="addr:street" v="Northeast 9th Avenue"/></node>
<node id="-50" lat="45.566098961" lon="-122.659144059" visible="true"><tag k="addr:housenumber" v="620"/><tag k="addr:postcode" v="97211"/><tag k="addr:city" v="Portland"/><tag k="addr:street" v="Northeast Ainsworth Street"/></node>
<node id="-51" lat="45.566090886" lon="-122.659143507" visible="true"><tag k="addr:housenumber" v="622"/><tag k="addr:postcode" v="97211"/><tag k="addr:city" v="Portland"/><tag k="addr:street" v="Northeast Ainsworth Street"/></node>
<node id="-52" lat="45.566640591" lon="-122.655186581" visible="true"><tag k="addr:housenumber" v="941"/><tag k="addr:postcode" v="97211"/><tag k="addr:city" v="Portland"/><tag k="addr:street" v="Northeast Ainsworth Street"/></node>
<node id="-53" lat="45.563678011" lon="-122.661072131" visible="true"><tag k="addr:housenumber" v="405"/><tag k="addr:postcode" v="97211"/><tag k="addr:city" v="Portland"/><tag k="addr:street" v="Northeast Church Street"/></node>
<node id="-54" lat="45.563595785" lon="-122.659062651" visible="true"><tag k="addr:housenumber" v="625"/><tag k="addr:postcode" v="97211"/><tag k="addr:city" v="Portland"/><tag k="addr:street" v="Northeast Church Street"/></node>
<node id="-55" lat="45.563593587" lon="-122.659054339" visible="true"><tag k="addr:housenumber" v="627"/><tag k="addr:postcode" v="97211"/><tag k="addr:city" v="Portland"/><tag k="addr:street" v="Northeast Church Street"/></node>
<node id="-56" lat="45.563593863" lon="-122.658095163" visible="true"><tag k="addr:housenumber" v="727"/><tag k="addr:postcode" v="97211"/><tag k="addr:city" v="Portland"/><tag k="addr:street" v="Northeast Church Street"/></node>
<node id="-57" lat="45.563594471" lon="-122.658095519" visible="true"><tag k="addr:housenumber" v="729"/><tag k="addr:postcode" v="97211"/><tag k="addr:city" v="Portland"/><tag k="addr:street" v="Northeast Church Street"/></node>
<node id="-58" lat="45.568494191" lon="-122.652324226" visible="true"><tag k="addr:housenumber" v="6310"/><tag k="addr:postcode" v="97211"/><tag k="addr:city" v="Portland"/><tag k="addr:street" v="Northeast Durham Avenue"/></node>
<node id="-59" lat="45.568494693" lon="-122.652332054" visible="true"><tag k="addr:housenumber" v="6314"/><tag k="addr:postcode" v="97211"/><tag k="addr:city" v="Portland"/><tag k="addr:street" v="Northeast Durham Avenue"/></node>
<node id="-60" lat="45.567130261" lon="-122.660064956" visible="true"><tag k="addr:housenumber" v="6107"/><tag k="addr:postcode" v="97211"/><tag k="addr:city" v="Portland"/><tag k="addr:street" v="Northeast Grand Avenue"/></node>
<node id="-61" lat="45.567130845" lon="-122.660071429" visible="true"><tag k="addr:housenumber" v="6112"/><tag k="addr:postcode" v="97211"/><tag k="addr:city" v="Portland"/><tag k="addr:street" v="Northeast Grand Avenue"/></node>
<node id="-62" lat="45.567877737" lon="-122.660079519" visible="true"><tag k="addr:housenumber" v="6228"/><tag k="addr:postcode" v="97211"/><tag k="addr:city" v="Portland"/><tag k="addr:street" v="Northeast Grand Avenue"/></node>
<node id="-63" lat="45.56787385" lon="-122.660081959" visible="true"><tag k="addr:housenumber" v="6232"/><tag k="addr:postcode" v="97211"/><tag k="addr:city" v="Portland"/><tag k="addr:street" v="Northeast Grand Avenue"/></node>
<node id="-64" lat="45.568596868" lon="-122.652454478" visible="true"><tag k="addr:housenumber" v="1200"/><tag k="addr:postcode" v="97211"/><tag k="addr:city" v="Portland"/><tag k="addr:street" v="Northeast Highland Street"/></node>
<node id="-65" lat="45.568597103" lon="-122.652462854" visible="true"><tag k="addr:housenumber" v="1206"/><tag k="addr:postcode" v="97211"/><tag k="addr:city" v="Portland"/><tag k="addr:street" v="Northeast Highland Street"/></node>
<node id="-66" lat="45.56830585" lon="-122.651201515" visible="true"><tag k="addr:housenumber" v="1324"/><tag k="addr:postcode" v="97211"/><tag k="addr:city" v="Portland"/><tag k="addr:street" v="Northeast Holman Street"/></node>
<node id="-67" lat="45.568303405" lon="-122.651198809" visible="true"><tag k="addr:housenumber" v="1326"/><tag k="addr:postcode" v="97211"/><tag k="addr:city" v="Portland"/><tag k="addr:street" v="Northeast Holman Street"/></node>
<node id="-68" lat="45.564723638" lon="-122.653400623" visible="true"><tag k="addr:housenumber" v="1123"/><tag k="addr:postcode" v="97211"/><tag k="addr:city" v="Portland"/><tag k="addr:street" v="Northeast Jarrett Street"/></node>
<node id="-69" lat="45.564719797" lon="-122.653394607" visible="true"><tag k="addr:housenumber" v="1125"/><tag k="addr:postcode" v="97211"/><tag k="addr:city" v="Portland"/><tag k="addr:street" v="Northeast Jarrett Street"/></node>
<node id="-70" lat="45.565047874" lon="-122.658264371" visible="true"><tag k="addr:housenumber" v="713"/><tag k="addr:postcode" v="97211"/><tag k="addr:city" v="Portland"/><tag k="addr:street" v="Northeast Jarrett Street"/></node>
<node id="-71" lat="45.565052977" lon="-122.658264227" visible="true"><tag k="addr:housenumber" v="715"/><tag k="addr:postcode" v="97211"/><tag k="addr:city" v="Portland"/><tag k="addr:street" v="Northeast Jarrett Street"/></node>
<node id="-72" lat="45.563860136" lon="-122.65944979" visible="true"><tag k="addr:housenumber" v="602"/><tag k="addr:postcode" v="97211"/><tag k="addr:city" v="Portland"/><tag k="addr:street" v="Northeast Jessup Street"/></node>
<node id="-73" lat="45.563859251" lon="-122.659453464" visible="true"><tag k="addr:housenumber" v="604"/><tag k="addr:postcode" v="97211"/><tag k="addr:city" v="Portland"/><tag k="addr:street" v="Northeast Jessup Street"/></node>
<node id="-74" lat="45.563590468" lon="-122.658089086" visible="true"><tag k="addr:housenumber" v="729"/><tag k="addr:postcode" v="97211"/><tag k="addr:city" v="Portland"/><tag k="addr:street" v="Northeast Jessup Street"/></node>
<node id="-75" lat="45.564309245" lon="-122.657111055" visible="true"><tag k="addr:housenumber" v="817"/><tag k="addr:postcode" v="97211"/><tag k="addr:city" v="Portland"/><tag k="addr:street" v="Northeast Jessup Street"/></node>
<node id="-76" lat="45.56430636" lon="-122.657112534" visible="true"><tag k="addr:housenumber" v="819"/><tag k="addr:postcode" v="97211"/><tag k="addr:city" v="Portland"/><tag k="addr:street" v="Northeast Jessup Street"/></node>
<node id="-77" lat="45.564305806" lon="-122.657113849" visible="true"><tag k="addr:housenumber" v="821"/><tag k="addr:postcode" v="97211"/><tag k="addr:city" v="Portland"/><tag k="addr:street" v="Northeast Jessup Street"/></node>
<node id="-78" lat="45.562970491" lon="-122.660071182" visible="true"><tag k="addr:housenumber" v="523"/><tag k="addr:postcode" v="97211"/><tag k="addr:city" v="Portland"/><tag k="addr:street" v="Northeast Killingsworth Street"/></node>
<node id="-79" lat="45.562965083" lon="-122.660074844" visible="true"><tag k="addr:housenumber" v="525"/><tag k="addr:postcode" v="97211"/><tag k="addr:city" v="Portland"/><tag k="addr:street" v="Northeast Killingsworth Street"/></node>
<node id="-80" lat="45.562947532" lon="-122.659646984" visible="true"><tag k="addr:housenumber" v="543"/><tag k="addr:postcode" v="97211"/><tag k="addr:city" v="Portland"/><tag k="addr:street" v="Northeast Killingsworth Street"/></node>
<node id="-81" lat="45.562945921" lon="-122.659652741" visible="true"><tag k="addr:housenumber" v="549"/><tag k="addr:postcode" v="97211"/><tag k="addr:city" v="Portland"/><tag k="addr:street" v="Northeast Killingsworth Street"/></node>
<node id="-82" lat="45.562888245" lon="-122.655818823" visible="true"><tag k="addr:housenumber" v="903"/><tag k="addr:postcode" v="97211"/><tag k="addr:city" v="Portland"/><tag k="addr:street" v="Northeast Killingsworth Street"/></node>
<node id="-83" lat="45.562887488" lon="-122.655815275" visible="true"><tag k="addr:housenumber" v="907"/><tag k="addr:postcode" v="97211"/><tag k="addr:city" v="Portland"/><tag k="addr:street" v="Northeast Killingsworth Street"/></node>
<node id="-84" lat="45.562894005" lon="-122.655817644" visible="true"><tag k="addr:housenumber" v="911"/><tag k="addr:postcode" v="97211"/><tag k="addr:city" v="Portland"/><tag k="addr:street" v="Northeast Killingsworth Street"/></node>
<node id="-85" lat="45.562891797" lon="-122.655819503" visible="true"><tag k="addr:housenumber" v="915"/><tag k="addr:postcode" v="97211"/><tag k="addr:city" v="Portland"/><tag k="addr:street" v="Northeast Killingsworth Street"/></node>
<node id="-86" lat="45.563685049" lon="-122.661075233" visible="true"><tag k="addr:housenumber" v="5600"/><tag k="addr:postcode" v="97211"/><tag k="addr:city" v="Portland"/><tag k="addr:street" v="Northeast Martin Luther King Jr Boulevard"/></node>
<node id="-87" lat="45.563686421" lon="-122.66107583" visible="true"><tag k="addr:housenumber" v="5620"/><tag k="addr:postcode" v="97211"/><tag k="addr:city" v="Portland"/><tag k="addr:street" v="Northeast Martin Luther King Jr Boulevard"/></node>
<node id="-88" lat="45.563680279" lon="-122.661067787" visible="true"><tag k="addr:housenumber" v="5626"/><tag k="addr:postcode" v="97211"/><tag k="addr:city" v="Portland"/><tag k="addr:street" v="Northeast Martin Luther King Jr Boulevard"/></node>
<node id="-89" lat="45.569216707" lon="-122.657635059" visible="true"><tag k="addr:housenumber" v="6004"/><tag k="addr:postcode" v="97211"/><tag k="addr:city" v="Portland"/><tag k="addr:street" v="Northeast Martin Luther King Jr Boulevard"/></node>
<node id="-90" lat="45.569728012" lon="-122.661050492" visible="true"><tag k="addr:housenumber" v="6444"/><tag k="addr:postcode" v="97211"/><tag k="addr:city" v="Portland"/><tag k="addr:street" v="Northeast Martin Luther King Jr Boulevard"/></node>
<node id="-91" lat="45.569726539" lon="-122.661048162" visible="true"><tag k="addr:housenumber" v="6454"/><tag k="addr:postcode" v="97211"/><tag k="addr:city" v="Portland"/><tag k="addr:street" v="Northeast Martin Luther King Jr Boulevard"/></node>
</osm>