<?xml version="1.0"?>
<osm version="0.6" upload="false" generator="uvmogr2osm">
<node id="-1" lat="45.578181503" lon="-122.708307284" visible="true"><tag k="addr:housenumber" v="7567"/><tag k="addr:postcode" v="97217"/><tag k="addr:city" v="Portland"/><tag k="addr:street" v="North Chautauqua Boulevard"/></node>
<node id="-2" lat="45.578176701" lon="-122.708306632" visible="true"><tag k="addr:housenumber" v="7569"/><tag k="addr:postcode" v="97217"/><tag k="addr:city" v="Portland"/><tag k="addr:street" v="North Chautauqua Boulevard"/></node>
<node id="-3" lat="45.584317672" lon="-122.70762206" visible="true"><tag k="addr:housenumber" v="8404"/><tag k="addr:postcode" v="97217"/><tag k="addr:city" v="Portland"/><tag k="addr:street" v="North Chautauqua Boulevard"/></node>
<node id="-4" lat="45.584319953" lon="-122.707622577" visible="true"><tag k="addr:housenumber" v="8408"/><tag k="addr:postcode" v="97217"/><tag k="addr:city" v="Portland"/><tag k="addr:street" v="North Chautauqua Boulevard"/></node>
<node id="-5" lat="45.583430257" lon="-122.70698273" visible="true"><tag k="addr:housenumber" v="8307"/><tag k="addr:postcode" v="97217"/><tag k="addr:city" v="Portland"/><tag k="addr:street" v="North Fowler Avenue"/></node>
<node id="-6" lat="45.583438061" lon="-122.706979846" visible="true"><tag k="addr:housenumber" v="8317"/><tag k="addr:postcode" v="97217"/><tag k="addr:city" v="Portland"/><tag k="addr:street" v="North Fowler Avenue"/></node>
<node id="-7" lat="45.583708127" lon="-122.709505463" visible="true"><tag k="addr:housenumber" v="8327"/><tag k="addr:postcode" v="97203"/><tag k="addr:city" v="Portland"/><tag k="addr:street" v="North Hurst Avenue"/></node>
<node id="-8" lat="45.583704329" lon="-122.709508594" visible="true"><tag k="addr:housenumber" v="8329"/><tag k="addr:postcode" v="97203"/><tag k="addr:city" v="Portland"/><tag k="addr:street" v="North Hurst Avenue"/></node>
<node id="-9" lat="45.582487027" lon="-122.706199562" visible="true"><tag k="addr:housenumber" v="3829"/><tag k="addr:postcode" v="97217"/><tag k="addr:city" v="Portland"/><tag k="addr:street" v="North Kilpatrick Street"/></node>
<node id="-10" lat="45.582190549" lon="-122.706202813" visible="true"><tag k="addr:housenumber" v="3832"/><tag k="addr:postcode" v="97217"/><tag k="addr:city" v="Portland"/><tag k="addr:street" v="North Kilpatrick Street"/></node>
<node id="-11" lat="45.582485891" lon="-122.70620315" visible="true"><tag k="addr:housenumber" v="3839"/><tag k="addr:postcode" v="97217"/><tag k="addr:city" v="Portland"/><tag k="addr:street" v="North Kilpatrick Street"/></node>
<node id="-12" lat="45.582184671" lon="-122.706202954" visible="true"><tag k="addr:housenumber" v="3842"/><tag k="addr:postcode" v="97217"/><tag k="addr:city" v="Portland"/><tag k="addr:street" v="North Kilpatrick Street"/></node>
<node id="-13" lat="45.582196269" lon="-122.707526432" visible="true"><tag k="addr:housenumber" v="3930"/><tag k="addr:postcode" v="97217"/><tag k="addr:city" v="Portland"/><tag k="addr:street" v="North Kilpatrick Street"/></node>
<node id="-14" lat="45.582193044" lon="-122.70752314" visible="true"><tag k="addr:housenumber" v="3936"/><tag k="addr:postcode" v="97217"/><tag k="addr:city" v="Portland"/><tag k="addr:street" v="North Kilpatrick Street"/></node>
<node id="-15" lat="45.577386162" lon="-122.705644255" visible="true"><tag k="addr:housenumber" v="3803"/><tag k="addr:postcode" v="97217"/><tag k="addr:city" v="Portland"/><tag k="addr:street" v="North Lombard Street"/></node>
<node id="-16" lat="45.577383225" lon="-122.705647027" visible="true"><tag k="addr:housenumber" v="3805"/><tag k="addr:postcode" v="97217"/><tag k="addr:city" v="Portland"/><tag k="addr:street" v="North Lombard Street"/></node>
<node id="-17" lat="45.577389017" lon="-122.705645843" visible="true"><tag k="addr:housenumber" v="3809"/><tag k="addr:postcode" v="97217"/><tag k="addr:city" v="Portland"/><tag k="addr:street" v="North Lombard Street"/></node>
<node id="-18" lat="45.577386103" lon="-122.705649072" visible="true"><tag k="addr:housenumber" v="3811"/><tag k="addr:postcode" v="97217"/><tag k="addr:city" v="Portland"/><tag k="addr:street" v="North Lombard Street"/></node>
<node id="-19" lat="45.577386094" lon="-122.705942727" visible="true"><tag k="addr:housenumber" v="3817"/><tag k="addr:postcode" v="97217"/><tag k="addr:city" v="Portland"/><tag k="addr:street" v="North Lombard Street"/></node>
<node id="-20" lat="45.577383442" lon="-122.705942019" visible="true"><tag k="addr:housenumber" v="3819"/><tag k="addr:postcode" v="97217"/><tag k="addr:city" v="Portland"/><tag k="addr:street" v="North Lombard Street"/></node>
<node id="-21" lat="45.577381047" lon="-122.70594429" visible="true"><tag k="addr:housenumber" v="3823"/><tag k="addr:postcode" v="97217"/><tag k="addr:city" v="Portland"/><tag k="addr:street" v="North Lombard Street"/></node>
<node id="-22" lat="45.577383166" lon="-122.705939124" visible="true"><tag k="addr:housenumber" v="3825"/><tag k="addr:postcode" v="97217"/><tag k="addr:city" v="Portland"/><tag k="addr:street" v="North Lombard Street"/></node>
<node id="-23" lat="45.577383486" lon="-122.706298146" visible="true"><tag k="addr:housenumber" v="3831"/><tag k="addr:postcode" v="97217"/><tag k="addr:city" v="Portland"/><tag k="addr:street" v="North Lombard Street"/></node>
<node id="-24" lat="45.57738552" lon="-122.706302755" visible="true"><tag k="addr:housenumber" v="3837"/><tag k="addr:postcode" v="97217"/><tag k="addr:city" v="Portland"/><tag k="addr:street" v="North Lombard Street"/></node>
<node id="-25" lat="45.577385457" lon="-122.706296163" visible="true"><tag k="addr:housenumber" v="3839"/><tag k="addr:postcode" v="97217"/><tag k="addr:city" v="Portland"/><tag k="addr:street" v="North Lombard Street"/></node>
<node id="-26" lat="45.577381946" lon="-122.706632671" visible="true"><tag k="addr:housenumber" v="3845"/><tag k="addr:postcode" v="97217"/><tag k="addr:city" v="Portland"/><tag k="addr:street" v="North Lombard Street"/></node>
<node id="-27" lat="45.577383095" lon="-122.706627252" visible="true"><tag k="addr:housenumber" v="3847"/><tag k="addr:postcode" v="97217"/><tag k="addr:city" v="Portland"/><tag k="addr:street" v="North Lombard Street"/></node>
<node id="-28" lat="45.577382913" lon="-122.706629514" visible="true"><tag k="addr:housenumber" v="3853"/><tag k="addr:postcode" v="97217"/><tag k="addr:city" v="Portland"/><tag k="addr:street" v="North Lombard Street"/></node>
<node id="-29" lat="45.577378997" lon="-122.706631639" visible="true"><tag k="addr:housenumber" v="3855"/><tag k="addr:postcode" v="97217"/><tag k="addr:city" v="Portland"/><tag k="addr:street" v="North Lombard Street"/></node>
<node id="-30" lat="45.57813888" lon="-122.704936674" visible="true"><tag k="addr:housenumber" v="3719"/><tag k="addr:postcode" v="97217"/><tag k="addr:city" v="Portland"/><tag k="addr:street" v="North Russet Street"/></node>
<node id="-31" lat="45.578142311" lon="-122.704938801" visible="true"><tag k="addr:housenumber" v="3723"/><tag k="addr:postcode" v="97217"/><tag k="addr:city" v="Portland"/><tag k="addr:street" v="North Russet Street"/></node>
<node id="-32" lat="45.581113187" lon="-122.711027475" visible="true"><tag k="addr:housenumber" v="7910"/><tag k="addr:postcode" v="97203"/><tag k="addr:city" v="Portland"/><tag k="addr:street" v="North Wayland Avenue"/></node>
<node id="-33" lat="45.58111828" lon="-122.711026898" visible="true"><tag k="addr:housenumber" v="7916"/><tag k="addr:postcode" v="97203"/><tag k="addr:city" v="Portland"/><tag k="addr:street" v="North Wayland Avenue"/></node>
<node id="-34" lat="45.583847317" lon="-122.709500422" visible="true"><tag k="addr:housenumber" v="4110"/><tag k="addr:postcode" v="97203"/><tag k="addr:city" v="Portland"/><tag k="addr:street" v="North Willis Boulevard"/></node>
<node id="-35" lat="45.583847698" lon="-122.709509012" visible="true"><tag k="addr:housenumber" v="4116"/><tag k="addr:postcode" v="97203"/><tag k="addr:city" v="Portland"/><tag k="addr:street" v="North Willis Boulevard"/></node>
<node id="-36" lat="45.583822797" lon="-122.710023986" visible="true"><tag k="addr:housenumber" v="4130"/><tag k="addr:postcode" v="97203"/><tag k="addr:city" v="Portland"/><tag k="addr:street" v="North Willis Boulevard"/></node>
<node id="-37" lat="45.583827355" lon="-122.710017486" visible="true"><tag k="addr:housenumber" v="4136"/><tag k="addr:postcode" v="97203"/><tag k="addr:city" v="Portland"/><tag k="addr:street" v="North Willis Boulevard"/></node>
<node id="-38" lat="45.583781927" lon="-122.71186152" visible="true"><tag k="addr:housenumber" v="4320"/><tag k="addr:postcode" v="97203"/><tag k="addr:city" v="Portland"/><tag k="addr:street" v="North Willis Boulevard"/></node>
<node id="-39" lat="45.58377791" lon="-122.711859615" visible="true"><tag k="addr:housenumber" v="4322"/><tag k="addr:postcode" v="97203"/><tag k="addr:city" v="Portland"/><tag k="addr:street" v="North Willis Boulevard"/></node>
</osm>