<?xml version="1.0"?>
<osm version="0.6" upload="false" generator="uvmogr2osm">
<node id="-1" lat="45.563072802" lon="-122.670993423" visible="true"><tag k="addr:housenumber" v="5510"/><tag k="addr:postcode" v="97217"/><tag k="addr:city" v="Portland"/><tag k="addr:street" v="North Commercial Avenue"/></node>
<node id="-2" lat="45.563070527" lon="-122.670999232" visible="true"><tag k="addr:housenumber" v="5522"/><tag k="addr:postcode" v="97217"/><tag k="addr:city" v="Portland"/><tag k="addr:street" v="North Commercial Avenue"/></node>
<node id="-3" lat="45.563066677" lon="-122.669875593" visible="true"><tag k="addr:housenumber" v="5518"/><tag k="addr:postcode" v="97217"/><tag k="addr:city" v="Portland"/><tag k="addr:street" v="North Haight Avenue"/></node>
<node id="-4" lat="45.563069212" lon="-122.669877734" visible="true"><tag k="addr:housenumber" v="5520"/><tag k="addr:postcode" v="97217"/><tag k="addr:city" v="Portland"/><tag k="addr:street" v="North Haight Avenue"/></node>
<node id="-5" lat="45.563064839" lon="-122.669872219" visible="true"><tag k="addr:housenumber" v="5522"/><tag k="addr:postcode" v="97217"/><tag k="addr:city" v="Portland"/><tag k="addr:street" v="North Haight Avenue"/></node>
<node id="-6" lat="45.563327553" lon="-122.667218982" visible="true"><tag k="addr:housenumber" v="5533"/><tag k="addr:postcode" v="97217"/><tag k="addr:city" v="Portland"/><tag k="addr:street" v="North Williams Avenue"/></node>
<node id="-7" lat="45.563334204" lon="-122.667216322" visible="true"><tag k="addr:housenumber" v="5535"/><tag k="addr:postcode" v="97217"/><tag k="addr:city" v="Portland"/><tag k="addr:street" v="North Williams Avenue"/></node>
<node id="-8" lat="45.563396377" lon="-122.665480339" visible="true"><tag k="addr:housenumber" v="5542"/><tag k="addr:postcode" v="97211"/><tag k="addr:city" v="Portland"/><tag k="addr:street" v="Northeast Cleveland Avenue"/></node>
<node id="-9" lat="45.563402492" lon="-122.665474041" visible="true"><tag k="addr:housenumber" v="5546"/><tag k="addr:postcode" v="97211"/><tag k="addr:city" v="Portland"/><tag k="addr:street" v="Northeast Cleveland Avenue"/></node>
<node id="-10" lat="45.563723324" lon="-122.662922177" visible="true"><tag k="addr:housenumber" v="5627"/><tag k="addr:postcode" v="97211"/><tag k="addr:city" v="Portland"/><tag k="addr:street" v="Northeast Garfield Avenue"/></node>
<node id="-11" lat="45.568825885" lon="-122.662254963" visible="true"><tag k="addr:housenumber" v="304"/><tag k="addr:postcode" v="97211"/><tag k="addr:city" v="Portland"/><tag k="addr:street" v="Northeast Highland Street"/></node>
<node id="-12" lat="45.568828148" lon="-122.662255271" visible="true"><tag k="addr:housenumber" v="306"/><tag k="addr:postcode" v="97211"/><tag k="addr:city" v="Portland"/><tag k="addr:street" v="Northeast Highland Street"/></node>
<node id="-13" lat="45.569153546" lon="-122.664948306" visible="true"><tag k="addr:housenumber" v="85"/><tag k="addr:postcode" v="97211"/><tag k="addr:city" v="Portland"/><tag k="addr:street" v="Northeast Highland Street"/></node>
<node id="-14" lat="45.563728625" lon="-122.662917941" visible="true"><tag k="addr:housenumber" v="222"/><tag k="addr:postcode" v="97211"/><tag k="addr:city" v="Portland"/><tag k="addr:street" v="Northeast Jessup Street"/></node>
<node id="-15" lat="45.564041636" lon="-122.666140628" visible="true"><tag k="addr:housenumber" v="33"/><tag k="addr:postcode" v="97211"/><tag k="addr:city" v="Portland"/><tag k="addr:street" v="Northeast Jessup Street"/></node>
<node id="-16" lat="45.563555856" lon="-122.661757575" visible="true"><tag k="addr:housenumber" v="342"/><tag k="addr:postcode" v="97211"/><tag k="addr:city" v="Portland"/><tag k="addr:street" v="Northeast Jessup Street"/></node>
<node id="-17" lat="45.564036915" lon="-122.666140301" visible="true"><tag k="addr:housenumber" v="35"/><tag k="addr:postcode" v="97211"/><tag k="addr:city" v="Portland"/><tag k="addr:street" v="Northeast Jessup Street"/></node>
<node id="-18" lat="45.56358687" lon="-122.663374409" visible="true"><tag k="addr:housenumber" v="225"/><tag k="addr:postcode" v="97211"/><tag k="addr:city" v="Portland"/><tag k="addr:street" v="Northeast Killingsworth Street"/></node>
<node id="-19" lat="45.562967131" lon="-122.663345591" visible="true"><tag k="addr:housenumber" v="5510"/><tag k="addr:postcode" v="97211"/><tag k="addr:city" v="Portland"/><tag k="addr:street" v="Northeast Mallory Avenue"/></node>
<node id="-20" lat="45.562973161" lon="-122.663346801" visible="true"><tag k="addr:housenumber" v="5512"/><tag k="addr:postcode" v="97211"/><tag k="addr:city" v="Portland"/><tag k="addr:street" v="Northeast Mallory Avenue"/></node>
<node id="-21" lat="45.563589294" lon="-122.66336674" visible="true"><tag k="addr:housenumber" v="5616"/><tag k="addr:postcode" v="97211"/><tag k="addr:city" v="Portland"/><tag k="addr:street" v="Northeast Mallory Avenue"/></node>
<node id="-22" lat="45.565907117" lon="-122.663980397" visible="true"><tag k="addr:housenumber" v="5913"/><tag k="addr:postcode" v="97211"/><tag k="addr:city" v="Portland"/><tag k="addr:street" v="Northeast Mallory Avenue"/></node>
<node id="-23" lat="45.56590938" lon="-122.663980188" visible="true"><tag k="addr:housenumber" v="5919"/><tag k="addr:postcode" v="97211"/><tag k="addr:city" v="Portland"/><tag k="addr:street" v="Northeast Mallory Avenue"/></node>
<node id="-24" lat="45.563548147" lon="-122.661759163" visible="true"><tag k="addr:housenumber" v="5601"/><tag k="addr:postcode" v="97211"/><tag k="addr:city" v="Portland"/><tag k="addr:street" v="Northeast Martin Luther King Jr Boulevard"/></node>
<node id="-25" lat="45.567390995" lon="-122.661930201" visible="true"><tag k="addr:housenumber" v="6205"/><tag k="addr:postcode" v="97211"/><tag k="addr:city" v="Portland"/><tag k="addr:street" v="Northeast Martin Luther King Jr Boulevard"/></node>
<node id="-26" lat="45.567397817" lon="-122.66192688" visible="true"><tag k="addr:housenumber" v="6211"/><tag k="addr:postcode" v="97211"/><tag k="addr:city" v="Portland"/><tag k="addr:street" v="Northeast Martin Luther King Jr Boulevard"/></node>
<node id="-27" lat="45.564621424" lon="-122.664986019" visible="true"><tag k="addr:housenumber" v="5745"/><tag k="addr:postcode" v="97211"/><tag k="addr:city" v="Portland"/><tag k="addr:street" v="Northeast Rodney Avenue"/></node>
<node id="-28" lat="45.564615788" lon="-122.664986842" visible="true"><tag k="addr:housenumber" v="5757"/><tag k="addr:postcode" v="97211"/><tag k="addr:city" v="Portland"/><tag k="addr:street" v="Northeast Rodney Avenue"/></node>
<node id="-29" lat="45.569208353" lon="-122.66493075" visible="true"><tag k="addr:housenumber" v="6409"/><tag k="addr:postcode" v="97211"/><tag k="addr:city" v="Portland"/><tag k="addr:street" v="Northeast Rodney Avenue"/></node>
</osm>