<?xml version="1.0"?>
<osm version="0.6" upload="false" generator="uvmogr2osm">
<node id="-1" lat="45.54867087" lon="-122.650078887" visible="true"><tag k="addr:housenumber" v="3512"/><tag k="addr:postcode" v="97212"/><tag k="addr:city" v="Portland"/><tag k="addr:street" v="Northeast 15th Avenue"/></node>
<node id="-2" lat="45.548668005" lon="-122.650079496" visible="true"><tag k="addr:housenumber" v="3516"/><tag k="addr:postcode" v="97212"/><tag k="addr:city" v="Portland"/><tag k="addr:street" v="Northeast 15th Avenue"/></node>
<node id="-3" lat="45.548673848" lon="-122.650079173" visible="true"><tag k="addr:housenumber" v="3524"/><tag k="addr:postcode" v="97212"/><tag k="addr:city" v="Portland"/><tag k="addr:street" v="Northeast 15th Avenue"/></node>
<node id="-4" lat="45.549910579" lon="-122.649678032" visible="true"><tag k="addr:housenumber" v="3725"/><tag k="addr:postcode" v="97212"/><tag k="addr:city" v="Portland"/><tag k="addr:street" v="Northeast 16th Avenue"/></node>
<node id="-5" lat="45.549912126" lon="-122.649670994" visible="true"><tag k="addr:housenumber" v="3727"/><tag k="addr:postcode" v="97212"/><tag k="addr:city" v="Portland"/><tag k="addr:street" v="Northeast 16th Avenue"/></node>
<node id="-6" lat="45.552689077" lon="-122.648640817" visible="true"><tag k="addr:housenumber" v="4055"/><tag k="addr:postcode" v="97212"/><tag k="addr:city" v="Portland"/><tag k="addr:street" v="Northeast 17th Avenue"/></node>
<node id="-7" lat="45.552680133" lon="-122.648633169" visible="true"><tag k="addr:housenumber" v="4057"/><tag k="addr:postcode" v="97212"/><tag k="addr:city" v="Portland"/><tag k="addr:street" v="Northeast 17th Avenue"/></node>
<node id="-8" lat="45.552821529" lon="-122.648636277" visible="true"><tag k="addr:housenumber" v="4061"/><tag k="addr:postcode" v="97212"/><tag k="addr:city" v="Portland"/><tag k="addr:street" v="Northeast 17th Avenue"/></node>
<node id="-9" lat="45.552817062" lon="-122.648632272" visible="true"><tag k="addr:housenumber" v="4063"/><tag k="addr:postcode" v="97212"/><tag k="addr:city" v="Portland"/><tag k="addr:street" v="Northeast 17th Avenue"/></node>
<node id="-10" lat="45.554511997" lon="-122.646906306" visible="true"><tag k="addr:housenumber" v="4304"/><tag k="addr:postcode" v="97211"/><tag k="addr:city" v="Portland"/><tag k="addr:street" v="Northeast 18th Avenue"/></node>
<node id="-11" lat="45.550653553" lon="-122.644916515" visible="true"><tag k="addr:housenumber" v="3844"/><tag k="addr:postcode" v="97212"/><tag k="addr:city" v="Portland"/><tag k="addr:street" v="Northeast 20th Avenue"/></node>
<node id="-12" lat="45.55065766" lon="-122.644919256" visible="true"><tag k="addr:housenumber" v="3846"/><tag k="addr:postcode" v="97212"/><tag k="addr:city" v="Portland"/><tag k="addr:street" v="Northeast 20th Avenue"/></node>
<node id="-13" lat="45.550850985" lon="-122.644430513" visible="true"><tag k="addr:housenumber" v="3853"/><tag k="addr:postcode" v="97212"/><tag k="addr:city" v="Portland"/><tag k="addr:street" v="Northeast 21st Avenue"/></node>
<node id="-14" lat="45.552095439" lon="-122.641755411" visible="true"><tag k="addr:housenumber" v="4006"/><tag k="addr:postcode" v="97212"/><tag k="addr:city" v="Portland"/><tag k="addr:street" v="Northeast 23rd Avenue"/></node>
<node id="-15" lat="45.552100595" lon="-122.641748122" visible="true"><tag k="addr:housenumber" v="4010"/><tag k="addr:postcode" v="97212"/><tag k="addr:city" v="Portland"/><tag k="addr:street" v="Northeast 23rd Avenue"/></node>
<node id="-16" lat="45.554196075" lon="-122.641650173" visible="true"><tag k="addr:housenumber" v="4234"/><tag k="addr:postcode" v="97211"/><tag k="addr:city" v="Portland"/><tag k="addr:street" v="Northeast 23rd Avenue"/></node>
<node id="-17" lat="45.553336841" lon="-122.651148661" visible="true"><tag k="addr:housenumber" v="1425"/><tag k="addr:postcode" v="97211"/><tag k="addr:city" v="Portland"/><tag k="addr:street" v="Northeast Mason Street"/></node>
<node id="-18" lat="45.553342843" lon="-122.651150856" visible="true"><tag k="addr:housenumber" v="1429"/><tag k="addr:postcode" v="97211"/><tag k="addr:city" v="Portland"/><tag k="addr:street" v="Northeast Mason Street"/></node>
<node id="-19" lat="45.553339117" lon="-122.650954406" visible="true"><tag k="addr:housenumber" v="1435"/><tag k="addr:postcode" v="97211"/><tag k="addr:city" v="Portland"/><tag k="addr:street" v="Northeast Mason Street"/></node>
<node id="-20" lat="45.553340358" lon="-122.650951758" visible="true"><tag k="addr:housenumber" v="1439"/><tag k="addr:postcode" v="97211"/><tag k="addr:city" v="Portland"/><tag k="addr:street" v="Northeast Mason Street"/></node>
<node id="-21" lat="45.555252242" lon="-122.650798491" visible="true"><tag k="addr:housenumber" v="1452"/><tag k="addr:postcode" v="97211"/><tag k="addr:city" v="Portland"/><tag k="addr:street" v="Northeast Prescott Street"/></node>
<node id="-22" lat="45.555255983" lon="-122.650798538" visible="true"><tag k="addr:housenumber" v="1454"/><tag k="addr:postcode" v="97211"/><tag k="addr:city" v="Portland"/><tag k="addr:street" v="Northeast Prescott Street"/></node>
<node id="-23" lat="45.550850954" lon="-122.644428603" visible="true"><tag k="addr:housenumber" v="2036"/><tag k="addr:postcode" v="97212"/><tag k="addr:city" v="Portland"/><tag k="addr:street" v="Northeast Ridgewood Drive"/></node>
<node id="-24" lat="45.554512937" lon="-122.646912649" visible="true"><tag k="addr:housenumber" v="1817"/><tag k="addr:postcode" v="97211"/><tag k="addr:city" v="Portland"/><tag k="addr:street" v="Northeast Skidmore Street"/></node>
<node id="-25" lat="45.554192886" lon="-122.641642665" visible="true"><tag k="addr:housenumber" v="2314"/><tag k="addr:postcode" v="97211"/><tag k="addr:city" v="Portland"/><tag k="addr:street" v="Northeast Skidmore Street"/></node>
</osm>