<?xml version="1.0"?>
<osm version="0.6" upload="false" generator="uvmogr2osm">
<node id="-1" lat="45.57370864" lon="-122.693785708" visible="true"><tag k="addr:housenumber" v="2611"/><tag k="addr:postcode" v="97217"/><tag k="addr:city" v="Portland"/><tag k="addr:street" v="North Bryant Street"/></node>
<node id="-2" lat="45.57371781" lon="-122.695819734" visible="true"><tag k="addr:housenumber" v="2811"/><tag k="addr:postcode" v="97217"/><tag k="addr:city" v="Portland"/><tag k="addr:street" v="North Bryant Street"/></node>
<node id="-3" lat="45.573712683" lon="-122.695818704" visible="true"><tag k="addr:housenumber" v="2817"/><tag k="addr:postcode" v="97217"/><tag k="addr:city" v="Portland"/><tag k="addr:street" v="North Bryant Street"/></node>
<node id="-4" lat="45.574693377" lon="-122.694717549" visible="true"><tag k="addr:housenumber" v="7073"/><tag k="addr:postcode" v="97217"/><tag k="addr:city" v="Portland"/><tag k="addr:street" v="North Burrage Avenue"/></node>
<node id="-5" lat="45.57468669" lon="-122.694710455" visible="true"><tag k="addr:housenumber" v="7075"/><tag k="addr:postcode" v="97217"/><tag k="addr:city" v="Portland"/><tag k="addr:street" v="North Burrage Avenue"/></node>
<node id="-6" lat="45.576407585" lon="-122.698626579" visible="true"><tag k="addr:housenumber" v="7409"/><tag k="addr:postcode" v="97217"/><tag k="addr:city" v="Portland"/><tag k="addr:street" v="North Curtis Avenue"/></node>
<node id="-7" lat="45.5764092" lon="-122.698632238" visible="true"><tag k="addr:housenumber" v="7427"/><tag k="addr:postcode" v="97217"/><tag k="addr:city" v="Portland"/><tag k="addr:street" v="North Curtis Avenue"/></node>
<node id="-8" lat="45.576409994" lon="-122.69862875" visible="true"><tag k="addr:housenumber" v="7435"/><tag k="addr:postcode" v="97217"/><tag k="addr:city" v="Portland"/><tag k="addr:street" v="North Curtis Avenue"/></node>
<node id="-9" lat="45.570533054" lon="-122.695848361" visible="true"><tag k="addr:housenumber" v="6529"/><tag k="addr:postcode" v="97217"/><tag k="addr:city" v="Portland"/><tag k="addr:street" v="North Greeley Avenue"/></node>
<node id="-10" lat="45.570537646" lon="-122.695853387" visible="true"><tag k="addr:housenumber" v="6531"/><tag k="addr:postcode" v="97217"/><tag k="addr:city" v="Portland"/><tag k="addr:street" v="North Greeley Avenue"/></node>
<node id="-11" lat="45.570536809" lon="-122.695849183" visible="true"><tag k="addr:housenumber" v="6533"/><tag k="addr:postcode" v="97217"/><tag k="addr:city" v="Portland"/><tag k="addr:street" v="North Greeley Avenue"/></node>
<node id="-12" lat="45.570538235" lon="-122.695847293" visible="true"><tag k="addr:housenumber" v="6535"/><tag k="addr:postcode" v="97217"/><tag k="addr:city" v="Portland"/><tag k="addr:street" v="North Greeley Avenue"/></node>
<node id="-13" lat="45.57074536" lon="-122.695846445" visible="true"><tag k="addr:housenumber" v="6611"/><tag k="addr:postcode" v="97217"/><tag k="addr:city" v="Portland"/><tag k="addr:street" v="North Greeley Avenue"/></node>
<node id="-14" lat="45.570742084" lon="-122.695848541" visible="true"><tag k="addr:housenumber" v="6613"/><tag k="addr:postcode" v="97217"/><tag k="addr:city" v="Portland"/><tag k="addr:street" v="North Greeley Avenue"/></node>
<node id="-15" lat="45.570740998" lon="-122.695849278" visible="true"><tag k="addr:housenumber" v="6615"/><tag k="addr:postcode" v="97217"/><tag k="addr:city" v="Portland"/><tag k="addr:street" v="North Greeley Avenue"/></node>
<node id="-16" lat="45.570740698" lon="-122.695849042" visible="true"><tag k="addr:housenumber" v="6617"/><tag k="addr:postcode" v="97217"/><tag k="addr:city" v="Portland"/><tag k="addr:street" v="North Greeley Avenue"/></node>
<node id="-17" lat="45.575943012" lon="-122.695172938" visible="true"><tag k="addr:housenumber" v="7232"/><tag k="addr:postcode" v="97217"/><tag k="addr:city" v="Portland"/><tag k="addr:street" v="North Greeley Avenue"/></node>
<node id="-18" lat="45.575934455" lon="-122.695164995" visible="true"><tag k="addr:housenumber" v="7234"/><tag k="addr:postcode" v="97217"/><tag k="addr:city" v="Portland"/><tag k="addr:street" v="North Greeley Avenue"/></node>
<node id="-19" lat="45.576080579" lon="-122.695162801" visible="true"><tag k="addr:housenumber" v="7308"/><tag k="addr:postcode" v="97217"/><tag k="addr:city" v="Portland"/><tag k="addr:street" v="North Greeley Avenue"/></node>
<node id="-20" lat="45.576073819" lon="-122.695170913" visible="true"><tag k="addr:housenumber" v="7310"/><tag k="addr:postcode" v="97217"/><tag k="addr:city" v="Portland"/><tag k="addr:street" v="North Greeley Avenue"/></node>
<node id="-21" lat="45.576348262" lon="-122.69516714" visible="true"><tag k="addr:housenumber" v="7324"/><tag k="addr:postcode" v="97217"/><tag k="addr:city" v="Portland"/><tag k="addr:street" v="North Greeley Avenue"/></node>
<node id="-22" lat="45.576350785" lon="-122.695160117" visible="true"><tag k="addr:housenumber" v="7326"/><tag k="addr:postcode" v="97217"/><tag k="addr:city" v="Portland"/><tag k="addr:street" v="North Greeley Avenue"/></node>
<node id="-23" lat="45.576488892" lon="-122.695784971" visible="true"><tag k="addr:housenumber" v="7333"/><tag k="addr:postcode" v="97217"/><tag k="addr:city" v="Portland"/><tag k="addr:street" v="North Greeley Avenue"/></node>
<node id="-24" lat="45.576491095" lon="-122.695789903" visible="true"><tag k="addr:housenumber" v="7335"/><tag k="addr:postcode" v="97217"/><tag k="addr:city" v="Portland"/><tag k="addr:street" v="North Greeley Avenue"/></node>
<node id="-25" lat="45.576626236" lon="-122.695164668" visible="true"><tag k="addr:housenumber" v="7412"/><tag k="addr:postcode" v="97217"/><tag k="addr:city" v="Portland"/><tag k="addr:street" v="North Greeley Avenue"/></node>
<node id="-26" lat="45.576631232" lon="-122.695158623" visible="true"><tag k="addr:housenumber" v="7414"/><tag k="addr:postcode" v="97217"/><tag k="addr:city" v="Portland"/><tag k="addr:street" v="North Greeley Avenue"/></node>
<node id="-27" lat="45.576808764" lon="-122.695010643" visible="true"><tag k="addr:housenumber" v="2722"/><tag k="addr:postcode" v="97217"/><tag k="addr:city" v="Portland"/><tag k="addr:street" v="North Lombard Street"/></node>
<node id="-28" lat="45.576806283" lon="-122.695006166" visible="true"><tag k="addr:housenumber" v="2730"/><tag k="addr:postcode" v="97217"/><tag k="addr:city" v="Portland"/><tag k="addr:street" v="North Lombard Street"/></node>
<node id="-29" lat="45.576957676" lon="-122.700114864" visible="true"><tag k="addr:housenumber" v="3226"/><tag k="addr:postcode" v="97217"/><tag k="addr:city" v="Portland"/><tag k="addr:street" v="North Lombard Street"/></node>
<node id="-30" lat="45.576950402" lon="-122.700118087" visible="true"><tag k="addr:housenumber" v="3228"/><tag k="addr:postcode" v="97217"/><tag k="addr:city" v="Portland"/><tag k="addr:street" v="North Lombard Street"/></node>
<node id="-31" lat="45.576957596" lon="-122.700113251" visible="true"><tag k="addr:housenumber" v="3232"/><tag k="addr:postcode" v="97217"/><tag k="addr:city" v="Portland"/><tag k="addr:street" v="North Lombard Street"/></node>
<node id="-32" lat="45.57695452" lon="-122.700112958" visible="true"><tag k="addr:housenumber" v="3246"/><tag k="addr:postcode" v="97217"/><tag k="addr:city" v="Portland"/><tag k="addr:street" v="North Lombard Street"/></node>
<node id="-33" lat="45.57696789" lon="-122.700906581" visible="true"><tag k="addr:housenumber" v="3310"/><tag k="addr:postcode" v="97217"/><tag k="addr:city" v="Portland"/><tag k="addr:street" v="North Lombard Street"/></node>
<node id="-34" lat="45.576970643" lon="-122.700902755" visible="true"><tag k="addr:housenumber" v="3316"/><tag k="addr:postcode" v="97217"/><tag k="addr:city" v="Portland"/><tag k="addr:street" v="North Lombard Street"/></node>
<node id="-35" lat="45.576952745" lon="-122.702016028" visible="true"><tag k="addr:housenumber" v="3412"/><tag k="addr:postcode" v="97217"/><tag k="addr:city" v="Portland"/><tag k="addr:street" v="North Lombard Street"/></node>
<node id="-36" lat="45.576949724" lon="-122.702010564" visible="true"><tag k="addr:housenumber" v="3414"/><tag k="addr:postcode" v="97217"/><tag k="addr:city" v="Portland"/><tag k="addr:street" v="North Lombard Street"/></node>
<node id="-37" lat="45.57695213" lon="-122.70201859" visible="true"><tag k="addr:housenumber" v="3416"/><tag k="addr:postcode" v="97217"/><tag k="addr:city" v="Portland"/><tag k="addr:street" v="North Lombard Street"/></node>
<node id="-38" lat="45.576649043" lon="-122.700774306" visible="true"><tag k="addr:housenumber" v="7405"/><tag k="addr:postcode" v="97217"/><tag k="addr:city" v="Portland"/><tag k="addr:street" v="North Oatman Avenue"/></node>
<node id="-39" lat="45.576736346" lon="-122.700689722" visible="true"><tag k="addr:housenumber" v="7409"/><tag k="addr:postcode" v="97217"/><tag k="addr:city" v="Portland"/><tag k="addr:street" v="North Oatman Avenue"/></node>
<node id="-40" lat="45.576640366" lon="-122.700782395" visible="true"><tag k="addr:housenumber" v="7413"/><tag k="addr:postcode" v="97217"/><tag k="addr:city" v="Portland"/><tag k="addr:street" v="North Oatman Avenue"/></node>
<node id="-41" lat="45.576734143" lon="-122.700695816" visible="true"><tag k="addr:housenumber" v="7419"/><tag k="addr:postcode" v="97217"/><tag k="addr:city" v="Portland"/><tag k="addr:street" v="North Oatman Avenue"/></node>
<node id="-42" lat="45.570185219" lon="-122.693297849" visible="true"><tag k="addr:housenumber" v="2539"/><tag k="addr:postcode" v="97217"/><tag k="addr:city" v="Portland"/><tag k="addr:street" v="North Rosa Parks Way"/></node>
<node id="-43" lat="45.576707205" lon="-122.70243283" visible="true"><tag k="addr:housenumber" v="7410"/><tag k="addr:postcode" v="97217"/><tag k="addr:city" v="Portland"/><tag k="addr:street" v="North Wabash Avenue"/></node>
<node id="-44" lat="45.576703615" lon="-122.702438798" visible="true"><tag k="addr:housenumber" v="7412"/><tag k="addr:postcode" v="97217"/><tag k="addr:city" v="Portland"/><tag k="addr:street" v="North Wabash Avenue"/></node>
<node id="-45" lat="45.570189523" lon="-122.693292709" visible="true"><tag k="addr:housenumber" v="6510"/><tag k="addr:postcode" v="97217"/><tag k="addr:city" v="Portland"/><tag k="addr:street" v="North Wilbur Avenue"/></node>
<node id="-46" lat="45.57371075" lon="-122.693785562" visible="true"><tag k="addr:housenumber" v="7003"/><tag k="addr:postcode" v="97217"/><tag k="addr:city" v="Portland"/><tag k="addr:street" v="North Wilbur Avenue"/></node>
</osm>