<?xml version="1.0"?>
<osm version="0.6" upload="false" generator="uvmogr2osm">
<node id="-1" lat="45.575690509" lon="-122.719983124" visible="true"><tag k="addr:housenumber" v="4745"/><tag k="addr:postcode" v="97203"/><tag k="addr:city" v="Portland"/><tag k="addr:street" v="North Amherst Street"/></node>
<node id="-2" lat="45.576439294" lon="-122.723240627" visible="true"><tag k="addr:housenumber" v="4936"/><tag k="addr:postcode" v="97203"/><tag k="addr:city" v="Portland"/><tag k="addr:street" v="North Amherst Street"/></node>
<node id="-3" lat="45.57529972" lon="-122.722307376" visible="true"><tag k="addr:housenumber" v="6829"/><tag k="addr:postcode" v="97203"/><tag k="addr:city" v="Portland"/><tag k="addr:street" v="North Fiske Avenue"/></node>
<node id="-4" lat="45.575298569" lon="-122.722302435" visible="true"><tag k="addr:housenumber" v="6839"/><tag k="addr:postcode" v="97203"/><tag k="addr:city" v="Portland"/><tag k="addr:street" v="North Fiske Avenue"/></node>
<node id="-5" lat="45.576124558" lon="-122.721190304" visible="true"><tag k="addr:housenumber" v="7008"/><tag k="addr:postcode" v="97203"/><tag k="addr:city" v="Portland"/><tag k="addr:street" v="North Fiske Avenue"/></node>
<node id="-6" lat="45.576127884" lon="-122.721193646" visible="true"><tag k="addr:housenumber" v="7010"/><tag k="addr:postcode" v="97203"/><tag k="addr:city" v="Portland"/><tag k="addr:street" v="North Fiske Avenue"/></node>
<node id="-7" lat="45.575334586" lon="-122.723950241" visible="true"><tag k="addr:housenumber" v="4929"/><tag k="addr:postcode" v="97203"/><tag k="addr:city" v="Portland"/><tag k="addr:street" v="North Harvard Street"/></node>
<node id="-8" lat="45.575899589" lon="-122.726657895" visible="true"><tag k="addr:housenumber" v="5226"/><tag k="addr:postcode" v="97203"/><tag k="addr:city" v="Portland"/><tag k="addr:street" v="North Harvard Street"/></node>
<node id="-9" lat="45.575971808" lon="-122.7267338" visible="true"><tag k="addr:housenumber" v="5242"/><tag k="addr:postcode" v="97203"/><tag k="addr:city" v="Portland"/><tag k="addr:street" v="North Harvard Street"/></node>
<node id="-10" lat="45.575338699" lon="-122.723949233" visible="true"><tag k="addr:housenumber" v="6808"/><tag k="addr:postcode" v="97203"/><tag k="addr:city" v="Portland"/><tag k="addr:street" v="North Haven Avenue"/></node>
<node id="-11" lat="45.576221217" lon="-122.723919724" visible="true"><tag k="addr:housenumber" v="6907"/><tag k="addr:postcode" v="97203"/><tag k="addr:city" v="Portland"/><tag k="addr:street" v="North Haven Avenue"/></node>
<node id="-12" lat="45.576441927" lon="-122.723242193" visible="true"><tag k="addr:housenumber" v="6928"/><tag k="addr:postcode" v="97203"/><tag k="addr:city" v="Portland"/><tag k="addr:street" v="North Haven Avenue"/></node>
<node id="-13" lat="45.576367306" lon="-122.725499421" visible="true"><tag k="addr:housenumber" v="6825"/><tag k="addr:postcode" v="97203"/><tag k="addr:city" v="Portland"/><tag k="addr:street" v="North Hodge Avenue"/></node>
<node id="-14" lat="45.575685143" lon="-122.719981342" visible="true"><tag k="addr:housenumber" v="7005"/><tag k="addr:postcode" v="97203"/><tag k="addr:city" v="Portland"/><tag k="addr:street" v="North Olin Avenue"/></node>
<node id="-15" lat="45.575487303" lon="-122.730305472" visible="true"><tag k="addr:housenumber" v="6511"/><tag k="addr:postcode" v="97203"/><tag k="addr:city" v="Portland"/><tag k="addr:street" v="North Portsmouth Avenue"/></node>
<node id="-16" lat="45.575490285" lon="-122.730309542" visible="true"><tag k="addr:housenumber" v="6521"/><tag k="addr:postcode" v="97203"/><tag k="addr:city" v="Portland"/><tag k="addr:street" v="North Portsmouth Avenue"/></node>
<node id="-17" lat="45.575488695" lon="-122.730311506" visible="true"><tag k="addr:housenumber" v="6523"/><tag k="addr:postcode" v="97203"/><tag k="addr:city" v="Portland"/><tag k="addr:street" v="North Portsmouth Avenue"/></node>
<node id="-18" lat="45.575647628" lon="-122.727134406" visible="true"><tag k="addr:housenumber" v="6700"/><tag k="addr:postcode" v="97203"/><tag k="addr:city" v="Portland"/><tag k="addr:street" v="North Stanford Avenue"/></node>
<node id="-19" lat="45.57435289" lon="-122.73055032" visible="true"><tag k="addr:housenumber" v="5402"/><tag k="addr:postcode" v="97203"/><tag k="addr:city" v="Portland"/><tag k="addr:street" v="North Strong Street"/></node>
<node id="-20" lat="45.575485637" lon="-122.730309395" visible="true"><tag k="addr:housenumber" v="5403"/><tag k="addr:postcode" v="97203"/><tag k="addr:city" v="Portland"/><tag k="addr:street" v="North Strong Street"/></node>
<node id="-21" lat="45.574344282" lon="-122.730550267" visible="true"><tag k="addr:housenumber" v="5404"/><tag k="addr:postcode" v="97203"/><tag k="addr:city" v="Portland"/><tag k="addr:street" v="North Strong Street"/></node>
<node id="-22" lat="45.574352514" lon="-122.73055885" visible="true"><tag k="addr:housenumber" v="5406"/><tag k="addr:postcode" v="97203"/><tag k="addr:city" v="Portland"/><tag k="addr:street" v="North Strong Street"/></node>
<node id="-23" lat="45.574350805" lon="-122.730556505" visible="true"><tag k="addr:housenumber" v="5408"/><tag k="addr:postcode" v="97203"/><tag k="addr:city" v="Portland"/><tag k="addr:street" v="North Strong Street"/></node>
<node id="-24" lat="45.575491302" lon="-122.73030638" visible="true"><tag k="addr:housenumber" v="5415"/><tag k="addr:postcode" v="97203"/><tag k="addr:city" v="Portland"/><tag k="addr:street" v="North Strong Street"/></node>
<node id="-25" lat="45.57549021" lon="-122.73030748" visible="true"><tag k="addr:housenumber" v="5431"/><tag k="addr:postcode" v="97203"/><tag k="addr:city" v="Portland"/><tag k="addr:street" v="North Strong Street"/></node>
<node id="-26" lat="45.5751863" lon="-122.732169049" visible="true"><tag k="addr:housenumber" v="5518"/><tag k="addr:postcode" v="97203"/><tag k="addr:city" v="Portland"/><tag k="addr:street" v="North Strong Street"/></node>
<node id="-27" lat="45.575177392" lon="-122.732173835" visible="true"><tag k="addr:housenumber" v="5520"/><tag k="addr:postcode" v="97203"/><tag k="addr:city" v="Portland"/><tag k="addr:street" v="North Strong Street"/></node>
<node id="-28" lat="45.575484808" lon="-122.730313008" visible="true"><tag k="addr:housenumber" v="6544"/><tag k="addr:postcode" v="97203"/><tag k="addr:city" v="Portland"/><tag k="addr:street" v="North Van Houten Avenue"/></node>
<node id="-29" lat="45.576901009" lon="-122.730383709" visible="true"><tag k="addr:housenumber" v="6707"/><tag k="addr:postcode" v="97203"/><tag k="addr:city" v="Portland"/><tag k="addr:street" v="North Van Houten Avenue"/></node>
<node id="-30" lat="45.576752098" lon="-122.729995343" visible="true"><tag k="addr:housenumber" v="6720"/><tag k="addr:postcode" v="97203"/><tag k="addr:city" v="Portland"/><tag k="addr:street" v="North Van Houten Avenue"/></node>
<node id="-31" lat="45.575484484" lon="-122.730305643" visible="true"><tag k="addr:housenumber" v="5408"/><tag k="addr:postcode" v="97203"/><tag k="addr:city" v="Portland"/><tag k="addr:street" v="North Warren Street"/></node>
<node id="-32" lat="45.575491932" lon="-122.730311501" visible="true"><tag k="addr:housenumber" v="5424"/><tag k="addr:postcode" v="97203"/><tag k="addr:city" v="Portland"/><tag k="addr:street" v="North Warren Street"/></node>
<node id="-33" lat="45.574470899" lon="-122.723718864" visible="true"><tag k="addr:housenumber" v="4841"/><tag k="addr:postcode" v="97203"/><tag k="addr:city" v="Portland"/><tag k="addr:street" v="North Willamette Boulevard"/></node>
<node id="-34" lat="45.574471805" lon="-122.723716124" visible="true"><tag k="addr:housenumber" v="4843"/><tag k="addr:postcode" v="97203"/><tag k="addr:city" v="Portland"/><tag k="addr:street" v="North Willamette Boulevard"/></node>
<node id="-35" lat="45.575575126" lon="-122.726744597" visible="true"><tag k="addr:housenumber" v="5225"/><tag k="addr:postcode" v="97203"/><tag k="addr:city" v="Portland"/><tag k="addr:street" v="North Willamette Boulevard"/></node>
<node id="-36" lat="45.575577915" lon="-122.726749792" visible="true"><tag k="addr:housenumber" v="5227"/><tag k="addr:postcode" v="97203"/><tag k="addr:city" v="Portland"/><tag k="addr:street" v="North Willamette Boulevard"/></node>
<node id="-37" lat="45.575644389" lon="-122.727135756" visible="true"><tag k="addr:housenumber" v="5239"/><tag k="addr:postcode" v="97203"/><tag k="addr:city" v="Portland"/><tag k="addr:street" v="North Willamette Boulevard"/></node>
<node id="-38" lat="45.576692404" lon="-122.729824262" visible="true"><tag k="addr:housenumber" v="5423"/><tag k="addr:postcode" v="97203"/><tag k="addr:city" v="Portland"/><tag k="addr:street" v="North Willamette Boulevard"/></node>
<node id="-39" lat="45.576691388" lon="-122.729825715" visible="true"><tag k="addr:housenumber" v="5429"/><tag k="addr:postcode" v="97203"/><tag k="addr:city" v="Portland"/><tag k="addr:street" v="North Willamette Boulevard"/></node>
<node id="-40" lat="45.576756557" lon="-122.729998928" visible="true"><tag k="addr:housenumber" v="5433"/><tag k="addr:postcode" v="97203"/><tag k="addr:city" v="Portland"/><tag k="addr:street" v="North Willamette Boulevard"/></node>
<node id="-41" lat="45.576757845" lon="-122.730000095" visible="true"><tag k="addr:housenumber" v="5441"/><tag k="addr:postcode" v="97203"/><tag k="addr:city" v="Portland"/><tag k="addr:street" v="North Willamette Boulevard"/></node>
<node id="-42" lat="45.576900373" lon="-122.730385106" visible="true"><tag k="addr:housenumber" v="5505"/><tag k="addr:postcode" v="97203"/><tag k="addr:city" v="Portland"/><tag k="addr:street" v="North Willamette Boulevard"/></node>
<node id="-43" lat="45.576220218" lon="-122.72391637" visible="true"><tag k="addr:housenumber" v="5009"/><tag k="addr:postcode" v="97203"/><tag k="addr:city" v="Portland"/><tag k="addr:street" v="North Yale Street"/></node>
<node id="-44" lat="45.576363842" lon="-122.725507253" visible="true"><tag k="addr:housenumber" v="5202"/><tag k="addr:postcode" v="97203"/><tag k="addr:city" v="Portland"/><tag k="addr:street" v="North Yale Street"/></node>
</osm>