<?xml version="1.0"?>
<osm version="0.6" upload="false" generator="uvmogr2osm">
<node id="-1" lat="45.587165857" lon="-122.7400307" visible="true"><tag k="addr:housenumber" v="7474"/><tag k="addr:postcode" v="97203"/><tag k="addr:city" v="Portland"/><tag k="addr:street" v="North Alma Avenue"/></node>
<node id="-2" lat="45.589923755" lon="-122.742394557" visible="true"><tag k="addr:housenumber" v="8530"/><tag k="addr:postcode" v="97203"/><tag k="addr:city" v="Portland"/><tag k="addr:street" v="North Buchanan Avenue"/></node>
<node id="-3" lat="45.589925655" lon="-122.742398558" visible="true"><tag k="addr:housenumber" v="8534"/><tag k="addr:postcode" v="97203"/><tag k="addr:city" v="Portland"/><tag k="addr:street" v="North Buchanan Avenue"/></node>
<node id="-4" lat="45.587089737" lon="-122.735831014" visible="true"><tag k="addr:housenumber" v="7552"/><tag k="addr:postcode" v="97203"/><tag k="addr:city" v="Portland"/><tag k="addr:street" v="North Gilbert Avenue"/></node>
<node id="-5" lat="45.587094913" lon="-122.735837109" visible="true"><tag k="addr:housenumber" v="7554"/><tag k="addr:postcode" v="97203"/><tag k="addr:city" v="Portland"/><tag k="addr:street" v="North Gilbert Avenue"/></node>
<node id="-6" lat="45.587091112" lon="-122.735835308" visible="true"><tag k="addr:housenumber" v="7556"/><tag k="addr:postcode" v="97203"/><tag k="addr:city" v="Portland"/><tag k="addr:street" v="North Gilbert Avenue"/></node>
<node id="-7" lat="45.587513089" lon="-122.736163085" visible="true"><tag k="addr:housenumber" v="7571"/><tag k="addr:postcode" v="97203"/><tag k="addr:city" v="Portland"/><tag k="addr:street" v="North Gilbert Avenue"/></node>
<node id="-8" lat="45.587512547" lon="-122.736161406" visible="true"><tag k="addr:housenumber" v="7573"/><tag k="addr:postcode" v="97203"/><tag k="addr:city" v="Portland"/><tag k="addr:street" v="North Gilbert Avenue"/></node>
<node id="-9" lat="45.587616946" lon="-122.735290063" visible="true"><tag k="addr:housenumber" v="7602"/><tag k="addr:postcode" v="97203"/><tag k="addr:city" v="Portland"/><tag k="addr:street" v="North Gilbert Avenue"/></node>
<node id="-10" lat="45.587620694" lon="-122.735286597" visible="true"><tag k="addr:housenumber" v="7606"/><tag k="addr:postcode" v="97203"/><tag k="addr:city" v="Portland"/><tag k="addr:street" v="North Gilbert Avenue"/></node>
<node id="-11" lat="45.58747392" lon="-122.737512348" visible="true"><tag k="addr:housenumber" v="7537"/><tag k="addr:postcode" v="97203"/><tag k="addr:city" v="Portland"/><tag k="addr:street" v="North Heppner Avenue"/></node>
<node id="-12" lat="45.587470079" lon="-122.737513258" visible="true"><tag k="addr:housenumber" v="7539"/><tag k="addr:postcode" v="97203"/><tag k="addr:city" v="Portland"/><tag k="addr:street" v="North Heppner Avenue"/></node>
<node id="-13" lat="45.587476586" lon="-122.737504367" visible="true"><tag k="addr:housenumber" v="7541"/><tag k="addr:postcode" v="97203"/><tag k="addr:city" v="Portland"/><tag k="addr:street" v="North Heppner Avenue"/></node>
<node id="-14" lat="45.585658558" lon="-122.738270242" visible="true"><tag k="addr:housenumber" v="7220"/><tag k="addr:postcode" v="97203"/><tag k="addr:city" v="Portland"/><tag k="addr:street" v="North Ida Avenue"/></node>
<node id="-15" lat="45.586859333" lon="-122.738879453" visible="true"><tag k="addr:housenumber" v="7487"/><tag k="addr:postcode" v="97203"/><tag k="addr:city" v="Portland"/><tag k="addr:street" v="North Ida Avenue"/></node>
<node id="-16" lat="45.585660522" lon="-122.738267804" visible="true"><tag k="addr:housenumber" v="7494"/><tag k="addr:postcode" v="97203"/><tag k="addr:city" v="Portland"/><tag k="addr:street" v="North Ida Avenue"/></node>
<node id="-17" lat="45.588976088" lon="-122.737089983" visible="true"><tag k="addr:housenumber" v="8606"/><tag k="addr:postcode" v="97203"/><tag k="addr:city" v="Portland"/><tag k="addr:street" v="North Ida Avenue"/></node>
<node id="-18" lat="45.588978157" lon="-122.737088837" visible="true"><tag k="addr:housenumber" v="8608"/><tag k="addr:postcode" v="97203"/><tag k="addr:city" v="Portland"/><tag k="addr:street" v="North Ida Avenue"/></node>
<node id="-19" lat="45.585314335" lon="-122.740080507" visible="true"><tag k="addr:housenumber" v="6929"/><tag k="addr:postcode" v="97203"/><tag k="addr:city" v="Portland"/><tag k="addr:street" v="North Ivanhoe Street"/></node>
<node id="-20" lat="45.585319059" lon="-122.740080977" visible="true"><tag k="addr:housenumber" v="6931"/><tag k="addr:postcode" v="97203"/><tag k="addr:city" v="Portland"/><tag k="addr:street" v="North Ivanhoe Street"/></node>
<node id="-21" lat="45.586207548" lon="-122.739443687" visible="true"><tag k="addr:housenumber" v="6922"/><tag k="addr:postcode" v="97203"/><tag k="addr:city" v="Portland"/><tag k="addr:street" v="North Kellogg Street"/></node>
<node id="-22" lat="45.586210209" lon="-122.739442431" visible="true"><tag k="addr:housenumber" v="6924"/><tag k="addr:postcode" v="97203"/><tag k="addr:city" v="Portland"/><tag k="addr:street" v="North Kellogg Street"/></node>
<node id="-23" lat="45.586248401" lon="-122.739624654" visible="true"><tag k="addr:housenumber" v="6932"/><tag k="addr:postcode" v="97203"/><tag k="addr:city" v="Portland"/><tag k="addr:street" v="North Kellogg Street"/></node>
<node id="-24" lat="45.586252011" lon="-122.739627907" visible="true"><tag k="addr:housenumber" v="6934"/><tag k="addr:postcode" v="97203"/><tag k="addr:city" v="Portland"/><tag k="addr:street" v="North Kellogg Street"/></node>
<node id="-25" lat="45.585660717" lon="-122.738266017" visible="true"><tag k="addr:housenumber" v="6812"/><tag k="addr:postcode" v="97203"/><tag k="addr:city" v="Portland"/><tag k="addr:street" v="North Lombard Street"/></node>
<node id="-26" lat="45.586847896" lon="-122.736762" visible="true"><tag k="addr:housenumber" v="6815"/><tag k="addr:postcode" v="97203"/><tag k="addr:city" v="Portland"/><tag k="addr:street" v="North Lombard Street"/></node>
<node id="-27" lat="45.585657349" lon="-122.738268099" visible="true"><tag k="addr:housenumber" v="6828"/><tag k="addr:postcode" v="97203"/><tag k="addr:city" v="Portland"/><tag k="addr:street" v="North Lombard Street"/></node>
<node id="-28" lat="45.586849813" lon="-122.736766435" visible="true"><tag k="addr:housenumber" v="6835"/><tag k="addr:postcode" v="97203"/><tag k="addr:city" v="Portland"/><tag k="addr:street" v="North Lombard Street"/></node>
<node id="-29" lat="45.585659926" lon="-122.738271465" visible="true"><tag k="addr:housenumber" v="6840"/><tag k="addr:postcode" v="97203"/><tag k="addr:city" v="Portland"/><tag k="addr:street" v="North Lombard Street"/></node>
<node id="-30" lat="45.585658032" lon="-122.738274451" visible="true"><tag k="addr:housenumber" v="6844"/><tag k="addr:postcode" v="97203"/><tag k="addr:city" v="Portland"/><tag k="addr:street" v="North Lombard Street"/></node>
<node id="-31" lat="45.585658042" lon="-122.738274595" visible="true"><tag k="addr:housenumber" v="6850"/><tag k="addr:postcode" v="97203"/><tag k="addr:city" v="Portland"/><tag k="addr:street" v="North Lombard Street"/></node>
<node id="-32" lat="45.586863807" lon="-122.738881962" visible="true"><tag k="addr:housenumber" v="6920"/><tag k="addr:postcode" v="97203"/><tag k="addr:city" v="Portland"/><tag k="addr:street" v="North Lombard Street"/></node>
<node id="-33" lat="45.587163062" lon="-122.740033576" visible="true"><tag k="addr:housenumber" v="7040"/><tag k="addr:postcode" v="97203"/><tag k="addr:city" v="Portland"/><tag k="addr:street" v="North Lombard Street"/></node>
<node id="-34" lat="45.588147454" lon="-122.742502473" visible="true"><tag k="addr:housenumber" v="7333"/><tag k="addr:postcode" v="97203"/><tag k="addr:city" v="Portland"/><tag k="addr:street" v="North Lombard Street"/></node>
<node id="-35" lat="45.588141882" lon="-122.742499459" visible="true"><tag k="addr:housenumber" v="7337"/><tag k="addr:postcode" v="97203"/><tag k="addr:city" v="Portland"/><tag k="addr:street" v="North Lombard Street"/></node>
<node id="-36" lat="45.587882499" lon="-122.742887405" visible="true"><tag k="addr:housenumber" v="7342"/><tag k="addr:postcode" v="97203"/><tag k="addr:city" v="Portland"/><tag k="addr:street" v="North Lombard Street"/></node>
<node id="-37" lat="45.587892056" lon="-122.742884716" visible="true"><tag k="addr:housenumber" v="7400"/><tag k="addr:postcode" v="97203"/><tag k="addr:city" v="Portland"/><tag k="addr:street" v="North Lombard Street"/></node>
<node id="-38" lat="45.588339215" lon="-122.743331306" visible="true"><tag k="addr:housenumber" v="7433"/><tag k="addr:postcode" v="97203"/><tag k="addr:city" v="Portland"/><tag k="addr:street" v="North Lombard Street"/></node>
<node id="-39" lat="45.588027567" lon="-122.743571257" visible="true"><tag k="addr:housenumber" v="7438"/><tag k="addr:postcode" v="97203"/><tag k="addr:city" v="Portland"/><tag k="addr:street" v="North Lombard Street"/></node>
<node id="-40" lat="45.588023218" lon="-122.743570251" visible="true"><tag k="addr:housenumber" v="7440"/><tag k="addr:postcode" v="97203"/><tag k="addr:city" v="Portland"/><tag k="addr:street" v="North Lombard Street"/></node>
<node id="-41" lat="45.588340632" lon="-122.743329658" visible="true"><tag k="addr:housenumber" v="7441"/><tag k="addr:postcode" v="97203"/><tag k="addr:city" v="Portland"/><tag k="addr:street" v="North Lombard Street"/></node>
<node id="-42" lat="45.585158565" lon="-122.734411116" visible="true"><tag k="addr:housenumber" v="7442"/><tag k="addr:postcode" v="97203"/><tag k="addr:city" v="Portland"/><tag k="addr:street" v="North Macrum Avenue"/></node>
<node id="-43" lat="45.585157507" lon="-122.734402706" visible="true"><tag k="addr:housenumber" v="7444"/><tag k="addr:postcode" v="97203"/><tag k="addr:city" v="Portland"/><tag k="addr:street" v="North Macrum Avenue"/></node>
<node id="-44" lat="45.589566264" lon="-122.735376597" visible="true"><tag k="addr:housenumber" v="6824"/><tag k="addr:postcode" v="97203"/><tag k="addr:city" v="Portland"/><tag k="addr:street" v="North Rochester Street"/></node>
<node id="-45" lat="45.589562889" lon="-122.735376522" visible="true"><tag k="addr:housenumber" v="6826"/><tag k="addr:postcode" v="97203"/><tag k="addr:city" v="Portland"/><tag k="addr:street" v="North Rochester Street"/></node>
<node id="-46" lat="45.589955244" lon="-122.735310279" visible="true"><tag k="addr:housenumber" v="6827"/><tag k="addr:postcode" v="97203"/><tag k="addr:city" v="Portland"/><tag k="addr:street" v="North Rochester Street"/></node>
<node id="-47" lat="45.589947846" lon="-122.735304482" visible="true"><tag k="addr:housenumber" v="6833"/><tag k="addr:postcode" v="97203"/><tag k="addr:city" v="Portland"/><tag k="addr:street" v="North Rochester Street"/></node>
<node id="-48" lat="45.589611896" lon="-122.735580029" visible="true"><tag k="addr:housenumber" v="6834"/><tag k="addr:postcode" v="97203"/><tag k="addr:city" v="Portland"/><tag k="addr:street" v="North Rochester Street"/></node>
<node id="-49" lat="45.589954645" lon="-122.735309312" visible="true"><tag k="addr:housenumber" v="6835"/><tag k="addr:postcode" v="97203"/><tag k="addr:city" v="Portland"/><tag k="addr:street" v="North Rochester Street"/></node>
<node id="-50" lat="45.589614984" lon="-122.735580418" visible="true"><tag k="addr:housenumber" v="6836"/><tag k="addr:postcode" v="97203"/><tag k="addr:city" v="Portland"/><tag k="addr:street" v="North Rochester Street"/></node>
<node id="-51" lat="45.591039611" lon="-122.735171456" visible="true"><tag k="addr:housenumber" v="6870"/><tag k="addr:postcode" v="97203"/><tag k="addr:city" v="Portland"/><tag k="addr:street" v="North Sedro Street"/></node>
<node id="-52" lat="45.591036946" lon="-122.735170619" visible="true"><tag k="addr:housenumber" v="6872"/><tag k="addr:postcode" v="97203"/><tag k="addr:city" v="Portland"/><tag k="addr:street" v="North Sedro Street"/></node>
</osm>