<?xml version="1.0"?>
<osm version="0.6" upload="false" generator="uvmogr2osm">
<node id="-1" lat="45.57565458" lon="-122.691144778" visible="true"><tag k="addr:housenumber" v="7218"/><tag k="addr:postcode" v="97217"/><tag k="addr:city" v="Portland"/><tag k="addr:street" v="North Boston Avenue"/></node>
<node id="-2" lat="45.575652772" lon="-122.691145072" visible="true"><tag k="addr:housenumber" v="7224"/><tag k="addr:postcode" v="97217"/><tag k="addr:city" v="Portland"/><tag k="addr:street" v="North Boston Avenue"/></node>
<node id="-3" lat="45.575652172" lon="-122.691150588" visible="true"><tag k="addr:housenumber" v="7228"/><tag k="addr:postcode" v="97217"/><tag k="addr:city" v="Portland"/><tag k="addr:street" v="North Boston Avenue"/></node>
<node id="-4" lat="45.575651238" lon="-122.691153866" visible="true"><tag k="addr:housenumber" v="7232"/><tag k="addr:postcode" v="97217"/><tag k="addr:city" v="Portland"/><tag k="addr:street" v="North Boston Avenue"/></node>
<node id="-5" lat="45.57368178" lon="-122.690577221" visible="true"><tag k="addr:housenumber" v="2305"/><tag k="addr:postcode" v="97217"/><tag k="addr:city" v="Portland"/><tag k="addr:street" v="North Bryant Street"/></node>
<node id="-6" lat="45.575442995" lon="-122.688508606" visible="true"><tag k="addr:housenumber" v="2021"/><tag k="addr:postcode" v="97217"/><tag k="addr:city" v="Portland"/><tag k="addr:street" v="North Buffalo Street"/></node>
<node id="-7" lat="45.576891345" lon="-122.686038985" visible="true"><tag k="addr:housenumber" v="7424"/><tag k="addr:postcode" v="97217"/><tag k="addr:city" v="Portland"/><tag k="addr:street" v="North Campbell Avenue"/></node>
<node id="-8" lat="45.57688797" lon="-122.686030718" visible="true"><tag k="addr:housenumber" v="7428"/><tag k="addr:postcode" v="97217"/><tag k="addr:city" v="Portland"/><tag k="addr:street" v="North Campbell Avenue"/></node>
<node id="-9" lat="45.576694991" lon="-122.684531851" visible="true"><tag k="addr:housenumber" v="7417"/><tag k="addr:postcode" v="97217"/><tag k="addr:city" v="Portland"/><tag k="addr:street" v="North Concord Avenue"/></node>
<node id="-10" lat="45.576697545" lon="-122.684532475" visible="true"><tag k="addr:housenumber" v="7419"/><tag k="addr:postcode" v="97217"/><tag k="addr:city" v="Portland"/><tag k="addr:street" v="North Concord Avenue"/></node>
<node id="-11" lat="45.57142195" lon="-122.682638462" visible="true"><tag k="addr:housenumber" v="1516"/><tag k="addr:postcode" v="97217"/><tag k="addr:city" v="Portland"/><tag k="addr:street" v="North Dekum Street"/></node>
<node id="-12" lat="45.576279662" lon="-122.687602757" visible="true"><tag k="addr:housenumber" v="7323"/><tag k="addr:postcode" v="97217"/><tag k="addr:city" v="Portland"/><tag k="addr:street" v="North Denver Avenue"/></node>
<node id="-13" lat="45.576285254" lon="-122.687598031" visible="true"><tag k="addr:housenumber" v="7325"/><tag k="addr:postcode" v="97217"/><tag k="addr:city" v="Portland"/><tag k="addr:street" v="North Denver Avenue"/></node>
<node id="-14" lat="45.57683633" lon="-122.686555992" visible="true"><tag k="addr:housenumber" v="7440"/><tag k="addr:postcode" v="97217"/><tag k="addr:city" v="Portland"/><tag k="addr:street" v="North Denver Avenue"/></node>
<node id="-15" lat="45.572688372" lon="-122.682920099" visible="true"><tag k="addr:housenumber" v="6904"/><tag k="addr:postcode" v="97217"/><tag k="addr:city" v="Portland"/><tag k="addr:street" v="North Greenwich Avenue"/></node>
<node id="-16" lat="45.572822158" lon="-122.682911704" visible="true"><tag k="addr:housenumber" v="6906"/><tag k="addr:postcode" v="97217"/><tag k="addr:city" v="Portland"/><tag k="addr:street" v="North Greenwich Avenue"/></node>
<node id="-17" lat="45.572828369" lon="-122.682912148" visible="true"><tag k="addr:housenumber" v="6914"/><tag k="addr:postcode" v="97217"/><tag k="addr:city" v="Portland"/><tag k="addr:street" v="North Greenwich Avenue"/></node>
<node id="-18" lat="45.574452727" lon="-122.683512612" visible="true"><tag k="addr:housenumber" v="7103"/><tag k="addr:postcode" v="97217"/><tag k="addr:city" v="Portland"/><tag k="addr:street" v="North Greenwich Avenue"/></node>
<node id="-19" lat="45.574456333" lon="-122.683505776" visible="true"><tag k="addr:housenumber" v="7105"/><tag k="addr:postcode" v="97217"/><tag k="addr:city" v="Portland"/><tag k="addr:street" v="North Greenwich Avenue"/></node>
<node id="-20" lat="45.576558381" lon="-122.68289148" visible="true"><tag k="addr:housenumber" v="7400"/><tag k="addr:postcode" v="97217"/><tag k="addr:city" v="Portland"/><tag k="addr:street" v="North Greenwich Avenue"/></node>
<node id="-21" lat="45.576559318" lon="-122.682890778" visible="true"><tag k="addr:housenumber" v="7404"/><tag k="addr:postcode" v="97217"/><tag k="addr:city" v="Portland"/><tag k="addr:street" v="North Greenwich Avenue"/></node>
<node id="-22" lat="45.571417838" lon="-122.682641181" visible="true"><tag k="addr:housenumber" v="6509"/><tag k="addr:postcode" v="97217"/><tag k="addr:city" v="Portland"/><tag k="addr:street" v="North Interstate Avenue"/></node>
<node id="-23" lat="45.572498028" lon="-122.682514854" visible="true"><tag k="addr:housenumber" v="6841"/><tag k="addr:postcode" v="97217"/><tag k="addr:city" v="Portland"/><tag k="addr:street" v="North Interstate Avenue"/></node>
<node id="-24" lat="45.572493037" lon="-122.682520071" visible="true"><tag k="addr:housenumber" v="6847"/><tag k="addr:postcode" v="97217"/><tag k="addr:city" v="Portland"/><tag k="addr:street" v="North Interstate Avenue"/></node>
<node id="-25" lat="45.574597834" lon="-122.688027383" visible="true"><tag k="addr:housenumber" v="7114"/><tag k="addr:postcode" v="97217"/><tag k="addr:city" v="Portland"/><tag k="addr:street" v="North Lancaster Avenue"/></node>
<node id="-26" lat="45.574595075" lon="-122.688021878" visible="true"><tag k="addr:housenumber" v="7116"/><tag k="addr:postcode" v="97217"/><tag k="addr:city" v="Portland"/><tag k="addr:street" v="North Lancaster Avenue"/></node>
<node id="-27" lat="45.574667874" lon="-122.688021574" visible="true"><tag k="addr:housenumber" v="7118"/><tag k="addr:postcode" v="97217"/><tag k="addr:city" v="Portland"/><tag k="addr:street" v="North Lancaster Avenue"/></node>
<node id="-28" lat="45.575156964" lon="-122.688505134" visible="true"><tag k="addr:housenumber" v="7153"/><tag k="addr:postcode" v="97217"/><tag k="addr:city" v="Portland"/><tag k="addr:street" v="North Lancaster Avenue"/></node>
<node id="-29" lat="45.575157335" lon="-122.688508454" visible="true"><tag k="addr:housenumber" v="7157"/><tag k="addr:postcode" v="97217"/><tag k="addr:city" v="Portland"/><tag k="addr:street" v="North Lancaster Avenue"/></node>
<node id="-30" lat="45.575443586" lon="-122.688510025" visible="true"><tag k="addr:housenumber" v="7205"/><tag k="addr:postcode" v="97217"/><tag k="addr:city" v="Portland"/><tag k="addr:street" v="North Lancaster Avenue"/></node>
<node id="-31" lat="45.57595907" lon="-122.688612507" visible="true"><tag k="addr:housenumber" v="7245"/><tag k="addr:postcode" v="97217"/><tag k="addr:city" v="Portland"/><tag k="addr:street" v="North Lancaster Avenue"/></node>
<node id="-32" lat="45.575953021" lon="-122.688607053" visible="true"><tag k="addr:housenumber" v="7301"/><tag k="addr:postcode" v="97217"/><tag k="addr:city" v="Portland"/><tag k="addr:street" v="North Lancaster Avenue"/></node>
<node id="-33" lat="45.576042978" lon="-122.688604668" visible="true"><tag k="addr:housenumber" v="7307"/><tag k="addr:postcode" v="97217"/><tag k="addr:city" v="Portland"/><tag k="addr:street" v="North Lancaster Avenue"/></node>
<node id="-34" lat="45.576108523" lon="-122.688601589" visible="true"><tag k="addr:housenumber" v="7309"/><tag k="addr:postcode" v="97217"/><tag k="addr:city" v="Portland"/><tag k="addr:street" v="North Lancaster Avenue"/></node>
<node id="-35" lat="45.576109879" lon="-122.688600318" visible="true"><tag k="addr:housenumber" v="7311"/><tag k="addr:postcode" v="97217"/><tag k="addr:city" v="Portland"/><tag k="addr:street" v="North Lancaster Avenue"/></node>
<node id="-36" lat="45.576888506" lon="-122.684434391" visible="true"><tag k="addr:housenumber" v="1700"/><tag k="addr:postcode" v="97217"/><tag k="addr:city" v="Portland"/><tag k="addr:street" v="North Lombard Street"/></node>
<node id="-37" lat="45.576886836" lon="-122.684437352" visible="true"><tag k="addr:housenumber" v="1708"/><tag k="addr:postcode" v="97217"/><tag k="addr:city" v="Portland"/><tag k="addr:street" v="North Lombard Street"/></node>
<node id="-38" lat="45.576887777" lon="-122.686034965" visible="true"><tag k="addr:housenumber" v="1868"/><tag k="addr:postcode" v="97217"/><tag k="addr:city" v="Portland"/><tag k="addr:street" v="North Lombard Street"/></node>
<node id="-39" lat="45.576839499" lon="-122.686553243" visible="true"><tag k="addr:housenumber" v="1952"/><tag k="addr:postcode" v="97217"/><tag k="addr:city" v="Portland"/><tag k="addr:street" v="North Lombard Street"/></node>
<node id="-40" lat="45.576898193" lon="-122.689638607" visible="true"><tag k="addr:housenumber" v="2224"/><tag k="addr:postcode" v="97217"/><tag k="addr:city" v="Portland"/><tag k="addr:street" v="North Lombard Street"/></node>
<node id="-41" lat="45.576893926" lon="-122.689631281" visible="true"><tag k="addr:housenumber" v="2230"/><tag k="addr:postcode" v="97217"/><tag k="addr:city" v="Portland"/><tag k="addr:street" v="North Lombard Street"/></node>
<node id="-42" lat="45.573983605" lon="-122.68905921" visible="true"><tag k="addr:housenumber" v="7028"/><tag k="addr:postcode" v="97217"/><tag k="addr:city" v="Portland"/><tag k="addr:street" v="North Mobile Avenue"/></node>
<node id="-43" lat="45.573989684" lon="-122.689055041" visible="true"><tag k="addr:housenumber" v="7036"/><tag k="addr:postcode" v="97217"/><tag k="addr:city" v="Portland"/><tag k="addr:street" v="North Mobile Avenue"/></node>
<node id="-44" lat="45.570631904" lon="-122.690772827" visible="true"><tag k="addr:housenumber" v="6537"/><tag k="addr:postcode" v="97217"/><tag k="addr:city" v="Portland"/><tag k="addr:street" v="North Omaha Avenue"/></node>
<node id="-45" lat="45.570636456" lon="-122.690772031" visible="true"><tag k="addr:housenumber" v="6539"/><tag k="addr:postcode" v="97217"/><tag k="addr:city" v="Portland"/><tag k="addr:street" v="North Omaha Avenue"/></node>
<node id="-46" lat="45.573677386" lon="-122.690580704" visible="true"><tag k="addr:housenumber" v="7005"/><tag k="addr:postcode" v="97217"/><tag k="addr:city" v="Portland"/><tag k="addr:street" v="North Omaha Avenue"/></node>
<node id="-47" lat="45.574572825" lon="-122.690014572" visible="true"><tag k="addr:housenumber" v="7112"/><tag k="addr:postcode" v="97217"/><tag k="addr:city" v="Portland"/><tag k="addr:street" v="North Omaha Avenue"/></node>
<node id="-48" lat="45.574578831" lon="-122.690013312" visible="true"><tag k="addr:housenumber" v="7114"/><tag k="addr:postcode" v="97217"/><tag k="addr:city" v="Portland"/><tag k="addr:street" v="North Omaha Avenue"/></node>
<node id="-49" lat="45.574573558" lon="-122.690013569" visible="true"><tag k="addr:housenumber" v="7118"/><tag k="addr:postcode" v="97217"/><tag k="addr:city" v="Portland"/><tag k="addr:street" v="North Omaha Avenue"/></node>
<node id="-50" lat="45.576698301" lon="-122.690076007" visible="true"><tag k="addr:housenumber" v="7412"/><tag k="addr:postcode" v="97217"/><tag k="addr:city" v="Portland"/><tag k="addr:street" v="North Omaha Avenue"/></node>
<node id="-51" lat="45.576697195" lon="-122.690074834" visible="true"><tag k="addr:housenumber" v="7414"/><tag k="addr:postcode" v="97217"/><tag k="addr:city" v="Portland"/><tag k="addr:street" v="North Omaha Avenue"/></node>
<node id="-52" lat="45.576830025" lon="-122.690078285" visible="true"><tag k="addr:housenumber" v="7420"/><tag k="addr:postcode" v="97217"/><tag k="addr:city" v="Portland"/><tag k="addr:street" v="North Omaha Avenue"/></node>
<node id="-53" lat="45.576836704" lon="-122.690078357" visible="true"><tag k="addr:housenumber" v="7422"/><tag k="addr:postcode" v="97217"/><tag k="addr:city" v="Portland"/><tag k="addr:street" v="North Omaha Avenue"/></node>
<node id="-54" lat="45.576832847" lon="-122.690074767" visible="true"><tag k="addr:housenumber" v="7424"/><tag k="addr:postcode" v="97217"/><tag k="addr:city" v="Portland"/><tag k="addr:street" v="North Omaha Avenue"/></node>
<node id="-55" lat="45.574664785" lon="-122.688022062" visible="true"><tag k="addr:housenumber" v="7118"/><tag k="addr:postcode" v="97217"/><tag k="addr:city" v="Portland"/><tag k="addr:street" v="Northeast 8th Avenue"/></node>
<node id="-56" lat="45.576041874" lon="-122.688604674" visible="true"><tag k="addr:housenumber" v="7307"/><tag k="addr:postcode" v="97217"/><tag k="addr:city" v="Portland"/><tag k="addr:street" v="Northeast 8th Avenue"/></node>
</osm>