<?xml version="1.0"?>
<osm version="0.6" upload="false" generator="uvmogr2osm">
<node id="-1" lat="45.540407556" lon="-122.714508793" visible="true"><tag k="addr:housenumber" v="2345"/><tag k="addr:postcode" v="97210"/><tag k="addr:city" v="Portland"/><tag k="addr:street" v="Northwest 31st Avenue"/></node>
<node id="-2" lat="45.534213851" lon="-122.714945009" visible="true"><tag k="addr:housenumber" v="1627"/><tag k="addr:postcode" v="97210"/><tag k="addr:city" v="Portland"/><tag k="addr:street" v="Northwest 32nd Avenue"/></node>
<node id="-3" lat="45.538053223" lon="-122.714709399" visible="true"><tag k="addr:housenumber" v="2142"/><tag k="addr:postcode" v="97210"/><tag k="addr:city" v="Portland"/><tag k="addr:street" v="Northwest 32nd Avenue"/></node>
<node id="-4" lat="45.538048381" lon="-122.714708953" visible="true"><tag k="addr:housenumber" v="2144"/><tag k="addr:postcode" v="97210"/><tag k="addr:city" v="Portland"/><tag k="addr:street" v="Northwest 32nd Avenue"/></node>
<node id="-5" lat="45.534215027" lon="-122.714951022" visible="true"><tag k="addr:housenumber" v="1646"/><tag k="addr:postcode" v="97210"/><tag k="addr:city" v="Portland"/><tag k="addr:street" v="Northwest 33rd Avenue"/></node>
<node id="-6" lat="45.534172368" lon="-122.717981557" visible="true"><tag k="addr:housenumber" v="1632"/><tag k="addr:postcode" v="97210"/><tag k="addr:city" v="Portland"/><tag k="addr:street" v="Northwest Aspen Avenue"/></node>
<node id="-7" lat="45.537836972" lon="-122.71953407" visible="true"><tag k="addr:housenumber" v="2132"/><tag k="addr:postcode" v="97210"/><tag k="addr:city" v="Portland"/><tag k="addr:street" v="Northwest Aspen Avenue"/></node>
<node id="-8" lat="45.537839404" lon="-122.719527013" visible="true"><tag k="addr:housenumber" v="2134"/><tag k="addr:postcode" v="97210"/><tag k="addr:city" v="Portland"/><tag k="addr:street" v="Northwest Aspen Avenue"/></node>
<node id="-9" lat="45.520902446" lon="-122.721729817" visible="true"><tag k="addr:housenumber" v="4265"/><tag k="addr:postcode" v="97210"/><tag k="addr:city" v="Portland"/><tag k="addr:street" v="Northwest Barnes Road"/></node>
<node id="-10" lat="45.540411864" lon="-122.71451418" visible="true"><tag k="addr:housenumber" v="3100"/><tag k="addr:postcode" v="97210"/><tag k="addr:city" v="Portland"/><tag k="addr:street" v="Northwest Industrial Street"/></node>
<node id="-11" lat="45.540246371" lon="-122.715748913" visible="true"><tag k="addr:housenumber" v="3200"/><tag k="addr:postcode" v="97210"/><tag k="addr:city" v="Portland"/><tag k="addr:street" v="Northwest Industrial Street"/></node>
<node id="-12" lat="45.540253157" lon="-122.715753736" visible="true"><tag k="addr:housenumber" v="3232"/><tag k="addr:postcode" v="97210"/><tag k="addr:city" v="Portland"/><tag k="addr:street" v="Northwest Industrial Street"/></node>
<node id="-13" lat="45.520840538" lon="-122.72171281" visible="true"><tag k="addr:housenumber" v="104"/><tag k="addr:postcode" v="97210"/><tag k="addr:city" v="Portland"/><tag k="addr:street" v="Northwest Pittock Avenue"/></node>
<node id="-14" lat="45.534178669" lon="-122.717981551" visible="true"><tag k="addr:housenumber" v="3482"/><tag k="addr:postcode" v="97210"/><tag k="addr:city" v="Portland"/><tag k="addr:street" v="Northwest Savier Street"/></node>
<node id="-15" lat="45.536853379" lon="-122.715000963" visible="true"><tag k="addr:housenumber" v="3207"/><tag k="addr:postcode" v="97210"/><tag k="addr:city" v="Portland"/><tag k="addr:street" v="Northwest Vaughn Street"/></node>
<node id="-16" lat="45.536845028" lon="-122.714995483" visible="true"><tag k="addr:housenumber" v="3209"/><tag k="addr:postcode" v="97210"/><tag k="addr:city" v="Portland"/><tag k="addr:street" v="Northwest Vaughn Street"/></node>
<node id="-17" lat="45.522289406" lon="-122.714079172" visible="true"><tag k="addr:housenumber" v="3127"/><tag k="addr:postcode" v="97205"/><tag k="addr:city" v="Portland"/><tag k="addr:street" v="Southwest Champlain Drive"/></node>
<node id="-18" lat="45.522280397" lon="-122.714277829" visible="true"><tag k="addr:housenumber" v="3131"/><tag k="addr:postcode" v="97205"/><tag k="addr:city" v="Portland"/><tag k="addr:street" v="Southwest Champlain Drive"/></node>
<node id="-19" lat="45.522288285" lon="-122.714280616" visible="true"><tag k="addr:housenumber" v="3145"/><tag k="addr:postcode" v="97205"/><tag k="addr:city" v="Portland"/><tag k="addr:street" v="Southwest Champlain Drive"/></node>
<node id="-20" lat="45.52228736" lon="-122.714077879" visible="true"><tag k="addr:housenumber" v="3155"/><tag k="addr:postcode" v="97205"/><tag k="addr:city" v="Portland"/><tag k="addr:street" v="Southwest Champlain Drive"/></node>
</osm>