<?xml version="1.0"?>
<osm version="0.6" upload="false" generator="uvmogr2osm">
<node id="-1" lat="45.586902624" lon="-122.700158335" visible="true"><tag k="addr:housenumber" v="8842"/><tag k="addr:postcode" v="97217"/><tag k="addr:city" v="Portland"/><tag k="addr:street" v="North Bayard Avenue"/></node>
<node id="-2" lat="45.588769067" lon="-122.700109851" visible="true"><tag k="addr:housenumber" v="9106"/><tag k="addr:postcode" v="97217"/><tag k="addr:city" v="Portland"/><tag k="addr:street" v="North Bayard Avenue"/></node>
<node id="-3" lat="45.584934958" lon="-122.694598794" visible="true"><tag k="addr:housenumber" v="8618"/><tag k="addr:postcode" v="97217"/><tag k="addr:city" v="Portland"/><tag k="addr:street" v="North Burrage Avenue"/></node>
<node id="-4" lat="45.58583535" lon="-122.694842586" visible="true"><tag k="addr:housenumber" v="8748"/><tag k="addr:postcode" v="97217"/><tag k="addr:city" v="Portland"/><tag k="addr:street" v="North Burrage Avenue"/></node>
<node id="-5" lat="45.585837646" lon="-122.69484708" visible="true"><tag k="addr:housenumber" v="8758"/><tag k="addr:postcode" v="97217"/><tag k="addr:city" v="Portland"/><tag k="addr:street" v="North Burrage Avenue"/></node>
<node id="-6" lat="45.586341946" lon="-122.695471635" visible="true"><tag k="addr:housenumber" v="8807"/><tag k="addr:postcode" v="97217"/><tag k="addr:city" v="Portland"/><tag k="addr:street" v="North Burrage Avenue"/></node>
<node id="-7" lat="45.586337647" lon="-122.695474899" visible="true"><tag k="addr:housenumber" v="8819"/><tag k="addr:postcode" v="97217"/><tag k="addr:city" v="Portland"/><tag k="addr:street" v="North Burrage Avenue"/></node>
<node id="-8" lat="45.586350998" lon="-122.694658325" visible="true"><tag k="addr:housenumber" v="8830"/><tag k="addr:postcode" v="97217"/><tag k="addr:city" v="Portland"/><tag k="addr:street" v="North Burrage Avenue"/></node>
<node id="-9" lat="45.586343695" lon="-122.694661951" visible="true"><tag k="addr:housenumber" v="8834"/><tag k="addr:postcode" v="97217"/><tag k="addr:city" v="Portland"/><tag k="addr:street" v="North Burrage Avenue"/></node>
<node id="-10" lat="45.586954107" lon="-122.695467805" visible="true"><tag k="addr:housenumber" v="8855"/><tag k="addr:postcode" v="97217"/><tag k="addr:city" v="Portland"/><tag k="addr:street" v="North Burrage Avenue"/></node>
<node id="-11" lat="45.586953656" lon="-122.695472566" visible="true"><tag k="addr:housenumber" v="8863"/><tag k="addr:postcode" v="97217"/><tag k="addr:city" v="Portland"/><tag k="addr:street" v="North Burrage Avenue"/></node>
<node id="-12" lat="45.587788986" lon="-122.69753538" visible="true"><tag k="addr:housenumber" v="2550"/><tag k="addr:postcode" v="97217"/><tag k="addr:city" v="Portland"/><tag k="addr:street" v="North Columbia Boulevard"/></node>
<node id="-13" lat="45.585039779" lon="-122.698708127" visible="true"><tag k="addr:housenumber" v="8531"/><tag k="addr:postcode" v="97217"/><tag k="addr:city" v="Portland"/><tag k="addr:street" v="North Curtis Avenue"/></node>
<node id="-14" lat="45.585034536" lon="-122.698703568" visible="true"><tag k="addr:housenumber" v="8533"/><tag k="addr:postcode" v="97217"/><tag k="addr:city" v="Portland"/><tag k="addr:street" v="North Curtis Avenue"/></node>
<node id="-15" lat="45.586640626" lon="-122.699183944" visible="true"><tag k="addr:housenumber" v="8822"/><tag k="addr:postcode" v="97217"/><tag k="addr:city" v="Portland"/><tag k="addr:street" v="North Drummond Avenue"/></node>
<node id="-16" lat="45.586648171" lon="-122.699177433" visible="true"><tag k="addr:housenumber" v="8826"/><tag k="addr:postcode" v="97217"/><tag k="addr:city" v="Portland"/><tag k="addr:street" v="North Drummond Avenue"/></node>
<node id="-17" lat="45.584471965" lon="-122.701726367" visible="true"><tag k="addr:housenumber" v="8421"/><tag k="addr:postcode" v="97217"/><tag k="addr:city" v="Portland"/><tag k="addr:street" v="North Endicott Avenue"/></node>
<node id="-18" lat="45.584472093" lon="-122.701733555" visible="true"><tag k="addr:housenumber" v="8423"/><tag k="addr:postcode" v="97217"/><tag k="addr:city" v="Portland"/><tag k="addr:street" v="North Endicott Avenue"/></node>
<node id="-19" lat="45.585225255" lon="-122.701138615" visible="true"><tag k="addr:housenumber" v="8606"/><tag k="addr:postcode" v="97217"/><tag k="addr:city" v="Portland"/><tag k="addr:street" v="North Endicott Avenue"/></node>
<node id="-20" lat="45.585223822" lon="-122.701136808" visible="true"><tag k="addr:housenumber" v="8626"/><tag k="addr:postcode" v="97217"/><tag k="addr:city" v="Portland"/><tag k="addr:street" v="North Endicott Avenue"/></node>
<node id="-21" lat="45.586772066" lon="-122.701097591" visible="true"><tag k="addr:housenumber" v="8832"/><tag k="addr:postcode" v="97217"/><tag k="addr:city" v="Portland"/><tag k="addr:street" v="North Endicott Avenue"/></node>
<node id="-22" lat="45.585096093" lon="-122.702120703" visible="true"><tag k="addr:housenumber" v="8600"/><tag k="addr:postcode" v="97217"/><tag k="addr:city" v="Portland"/><tag k="addr:street" v="North Hamlin Avenue"/></node>
<node id="-23" lat="45.585095497" lon="-122.702112951" visible="true"><tag k="addr:housenumber" v="8604"/><tag k="addr:postcode" v="97217"/><tag k="addr:city" v="Portland"/><tag k="addr:street" v="North Hamlin Avenue"/></node>
<node id="-24" lat="45.58690426" lon="-122.700149384" visible="true"><tag k="addr:housenumber" v="3218"/><tag k="addr:postcode" v="97217"/><tag k="addr:city" v="Portland"/><tag k="addr:street" v="North Houghton Street"/></node>
<node id="-25" lat="45.586776825" lon="-122.701103539" visible="true"><tag k="addr:housenumber" v="3320"/><tag k="addr:postcode" v="97217"/><tag k="addr:city" v="Portland"/><tag k="addr:street" v="North Houghton Street"/></node>
<node id="-26" lat="45.587252489" lon="-122.701131779" visible="true"><tag k="addr:housenumber" v="3321"/><tag k="addr:postcode" v="97217"/><tag k="addr:city" v="Portland"/><tag k="addr:street" v="North Houghton Street"/></node>
<node id="-27" lat="45.587248114" lon="-122.701130281" visible="true"><tag k="addr:housenumber" v="3325"/><tag k="addr:postcode" v="97217"/><tag k="addr:city" v="Portland"/><tag k="addr:street" v="North Houghton Street"/></node>
<node id="-28" lat="45.58493262" lon="-122.694598295" visible="true"><tag k="addr:housenumber" v="2616"/><tag k="addr:postcode" v="97217"/><tag k="addr:city" v="Portland"/><tag k="addr:street" v="North Hunt Street"/></node>
<node id="-29" lat="45.587786993" lon="-122.697544541" visible="true"><tag k="addr:housenumber" v="8945"/><tag k="addr:postcode" v="97217"/><tag k="addr:city" v="Portland"/><tag k="addr:street" v="North Peninsular Avenue"/></node>
<node id="-30" lat="45.589325388" lon="-122.696867848" visible="true"><tag k="addr:housenumber" v="9208"/><tag k="addr:postcode" v="97217"/><tag k="addr:city" v="Portland"/><tag k="addr:street" v="North Peninsular Avenue"/></node>
<node id="-31" lat="45.589323069" lon="-122.69687202" visible="true"><tag k="addr:housenumber" v="9210"/><tag k="addr:postcode" v="97217"/><tag k="addr:city" v="Portland"/><tag k="addr:street" v="North Peninsular Avenue"/></node>
<node id="-32" lat="45.58876101" lon="-122.70011263" visible="true"><tag k="addr:housenumber" v="3225"/><tag k="addr:postcode" v="97217"/><tag k="addr:city" v="Portland"/><tag k="addr:street" v="North Trenton Street"/></node>
<node id="-33" lat="45.585751817" lon="-122.694460044" visible="true"><tag k="addr:housenumber" v="8737"/><tag k="addr:postcode" v="97217"/><tag k="addr:city" v="Portland"/><tag k="addr:street" v="North Wilbur Avenue"/></node>
<node id="-34" lat="45.585752157" lon="-122.694456149" visible="true"><tag k="addr:housenumber" v="8741"/><tag k="addr:postcode" v="97217"/><tag k="addr:city" v="Portland"/><tag k="addr:street" v="North Wilbur Avenue"/></node>
</osm>