<?xml version="1.0"?>
<osm version="0.6" upload="false" generator="uvmogr2osm">
<node id="-1" lat="45.530852466" lon="-122.702980359" visible="true"><tag k="addr:housenumber" v="1121"/><tag k="addr:postcode" v="97210"/><tag k="addr:city" v="Portland"/><tag k="addr:street" v="Northwest 25th Avenue"/></node>
<node id="-2" lat="45.53085436" lon="-122.702977872" visible="true"><tag k="addr:housenumber" v="1123"/><tag k="addr:postcode" v="97210"/><tag k="addr:city" v="Portland"/><tag k="addr:street" v="Northwest 25th Avenue"/></node>
<node id="-3" lat="45.530849899" lon="-122.70297429" visible="true"><tag k="addr:housenumber" v="1125"/><tag k="addr:postcode" v="97210"/><tag k="addr:city" v="Portland"/><tag k="addr:street" v="Northwest 25th Avenue"/></node>
<node id="-4" lat="45.530954033" lon="-122.704969796" visible="true"><tag k="addr:housenumber" v="1129"/><tag k="addr:postcode" v="97210"/><tag k="addr:city" v="Portland"/><tag k="addr:street" v="Northwest 26th Avenue"/></node>
<node id="-5" lat="45.530953295" lon="-122.70497046" visible="true"><tag k="addr:housenumber" v="1133"/><tag k="addr:postcode" v="97210"/><tag k="addr:city" v="Portland"/><tag k="addr:street" v="Northwest 26th Avenue"/></node>
<node id="-6" lat="45.532992204" lon="-122.706936578" visible="true"><tag k="addr:housenumber" v="1425"/><tag k="addr:postcode" v="97210"/><tag k="addr:city" v="Portland"/><tag k="addr:street" v="Northwest 27th Avenue"/></node>
<node id="-7" lat="45.53298643" lon="-122.706938219" visible="true"><tag k="addr:housenumber" v="1427"/><tag k="addr:postcode" v="97210"/><tag k="addr:city" v="Portland"/><tag k="addr:street" v="Northwest 27th Avenue"/></node>
<node id="-8" lat="45.532984639" lon="-122.706938453" visible="true"><tag k="addr:housenumber" v="1429"/><tag k="addr:postcode" v="97210"/><tag k="addr:city" v="Portland"/><tag k="addr:street" v="Northwest 27th Avenue"/></node>
<node id="-9" lat="45.533426842" lon="-122.706961842" visible="true"><tag k="addr:housenumber" v="1507"/><tag k="addr:postcode" v="97210"/><tag k="addr:city" v="Portland"/><tag k="addr:street" v="Northwest 27th Avenue"/></node>
<node id="-10" lat="45.53342441" lon="-122.706958735" visible="true"><tag k="addr:housenumber" v="1509"/><tag k="addr:postcode" v="97210"/><tag k="addr:city" v="Portland"/><tag k="addr:street" v="Northwest 27th Avenue"/></node>
<node id="-11" lat="45.533703389" lon="-122.706971812" visible="true"><tag k="addr:housenumber" v="1511"/><tag k="addr:postcode" v="97210"/><tag k="addr:city" v="Portland"/><tag k="addr:street" v="Northwest 27th Avenue"/></node>
<node id="-12" lat="45.533699117" lon="-122.706967784" visible="true"><tag k="addr:housenumber" v="1517"/><tag k="addr:postcode" v="97210"/><tag k="addr:city" v="Portland"/><tag k="addr:street" v="Northwest 27th Avenue"/></node>
<node id="-13" lat="45.533393616" lon="-122.708519135" visible="true"><tag k="addr:housenumber" v="1510"/><tag k="addr:postcode" v="97210"/><tag k="addr:city" v="Portland"/><tag k="addr:street" v="Northwest 28th Avenue"/></node>
<node id="-14" lat="45.533395236" lon="-122.708512588" visible="true"><tag k="addr:housenumber" v="1516"/><tag k="addr:postcode" v="97210"/><tag k="addr:city" v="Portland"/><tag k="addr:street" v="Northwest 28th Avenue"/></node>
<node id="-15" lat="45.533669531" lon="-122.708528934" visible="true"><tag k="addr:housenumber" v="1528"/><tag k="addr:postcode" v="97210"/><tag k="addr:city" v="Portland"/><tag k="addr:street" v="Northwest 28th Avenue"/></node>
<node id="-16" lat="45.53367091" lon="-122.708523326" visible="true"><tag k="addr:housenumber" v="1530"/><tag k="addr:postcode" v="97210"/><tag k="addr:city" v="Portland"/><tag k="addr:street" v="Northwest 28th Avenue"/></node>
<node id="-17" lat="45.530234334" lon="-122.7047998" visible="true"><tag k="addr:housenumber" v="2619"/><tag k="addr:postcode" v="97210"/><tag k="addr:city" v="Portland"/><tag k="addr:street" v="Northwest Cornell Road"/></node>
<node id="-18" lat="45.530242729" lon="-122.70479373" visible="true"><tag k="addr:housenumber" v="2621"/><tag k="addr:postcode" v="97210"/><tag k="addr:city" v="Portland"/><tag k="addr:street" v="Northwest Cornell Road"/></node>
<node id="-19" lat="45.531336036" lon="-122.704078894" visible="true"><tag k="addr:housenumber" v="2563"/><tag k="addr:postcode" v="97210"/><tag k="addr:city" v="Portland"/><tag k="addr:street" v="Northwest Northrup Street"/></node>
<node id="-20" lat="45.531338477" lon="-122.704083358" visible="true"><tag k="addr:housenumber" v="2567"/><tag k="addr:postcode" v="97210"/><tag k="addr:city" v="Portland"/><tag k="addr:street" v="Northwest Northrup Street"/></node>
<node id="-21" lat="45.531333587" lon="-122.70426975" visible="true"><tag k="addr:housenumber" v="2573"/><tag k="addr:postcode" v="97210"/><tag k="addr:city" v="Portland"/><tag k="addr:street" v="Northwest Northrup Street"/></node>
<node id="-22" lat="45.531334846" lon="-122.704266989" visible="true"><tag k="addr:housenumber" v="2575"/><tag k="addr:postcode" v="97210"/><tag k="addr:city" v="Portland"/><tag k="addr:street" v="Northwest Northrup Street"/></node>
<node id="-23" lat="45.532651805" lon="-122.707008697" visible="true"><tag k="addr:housenumber" v="2705"/><tag k="addr:postcode" v="97210"/><tag k="addr:city" v="Portland"/><tag k="addr:street" v="Northwest Pettygrove Street"/></node>
<node id="-24" lat="45.532654603" lon="-122.707005986" visible="true"><tag k="addr:housenumber" v="2715"/><tag k="addr:postcode" v="97210"/><tag k="addr:city" v="Portland"/><tag k="addr:street" v="Northwest Pettygrove Street"/></node>
<node id="-25" lat="45.532658963" lon="-122.707015054" visible="true"><tag k="addr:housenumber" v="2719"/><tag k="addr:postcode" v="97210"/><tag k="addr:city" v="Portland"/><tag k="addr:street" v="Northwest Pettygrove Street"/></node>
<node id="-26" lat="45.532982968" lon="-122.707131479" visible="true"><tag k="addr:housenumber" v="2716"/><tag k="addr:postcode" v="97210"/><tag k="addr:city" v="Portland"/><tag k="addr:street" v="Northwest Quimby Street"/></node>
<node id="-27" lat="45.532981826" lon="-122.707140277" visible="true"><tag k="addr:housenumber" v="2718"/><tag k="addr:postcode" v="97210"/><tag k="addr:city" v="Portland"/><tag k="addr:street" v="Northwest Quimby Street"/></node>
<node id="-28" lat="45.533415563" lon="-122.707351899" visible="true"><tag k="addr:housenumber" v="2721"/><tag k="addr:postcode" v="97210"/><tag k="addr:city" v="Portland"/><tag k="addr:street" v="Northwest Quimby Street"/></node>
<node id="-29" lat="45.532979579" lon="-122.707328141" visible="true"><tag k="addr:housenumber" v="2724"/><tag k="addr:postcode" v="97210"/><tag k="addr:city" v="Portland"/><tag k="addr:street" v="Northwest Quimby Street"/></node>
<node id="-30" lat="45.533419924" lon="-122.707350363" visible="true"><tag k="addr:housenumber" v="2727"/><tag k="addr:postcode" v="97210"/><tag k="addr:city" v="Portland"/><tag k="addr:street" v="Northwest Quimby Street"/></node>
<node id="-31" lat="45.5329805" lon="-122.707331592" visible="true"><tag k="addr:housenumber" v="2728"/><tag k="addr:postcode" v="97210"/><tag k="addr:city" v="Portland"/><tag k="addr:street" v="Northwest Quimby Street"/></node>
<node id="-32" lat="45.533418225" lon="-122.707539092" visible="true"><tag k="addr:housenumber" v="2733"/><tag k="addr:postcode" v="97210"/><tag k="addr:city" v="Portland"/><tag k="addr:street" v="Northwest Quimby Street"/></node>
<node id="-33" lat="45.532980228" lon="-122.707577222" visible="true"><tag k="addr:housenumber" v="2734"/><tag k="addr:postcode" v="97210"/><tag k="addr:city" v="Portland"/><tag k="addr:street" v="Northwest Quimby Street"/></node>
<node id="-34" lat="45.533418052" lon="-122.707546669" visible="true"><tag k="addr:housenumber" v="2735"/><tag k="addr:postcode" v="97210"/><tag k="addr:city" v="Portland"/><tag k="addr:street" v="Northwest Quimby Street"/></node>
<node id="-35" lat="45.532980457" lon="-122.707578626" visible="true"><tag k="addr:housenumber" v="2736"/><tag k="addr:postcode" v="97210"/><tag k="addr:city" v="Portland"/><tag k="addr:street" v="Northwest Quimby Street"/></node>
<node id="-36" lat="45.53341321" lon="-122.707736175" visible="true"><tag k="addr:housenumber" v="2741"/><tag k="addr:postcode" v="97210"/><tag k="addr:city" v="Portland"/><tag k="addr:street" v="Northwest Quimby Street"/></node>
<node id="-37" lat="45.533407598" lon="-122.707738083" visible="true"><tag k="addr:housenumber" v="2745"/><tag k="addr:postcode" v="97210"/><tag k="addr:city" v="Portland"/><tag k="addr:street" v="Northwest Quimby Street"/></node>
<node id="-38" lat="45.532971244" lon="-122.707863864" visible="true"><tag k="addr:housenumber" v="2746"/><tag k="addr:postcode" v="97210"/><tag k="addr:city" v="Portland"/><tag k="addr:street" v="Northwest Quimby Street"/></node>
<node id="-39" lat="45.532973777" lon="-122.707867851" visible="true"><tag k="addr:housenumber" v="2748"/><tag k="addr:postcode" v="97210"/><tag k="addr:city" v="Portland"/><tag k="addr:street" v="Northwest Quimby Street"/></node>
<node id="-40" lat="45.533407241" lon="-122.70793193" visible="true"><tag k="addr:housenumber" v="2755"/><tag k="addr:postcode" v="97210"/><tag k="addr:city" v="Portland"/><tag k="addr:street" v="Northwest Quimby Street"/></node>
<node id="-41" lat="45.533412427" lon="-122.70793491" visible="true"><tag k="addr:housenumber" v="2757"/><tag k="addr:postcode" v="97210"/><tag k="addr:city" v="Portland"/><tag k="addr:street" v="Northwest Quimby Street"/></node>
<node id="-42" lat="45.532965153" lon="-122.708114328" visible="true"><tag k="addr:housenumber" v="2760"/><tag k="addr:postcode" v="97210"/><tag k="addr:city" v="Portland"/><tag k="addr:street" v="Northwest Quimby Street"/></node>
<node id="-43" lat="45.533400006" lon="-122.708122487" visible="true"><tag k="addr:housenumber" v="2761"/><tag k="addr:postcode" v="97210"/><tag k="addr:city" v="Portland"/><tag k="addr:street" v="Northwest Quimby Street"/></node>
<node id="-44" lat="45.532964559" lon="-122.708111546" visible="true"><tag k="addr:housenumber" v="2762"/><tag k="addr:postcode" v="97210"/><tag k="addr:city" v="Portland"/><tag k="addr:street" v="Northwest Quimby Street"/></node>
<node id="-45" lat="45.533401929" lon="-122.70812738" visible="true"><tag k="addr:housenumber" v="2763"/><tag k="addr:postcode" v="97210"/><tag k="addr:city" v="Portland"/><tag k="addr:street" v="Northwest Quimby Street"/></node>
<node id="-46" lat="45.533406003" lon="-122.708128192" visible="true"><tag k="addr:housenumber" v="2765"/><tag k="addr:postcode" v="97210"/><tag k="addr:city" v="Portland"/><tag k="addr:street" v="Northwest Quimby Street"/></node>
<node id="-47" lat="45.533399192" lon="-122.708320185" visible="true"><tag k="addr:housenumber" v="2771"/><tag k="addr:postcode" v="97210"/><tag k="addr:city" v="Portland"/><tag k="addr:street" v="Northwest Quimby Street"/></node>
<node id="-48" lat="45.533399768" lon="-122.708321874" visible="true"><tag k="addr:housenumber" v="2773"/><tag k="addr:postcode" v="97210"/><tag k="addr:city" v="Portland"/><tag k="addr:street" v="Northwest Quimby Street"/></node>
<node id="-49" lat="45.533402545" lon="-122.708318857" visible="true"><tag k="addr:housenumber" v="2775"/><tag k="addr:postcode" v="97210"/><tag k="addr:city" v="Portland"/><tag k="addr:street" v="Northwest Quimby Street"/></node>
<node id="-50" lat="45.532990863" lon="-122.708403056" visible="true"><tag k="addr:housenumber" v="2782"/><tag k="addr:postcode" v="97210"/><tag k="addr:city" v="Portland"/><tag k="addr:street" v="Northwest Quimby Street"/></node>
<node id="-51" lat="45.532993389" lon="-122.70840385" visible="true"><tag k="addr:housenumber" v="2784"/><tag k="addr:postcode" v="97210"/><tag k="addr:city" v="Portland"/><tag k="addr:street" v="Northwest Quimby Street"/></node>
<node id="-52" lat="45.532994884" lon="-122.708402465" visible="true"><tag k="addr:housenumber" v="2786"/><tag k="addr:postcode" v="97210"/><tag k="addr:city" v="Portland"/><tag k="addr:street" v="Northwest Quimby Street"/></node>
<node id="-53" lat="45.532995293" lon="-122.708399608" visible="true"><tag k="addr:housenumber" v="2788"/><tag k="addr:postcode" v="97210"/><tag k="addr:city" v="Portland"/><tag k="addr:street" v="Northwest Quimby Street"/></node>
</osm>