<?xml version="1.0"?>
<osm version="0.6" upload="false" generator="uvmogr2osm">
<node id="-1" lat="45.578537715" lon="-122.688712754" visible="true"><tag k="addr:housenumber" v="7642"/><tag k="addr:postcode" v="97217"/><tag k="addr:city" v="Portland"/><tag k="addr:street" v="North Brandon Avenue"/></node>
<node id="-2" lat="45.578537184" lon="-122.688716742" visible="true"><tag k="addr:housenumber" v="7644"/><tag k="addr:postcode" v="97217"/><tag k="addr:city" v="Portland"/><tag k="addr:street" v="North Brandon Avenue"/></node>
<node id="-3" lat="45.581781786" lon="-122.689329096" visible="true"><tag k="addr:housenumber" v="8105"/><tag k="addr:postcode" v="97217"/><tag k="addr:city" v="Portland"/><tag k="addr:street" v="North Brandon Avenue"/></node>
<node id="-4" lat="45.582886812" lon="-122.688817788" visible="true"><tag k="addr:housenumber" v="8230"/><tag k="addr:postcode" v="97217"/><tag k="addr:city" v="Portland"/><tag k="addr:street" v="North Brandon Avenue"/></node>
<node id="-5" lat="45.582890018" lon="-122.688820566" visible="true"><tag k="addr:housenumber" v="8234"/><tag k="addr:postcode" v="97217"/><tag k="addr:city" v="Portland"/><tag k="addr:street" v="North Brandon Avenue"/></node>
<node id="-6" lat="45.577371949" lon="-122.692205725" visible="true"><tag k="addr:housenumber" v="7510"/><tag k="addr:postcode" v="97217"/><tag k="addr:city" v="Portland"/><tag k="addr:street" v="North Delaware Avenue"/></node>
<node id="-7" lat="45.579628968" lon="-122.692207615" visible="true"><tag k="addr:housenumber" v="7722"/><tag k="addr:postcode" v="97217"/><tag k="addr:city" v="Portland"/><tag k="addr:street" v="North Delaware Avenue"/></node>
<node id="-8" lat="45.577819526" lon="-122.687213997" visible="true"><tag k="addr:housenumber" v="7541"/><tag k="addr:postcode" v="97217"/><tag k="addr:city" v="Portland"/><tag k="addr:street" v="North Denver Avenue"/></node>
<node id="-9" lat="45.577821124" lon="-122.687211951" visible="true"><tag k="addr:housenumber" v="7543"/><tag k="addr:postcode" v="97217"/><tag k="addr:city" v="Portland"/><tag k="addr:street" v="North Denver Avenue"/></node>
<node id="-10" lat="45.577822639" lon="-122.687213383" visible="true"><tag k="addr:housenumber" v="7545"/><tag k="addr:postcode" v="97217"/><tag k="addr:city" v="Portland"/><tag k="addr:street" v="North Denver Avenue"/></node>
<node id="-11" lat="45.579831949" lon="-122.687239861" visible="true"><tag k="addr:housenumber" v="7815"/><tag k="addr:postcode" v="97217"/><tag k="addr:city" v="Portland"/><tag k="addr:street" v="North Denver Avenue"/></node>
<node id="-12" lat="45.579831133" lon="-122.687244274" visible="true"><tag k="addr:housenumber" v="7817"/><tag k="addr:postcode" v="97217"/><tag k="addr:city" v="Portland"/><tag k="addr:street" v="North Denver Avenue"/></node>
<node id="-13" lat="45.580043599" lon="-122.687141835" visible="true"><tag k="addr:housenumber" v="7829"/><tag k="addr:postcode" v="97217"/><tag k="addr:city" v="Portland"/><tag k="addr:street" v="North Denver Avenue"/></node>
<node id="-14" lat="45.580044849" lon="-122.687141391" visible="true"><tag k="addr:housenumber" v="7831"/><tag k="addr:postcode" v="97217"/><tag k="addr:city" v="Portland"/><tag k="addr:street" v="North Denver Avenue"/></node>
<node id="-15" lat="45.580676233" lon="-122.686596719" visible="true"><tag k="addr:housenumber" v="7928"/><tag k="addr:postcode" v="97217"/><tag k="addr:city" v="Portland"/><tag k="addr:street" v="North Denver Avenue"/></node>
<node id="-16" lat="45.580674797" lon="-122.686601695" visible="true"><tag k="addr:housenumber" v="7934"/><tag k="addr:postcode" v="97217"/><tag k="addr:city" v="Portland"/><tag k="addr:street" v="North Denver Avenue"/></node>
<node id="-17" lat="45.581195467" lon="-122.687235402" visible="true"><tag k="addr:housenumber" v="8007"/><tag k="addr:postcode" v="97217"/><tag k="addr:city" v="Portland"/><tag k="addr:street" v="North Denver Avenue"/></node>
<node id="-18" lat="45.581202116" lon="-122.687238557" visible="true"><tag k="addr:housenumber" v="8015"/><tag k="addr:postcode" v="97217"/><tag k="addr:city" v="Portland"/><tag k="addr:street" v="North Denver Avenue"/></node>
<node id="-19" lat="45.583334692" lon="-122.687339663" visible="true"><tag k="addr:housenumber" v="8303"/><tag k="addr:postcode" v="97217"/><tag k="addr:city" v="Portland"/><tag k="addr:street" v="North Denver Avenue"/></node>
<node id="-20" lat="45.583334538" lon="-122.687336891" visible="true"><tag k="addr:housenumber" v="8305"/><tag k="addr:postcode" v="97217"/><tag k="addr:city" v="Portland"/><tag k="addr:street" v="North Denver Avenue"/></node>
<node id="-21" lat="45.583335237" lon="-122.687341642" visible="true"><tag k="addr:housenumber" v="8307"/><tag k="addr:postcode" v="97217"/><tag k="addr:city" v="Portland"/><tag k="addr:street" v="North Denver Avenue"/></node>
<node id="-22" lat="45.583328913" lon="-122.687340259" visible="true"><tag k="addr:housenumber" v="8315"/><tag k="addr:postcode" v="97217"/><tag k="addr:city" v="Portland"/><tag k="addr:street" v="North Denver Avenue"/></node>
<node id="-23" lat="45.583327742" lon="-122.68733703" visible="true"><tag k="addr:housenumber" v="8319"/><tag k="addr:postcode" v="97217"/><tag k="addr:city" v="Portland"/><tag k="addr:street" v="North Denver Avenue"/></node>
<node id="-24" lat="45.583333455" lon="-122.687336807" visible="true"><tag k="addr:housenumber" v="8321"/><tag k="addr:postcode" v="97217"/><tag k="addr:city" v="Portland"/><tag k="addr:street" v="North Denver Avenue"/></node>
<node id="-25" lat="45.583597417" lon="-122.686509164" visible="true"><tag k="addr:housenumber" v="8324"/><tag k="addr:postcode" v="97217"/><tag k="addr:city" v="Portland"/><tag k="addr:street" v="North Denver Avenue"/></node>
<node id="-26" lat="45.583596205" lon="-122.686515338" visible="true"><tag k="addr:housenumber" v="8334"/><tag k="addr:postcode" v="97217"/><tag k="addr:city" v="Portland"/><tag k="addr:street" v="North Denver Avenue"/></node>
<node id="-27" lat="45.578948837" lon="-122.690510484" visible="true"><tag k="addr:housenumber" v="2312"/><tag k="addr:postcode" v="97217"/><tag k="addr:city" v="Portland"/><tag k="addr:street" v="North Farragut Street"/></node>
<node id="-28" lat="45.578948148" lon="-122.690511939" visible="true"><tag k="addr:housenumber" v="2316"/><tag k="addr:postcode" v="97217"/><tag k="addr:city" v="Portland"/><tag k="addr:street" v="North Farragut Street"/></node>
<node id="-29" lat="45.578949132" lon="-122.690709465" visible="true"><tag k="addr:housenumber" v="2326"/><tag k="addr:postcode" v="97217"/><tag k="addr:city" v="Portland"/><tag k="addr:street" v="North Farragut Street"/></node>
<node id="-30" lat="45.57894589" lon="-122.690705579" visible="true"><tag k="addr:housenumber" v="2328"/><tag k="addr:postcode" v="97217"/><tag k="addr:city" v="Portland"/><tag k="addr:street" v="North Farragut Street"/></node>
<node id="-31" lat="45.581902999" lon="-122.684522072" visible="true"><tag k="addr:housenumber" v="8106"/><tag k="addr:postcode" v="97217"/><tag k="addr:city" v="Portland"/><tag k="addr:street" v="North Fenwick Avenue"/></node>
<node id="-32" lat="45.581906644" lon="-122.684524258" visible="true"><tag k="addr:housenumber" v="8110"/><tag k="addr:postcode" v="97217"/><tag k="addr:city" v="Portland"/><tag k="addr:street" v="North Fenwick Avenue"/></node>
<node id="-33" lat="45.581906319" lon="-122.68451608" visible="true"><tag k="addr:housenumber" v="8112"/><tag k="addr:postcode" v="97217"/><tag k="addr:city" v="Portland"/><tag k="addr:street" v="North Fenwick Avenue"/></node>
<node id="-34" lat="45.581903148" lon="-122.684519551" visible="true"><tag k="addr:housenumber" v="8114"/><tag k="addr:postcode" v="97217"/><tag k="addr:city" v="Portland"/><tag k="addr:street" v="North Fenwick Avenue"/></node>
<node id="-35" lat="45.582684238" lon="-122.684996664" visible="true"><tag k="addr:housenumber" v="8209"/><tag k="addr:postcode" v="97217"/><tag k="addr:city" v="Portland"/><tag k="addr:street" v="North Fenwick Avenue"/></node>
<node id="-36" lat="45.582685248" lon="-122.684998369" visible="true"><tag k="addr:housenumber" v="8211"/><tag k="addr:postcode" v="97217"/><tag k="addr:city" v="Portland"/><tag k="addr:street" v="North Fenwick Avenue"/></node>
<node id="-37" lat="45.57919189" lon="-122.682457361" visible="true"><tag k="addr:housenumber" v="7715"/><tag k="addr:postcode" v="97217"/><tag k="addr:city" v="Portland"/><tag k="addr:street" v="North Interstate Avenue"/></node>
<node id="-38" lat="45.579184804" lon="-122.682464399" visible="true"><tag k="addr:housenumber" v="7717"/><tag k="addr:postcode" v="97217"/><tag k="addr:city" v="Portland"/><tag k="addr:street" v="North Interstate Avenue"/></node>
<node id="-39" lat="45.579189428" lon="-122.682465435" visible="true"><tag k="addr:housenumber" v="7719"/><tag k="addr:postcode" v="97217"/><tag k="addr:city" v="Portland"/><tag k="addr:street" v="North Interstate Avenue"/></node>
<node id="-40" lat="45.583375279" lon="-122.684006945" visible="true"><tag k="addr:housenumber" v="8300"/><tag k="addr:postcode" v="97217"/><tag k="addr:city" v="Portland"/><tag k="addr:street" v="North Interstate Avenue"/></node>
<node id="-41" lat="45.583374559" lon="-122.684011655" visible="true"><tag k="addr:housenumber" v="8308"/><tag k="addr:postcode" v="97217"/><tag k="addr:city" v="Portland"/><tag k="addr:street" v="North Interstate Avenue"/></node>
<node id="-42" lat="45.58350424" lon="-122.684251475" visible="true"><tag k="addr:housenumber" v="8310"/><tag k="addr:postcode" v="97217"/><tag k="addr:city" v="Portland"/><tag k="addr:street" v="North Interstate Avenue"/></node>
<node id="-43" lat="45.58217664" lon="-122.686027574" visible="true"><tag k="addr:housenumber" v="1902"/><tag k="addr:postcode" v="97217"/><tag k="addr:city" v="Portland"/><tag k="addr:street" v="North Kilpatrick Street"/></node>
<node id="-44" lat="45.58217746" lon="-122.686019616" visible="true"><tag k="addr:housenumber" v="1906"/><tag k="addr:postcode" v="97217"/><tag k="addr:city" v="Portland"/><tag k="addr:street" v="North Kilpatrick Street"/></node>
<node id="-45" lat="45.582175038" lon="-122.686024783" visible="true"><tag k="addr:housenumber" v="1907"/><tag k="addr:postcode" v="97217"/><tag k="addr:city" v="Portland"/><tag k="addr:street" v="North Kilpatrick Street"/></node>
<node id="-46" lat="45.582180441" lon="-122.686023879" visible="true"><tag k="addr:housenumber" v="1908"/><tag k="addr:postcode" v="97217"/><tag k="addr:city" v="Portland"/><tag k="addr:street" v="North Kilpatrick Street"/></node>
<node id="-47" lat="45.582181125" lon="-122.686020299" visible="true"><tag k="addr:housenumber" v="1910"/><tag k="addr:postcode" v="97217"/><tag k="addr:city" v="Portland"/><tag k="addr:street" v="North Kilpatrick Street"/></node>
<node id="-48" lat="45.582180781" lon="-122.68617242" visible="true"><tag k="addr:housenumber" v="1920"/><tag k="addr:postcode" v="97217"/><tag k="addr:city" v="Portland"/><tag k="addr:street" v="North Kilpatrick Street"/></node>
<node id="-49" lat="45.582182176" lon="-122.686173193" visible="true"><tag k="addr:housenumber" v="1924"/><tag k="addr:postcode" v="97217"/><tag k="addr:city" v="Portland"/><tag k="addr:street" v="North Kilpatrick Street"/></node>
<node id="-50" lat="45.582184682" lon="-122.686164969" visible="true"><tag k="addr:housenumber" v="1926"/><tag k="addr:postcode" v="97217"/><tag k="addr:city" v="Portland"/><tag k="addr:street" v="North Kilpatrick Street"/></node>
<node id="-51" lat="45.582180439" lon="-122.686170204" visible="true"><tag k="addr:housenumber" v="2017"/><tag k="addr:postcode" v="97217"/><tag k="addr:city" v="Portland"/><tag k="addr:street" v="North Kilpatrick Street"/></node>
<node id="-52" lat="45.582055495" lon="-122.687541241" visible="true"><tag k="addr:housenumber" v="2026"/><tag k="addr:postcode" v="97217"/><tag k="addr:city" v="Portland"/><tag k="addr:street" v="North Kilpatrick Street"/></node>
<node id="-53" lat="45.5820521" lon="-122.687549834" visible="true"><tag k="addr:housenumber" v="2028"/><tag k="addr:postcode" v="97217"/><tag k="addr:city" v="Portland"/><tag k="addr:street" v="North Kilpatrick Street"/></node>
<node id="-54" lat="45.582189824" lon="-122.689285546" visible="true"><tag k="addr:housenumber" v="2208"/><tag k="addr:postcode" v="97217"/><tag k="addr:city" v="Portland"/><tag k="addr:street" v="North Kilpatrick Street"/></node>
<node id="-55" lat="45.582183798" lon="-122.689282271" visible="true"><tag k="addr:housenumber" v="2212"/><tag k="addr:postcode" v="97217"/><tag k="addr:city" v="Portland"/><tag k="addr:street" v="North Kilpatrick Street"/></node>
<node id="-56" lat="45.582185234" lon="-122.689542976" visible="true"><tag k="addr:housenumber" v="2220"/><tag k="addr:postcode" v="97217"/><tag k="addr:city" v="Portland"/><tag k="addr:street" v="North Kilpatrick Street"/></node>
<node id="-57" lat="45.582190398" lon="-122.689546564" visible="true"><tag k="addr:housenumber" v="2222"/><tag k="addr:postcode" v="97217"/><tag k="addr:city" v="Portland"/><tag k="addr:street" v="North Kilpatrick Street"/></node>
<node id="-58" lat="45.57731046" lon="-122.689786203" visible="true"><tag k="addr:housenumber" v="2233"/><tag k="addr:postcode" v="97217"/><tag k="addr:city" v="Portland"/><tag k="addr:street" v="North Lombard Street"/></node>
<node id="-59" lat="45.57730859" lon="-122.689787863" visible="true"><tag k="addr:housenumber" v="2234"/><tag k="addr:postcode" v="97217"/><tag k="addr:city" v="Portland"/><tag k="addr:street" v="North Lombard Street"/></node>
<node id="-60" lat="45.577293845" lon="-122.69030506" visible="true"><tag k="addr:housenumber" v="2301"/><tag k="addr:postcode" v="97217"/><tag k="addr:city" v="Portland"/><tag k="addr:street" v="North Lombard Street"/></node>
<node id="-61" lat="45.577293452" lon="-122.690298568" visible="true"><tag k="addr:housenumber" v="2305"/><tag k="addr:postcode" v="97217"/><tag k="addr:city" v="Portland"/><tag k="addr:street" v="North Lombard Street"/></node>
<node id="-62" lat="45.57729094" lon="-122.69030366" visible="true"><tag k="addr:housenumber" v="2307"/><tag k="addr:postcode" v="97217"/><tag k="addr:city" v="Portland"/><tag k="addr:street" v="North Lombard Street"/></node>
<node id="-63" lat="45.577406021" lon="-122.691116814" visible="true"><tag k="addr:housenumber" v="2335"/><tag k="addr:postcode" v="97217"/><tag k="addr:city" v="Portland"/><tag k="addr:street" v="North Lombard Street"/></node>
<node id="-64" lat="45.577404241" lon="-122.691117164" visible="true"><tag k="addr:housenumber" v="2339"/><tag k="addr:postcode" v="97217"/><tag k="addr:city" v="Portland"/><tag k="addr:street" v="North Lombard Street"/></node>
<node id="-65" lat="45.577402289" lon="-122.691118412" visible="true"><tag k="addr:housenumber" v="2341"/><tag k="addr:postcode" v="97217"/><tag k="addr:city" v="Portland"/><tag k="addr:street" v="North Lombard Street"/></node>
<node id="-66" lat="45.577399799" lon="-122.691122639" visible="true"><tag k="addr:housenumber" v="2349"/><tag k="addr:postcode" v="97217"/><tag k="addr:city" v="Portland"/><tag k="addr:street" v="North Lombard Street"/></node>
<node id="-67" lat="45.577406714" lon="-122.69111649" visible="true"><tag k="addr:housenumber" v="2353"/><tag k="addr:postcode" v="97217"/><tag k="addr:city" v="Portland"/><tag k="addr:street" v="North Lombard Street"/></node>
<node id="-68" lat="45.577295947" lon="-122.690299658" visible="true"><tag k="addr:housenumber" v="2361"/><tag k="addr:postcode" v="97217"/><tag k="addr:city" v="Portland"/><tag k="addr:street" v="North Lombard Street"/></node>
<node id="-69" lat="45.577375024" lon="-122.692206632" visible="true"><tag k="addr:housenumber" v="2435"/><tag k="addr:postcode" v="97217"/><tag k="addr:city" v="Portland"/><tag k="addr:street" v="North Lombard Street"/></node>
<node id="-70" lat="45.582888647" lon="-122.685244049" visible="true"><tag k="addr:housenumber" v="1820"/><tag k="addr:postcode" v="97217"/><tag k="addr:city" v="Portland"/><tag k="addr:street" v="North Mcclellan Street"/></node>
<node id="-71" lat="45.582892101" lon="-122.685245714" visible="true"><tag k="addr:housenumber" v="1936"/><tag k="addr:postcode" v="97217"/><tag k="addr:city" v="Portland"/><tag k="addr:street" v="North Mcclellan Street"/></node>
<node id="-72" lat="45.58288826" lon="-122.688450696" visible="true"><tag k="addr:housenumber" v="2010"/><tag k="addr:postcode" v="97217"/><tag k="addr:city" v="Portland"/><tag k="addr:street" v="North Mcclellan Street"/></node>
<node id="-73" lat="45.583329498" lon="-122.687345529" visible="true"><tag k="addr:housenumber" v="2017"/><tag k="addr:postcode" v="97217"/><tag k="addr:city" v="Portland"/><tag k="addr:street" v="North Mcclellan Street"/></node>
<node id="-74" lat="45.583333042" lon="-122.687740277" visible="true"><tag k="addr:housenumber" v="2029"/><tag k="addr:postcode" v="97217"/><tag k="addr:city" v="Portland"/><tag k="addr:street" v="North Mcclellan Street"/></node>
<node id="-75" lat="45.583334871" lon="-122.68774403" visible="true"><tag k="addr:housenumber" v="2031"/><tag k="addr:postcode" v="97217"/><tag k="addr:city" v="Portland"/><tag k="addr:street" v="North Mcclellan Street"/></node>
<node id="-76" lat="45.583333372" lon="-122.687737278" visible="true"><tag k="addr:housenumber" v="2033"/><tag k="addr:postcode" v="97217"/><tag k="addr:city" v="Portland"/><tag k="addr:street" v="North Mcclellan Street"/></node>
<node id="-77" lat="45.583334358" lon="-122.687737767" visible="true"><tag k="addr:housenumber" v="2035"/><tag k="addr:postcode" v="97217"/><tag k="addr:city" v="Portland"/><tag k="addr:street" v="North Mcclellan Street"/></node>
<node id="-78" lat="45.58288695" lon="-122.687934029" visible="true"><tag k="addr:housenumber" v="2048"/><tag k="addr:postcode" v="97217"/><tag k="addr:city" v="Portland"/><tag k="addr:street" v="North Mcclellan Street"/></node>
<node id="-79" lat="45.582895397" lon="-122.687935816" visible="true"><tag k="addr:housenumber" v="2050"/><tag k="addr:postcode" v="97217"/><tag k="addr:city" v="Portland"/><tag k="addr:street" v="North Mcclellan Street"/></node>
<node id="-80" lat="45.58289151" lon="-122.688447656" visible="true"><tag k="addr:housenumber" v="2120"/><tag k="addr:postcode" v="97217"/><tag k="addr:city" v="Portland"/><tag k="addr:street" v="North Mcclellan Street"/></node>
<node id="-81" lat="45.578201784" lon="-122.689786376" visible="true"><tag k="addr:housenumber" v="7624"/><tag k="addr:postcode" v="97217"/><tag k="addr:city" v="Portland"/><tag k="addr:street" v="North Omaha Avenue"/></node>
<node id="-82" lat="45.578193399" lon="-122.689793319" visible="true"><tag k="addr:housenumber" v="7626"/><tag k="addr:postcode" v="97217"/><tag k="addr:city" v="Portland"/><tag k="addr:street" v="North Omaha Avenue"/></node>
<node id="-83" lat="45.581833137" lon="-122.687686257" visible="true"><tag k="addr:housenumber" v="2029"/><tag k="addr:postcode" v="97217"/><tag k="addr:city" v="Portland"/><tag k="addr:street" v="North Schofield Street"/></node>
<node id="-84" lat="45.581840491" lon="-122.687692156" visible="true"><tag k="addr:housenumber" v="2035"/><tag k="addr:postcode" v="97217"/><tag k="addr:city" v="Portland"/><tag k="addr:street" v="North Schofield Street"/></node>
<node id="-85" lat="45.581790382" lon="-122.689330942" visible="true"><tag k="addr:housenumber" v="2209"/><tag k="addr:postcode" v="97217"/><tag k="addr:city" v="Portland"/><tag k="addr:street" v="North Schofield Street"/></node>
<node id="-86" lat="45.579621999" lon="-122.692206702" visible="true"><tag k="addr:housenumber" v="2442"/><tag k="addr:postcode" v="97217"/><tag k="addr:city" v="Portland"/><tag k="addr:street" v="North Terry Street"/></node>
<node id="-87" lat="45.580750855" lon="-122.682354241" visible="true"><tag k="addr:housenumber" v="1504"/><tag k="addr:postcode" v="97217"/><tag k="addr:city" v="Portland"/><tag k="addr:street" v="North Watts Street"/></node>
<node id="-88" lat="45.580749058" lon="-122.682351335" visible="true"><tag k="addr:housenumber" v="1506"/><tag k="addr:postcode" v="97217"/><tag k="addr:city" v="Portland"/><tag k="addr:street" v="North Watts Street"/></node>
<node id="-89" lat="45.583604338" lon="-122.688226447" visible="true"><tag k="addr:housenumber" v="2103"/><tag k="addr:postcode" v="97217"/><tag k="addr:city" v="Portland"/><tag k="addr:street" v="North Willis Boulevard"/></node>
<node id="-90" lat="45.583604394" lon="-122.688228809" visible="true"><tag k="addr:housenumber" v="2107"/><tag k="addr:postcode" v="97217"/><tag k="addr:city" v="Portland"/><tag k="addr:street" v="North Willis Boulevard"/></node>
<node id="-91" lat="45.58041569" lon="-122.686520221" visible="true"><tag k="addr:housenumber" v="1935"/><tag k="addr:postcode" v="97217"/><tag k="addr:city" v="Portland"/><tag k="addr:street" v="North Winchell Street"/></node>
<node id="-92" lat="45.580412994" lon="-122.686515288" visible="true"><tag k="addr:housenumber" v="1943"/><tag k="addr:postcode" v="97217"/><tag k="addr:city" v="Portland"/><tag k="addr:street" v="North Winchell Street"/></node>
</osm>