<?xml version="1.0"?>
<osm version="0.6" upload="false" generator="uvmogr2osm">
<node id="-1" lat="45.520501292" lon="-122.817562975" visible="true"><tag k="addr:housenumber" v="102"/><tag k="addr:postcode" v="97229"/><tag k="addr:city" v="Portland"/><tag k="addr:street" v="Northwest 137th Avenue"/></node>
<node id="-2" lat="45.520498243" lon="-122.817561319" visible="true"><tag k="addr:housenumber" v="108"/><tag k="addr:postcode" v="97229"/><tag k="addr:city" v="Portland"/><tag k="addr:street" v="Northwest 137th Avenue"/></node>
<node id="-3" lat="45.524678339" lon="-122.80866362" visible="true"><tag k="addr:housenumber" v="12770"/><tag k="addr:postcode" v="97229"/><tag k="addr:city" v="Portland"/><tag k="addr:street" v="Northwest Barnes Road"/></node>
<node id="-4" lat="45.524672256" lon="-122.808668215" visible="true"><tag k="addr:housenumber" v="12790"/><tag k="addr:postcode" v="97229"/><tag k="addr:city" v="Portland"/><tag k="addr:street" v="Northwest Barnes Road"/></node>
<node id="-5" lat="45.524675912" lon="-122.8086671" visible="true"><tag k="addr:housenumber" v="12810"/><tag k="addr:postcode" v="97229"/><tag k="addr:city" v="Portland"/><tag k="addr:street" v="Northwest Cornell Road"/></node>
<node id="-6" lat="45.524675377" lon="-122.808663777" visible="true"><tag k="addr:housenumber" v="12820"/><tag k="addr:postcode" v="97229"/><tag k="addr:city" v="Portland"/><tag k="addr:street" v="Northwest Cornell Road"/></node>
<node id="-7" lat="45.526820602" lon="-122.814235238" visible="true"><tag k="addr:housenumber" v="13485"/><tag k="addr:postcode" v="97229"/><tag k="addr:city" v="Portland"/><tag k="addr:street" v="Northwest Cornell Road"/></node>
<node id="-8" lat="45.52682026" lon="-122.814233108" visible="true"><tag k="addr:housenumber" v="13505"/><tag k="addr:postcode" v="97229"/><tag k="addr:city" v="Portland"/><tag k="addr:street" v="Northwest Cornell Road"/></node>
<node id="-9" lat="45.525176241" lon="-122.812137736" visible="true"><tag k="addr:housenumber" v="760"/><tag k="addr:postcode" v="97229"/><tag k="addr:city" v="Portland"/><tag k="addr:street" v="Northwest Dale Avenue"/></node>
<node id="-10" lat="45.525176432" lon="-122.812134417" visible="true"><tag k="addr:housenumber" v="762"/><tag k="addr:postcode" v="97229"/><tag k="addr:city" v="Portland"/><tag k="addr:street" v="Northwest Dale Avenue"/></node>
<node id="-11" lat="45.526644973" lon="-122.809505362" visible="true"><tag k="addr:housenumber" v="12811"/><tag k="addr:postcode" v="97229"/><tag k="addr:city" v="Portland"/><tag k="addr:street" v="Northwest Dogwood Street"/></node>
<node id="-12" lat="45.526640755" lon="-122.80950432" visible="true"><tag k="addr:housenumber" v="12825"/><tag k="addr:postcode" v="97229"/><tag k="addr:city" v="Portland"/><tag k="addr:street" v="Northwest Dogwood Street"/></node>
<node id="-13" lat="45.526088858" lon="-122.810157252" visible="true"><tag k="addr:housenumber" v="12871"/><tag k="addr:postcode" v="97229"/><tag k="addr:city" v="Portland"/><tag k="addr:street" v="Northwest Dogwood Street"/></node>
<node id="-14" lat="45.526090638" lon="-122.810156306" visible="true"><tag k="addr:housenumber" v="12875"/><tag k="addr:postcode" v="97229"/><tag k="addr:city" v="Portland"/><tag k="addr:street" v="Northwest Dogwood Street"/></node>
<node id="-15" lat="45.526084766" lon="-122.810157227" visible="true"><tag k="addr:housenumber" v="12879"/><tag k="addr:postcode" v="97229"/><tag k="addr:city" v="Portland"/><tag k="addr:street" v="Northwest Dogwood Street"/></node>
<node id="-16" lat="45.525846235" lon="-122.809264438" visible="true"><tag k="addr:housenumber" v="12880"/><tag k="addr:postcode" v="97229"/><tag k="addr:city" v="Portland"/><tag k="addr:street" v="Northwest Dogwood Street"/></node>
<node id="-17" lat="45.525838465" lon="-122.809262212" visible="true"><tag k="addr:housenumber" v="12884"/><tag k="addr:postcode" v="97229"/><tag k="addr:city" v="Portland"/><tag k="addr:street" v="Northwest Dogwood Street"/></node>
<node id="-18" lat="45.525756411" lon="-122.810127244" visible="true"><tag k="addr:housenumber" v="12891"/><tag k="addr:postcode" v="97229"/><tag k="addr:city" v="Portland"/><tag k="addr:street" v="Northwest Dogwood Street"/></node>
<node id="-19" lat="45.525757148" lon="-122.810126698" visible="true"><tag k="addr:housenumber" v="12895"/><tag k="addr:postcode" v="97229"/><tag k="addr:city" v="Portland"/><tag k="addr:street" v="Northwest Dogwood Street"/></node>
<node id="-20" lat="45.525758264" lon="-122.810120124" visible="true"><tag k="addr:housenumber" v="12899"/><tag k="addr:postcode" v="97229"/><tag k="addr:city" v="Portland"/><tag k="addr:street" v="Northwest Dogwood Street"/></node>
<node id="-21" lat="45.525683188" lon="-122.809415887" visible="true"><tag k="addr:housenumber" v="12900"/><tag k="addr:postcode" v="97229"/><tag k="addr:city" v="Portland"/><tag k="addr:street" v="Northwest Dogwood Street"/></node>
<node id="-22" lat="45.525678932" lon="-122.809415857" visible="true"><tag k="addr:housenumber" v="12904"/><tag k="addr:postcode" v="97229"/><tag k="addr:city" v="Portland"/><tag k="addr:street" v="Northwest Dogwood Street"/></node>
<node id="-23" lat="45.525678205" lon="-122.809781911" visible="true"><tag k="addr:housenumber" v="12915"/><tag k="addr:postcode" v="97229"/><tag k="addr:city" v="Portland"/><tag k="addr:street" v="Northwest Dogwood Street"/></node>
<node id="-24" lat="45.525669953" lon="-122.809784834" visible="true"><tag k="addr:housenumber" v="12919"/><tag k="addr:postcode" v="97229"/><tag k="addr:city" v="Portland"/><tag k="addr:street" v="Northwest Dogwood Street"/></node>
<node id="-25" lat="45.522636798" lon="-122.811069479" visible="true"><tag k="addr:housenumber" v="13075"/><tag k="addr:postcode" v="97229"/><tag k="addr:city" v="Portland"/><tag k="addr:street" v="Northwest Glenridge Court"/></node>
<node id="-26" lat="45.522969326" lon="-122.811478418" visible="true"><tag k="addr:housenumber" v="13085"/><tag k="addr:postcode" v="97229"/><tag k="addr:city" v="Portland"/><tag k="addr:street" v="Northwest Glenridge Court"/></node>
<node id="-27" lat="45.522639427" lon="-122.811071695" visible="true"><tag k="addr:housenumber" v="13075"/><tag k="addr:postcode" v="97229"/><tag k="addr:city" v="Portland"/><tag k="addr:street" v="Northwest Glenridge Drive"/></node>
<node id="-28" lat="45.522970009" lon="-122.811478271" visible="true"><tag k="addr:housenumber" v="13085"/><tag k="addr:postcode" v="97229"/><tag k="addr:city" v="Portland"/><tag k="addr:street" v="Northwest Glenridge Drive"/></node>
<node id="-29" lat="45.524718745" lon="-122.813546061" visible="true"><tag k="addr:housenumber" v="690"/><tag k="addr:postcode" v="97229"/><tag k="addr:city" v="Portland"/><tag k="addr:street" v="Northwest Joy Avenue"/></node>
<node id="-30" lat="45.524726309" lon="-122.813541493" visible="true"><tag k="addr:housenumber" v="692"/><tag k="addr:postcode" v="97229"/><tag k="addr:city" v="Portland"/><tag k="addr:street" v="Northwest Joy Avenue"/></node>
<node id="-31" lat="45.524721112" lon="-122.813539132" visible="true"><tag k="addr:housenumber" v="694"/><tag k="addr:postcode" v="97229"/><tag k="addr:city" v="Portland"/><tag k="addr:street" v="Northwest Joy Avenue"/></node>
<node id="-32" lat="45.524856083" lon="-122.813543294" visible="true"><tag k="addr:housenumber" v="700"/><tag k="addr:postcode" v="97229"/><tag k="addr:city" v="Portland"/><tag k="addr:street" v="Northwest Joy Avenue"/></node>
<node id="-33" lat="45.524855753" lon="-122.813544668" visible="true"><tag k="addr:housenumber" v="702"/><tag k="addr:postcode" v="97229"/><tag k="addr:city" v="Portland"/><tag k="addr:street" v="Northwest Joy Avenue"/></node>
<node id="-34" lat="45.524855262" lon="-122.813538225" visible="true"><tag k="addr:housenumber" v="704"/><tag k="addr:postcode" v="97229"/><tag k="addr:city" v="Portland"/><tag k="addr:street" v="Northwest Joy Avenue"/></node>
<node id="-35" lat="45.524503609" lon="-122.814578096" visible="true"><tag k="addr:housenumber" v="660"/><tag k="addr:postcode" v="97229"/><tag k="addr:city" v="Portland"/><tag k="addr:street" v="Northwest Murray Boulevard"/></node>
<node id="-36" lat="45.524508755" lon="-122.814573005" visible="true"><tag k="addr:housenumber" v="662"/><tag k="addr:postcode" v="97229"/><tag k="addr:city" v="Portland"/><tag k="addr:street" v="Northwest Murray Boulevard"/></node>
<node id="-37" lat="45.524508653" lon="-122.814581047" visible="true"><tag k="addr:housenumber" v="680"/><tag k="addr:postcode" v="97229"/><tag k="addr:city" v="Portland"/><tag k="addr:street" v="Northwest Murray Boulevard"/></node>
<node id="-38" lat="45.524501889" lon="-122.814579692" visible="true"><tag k="addr:housenumber" v="682"/><tag k="addr:postcode" v="97229"/><tag k="addr:city" v="Portland"/><tag k="addr:street" v="Northwest Murray Boulevard"/></node>
<node id="-39" lat="45.524890384" lon="-122.814618926" visible="true"><tag k="addr:housenumber" v="740"/><tag k="addr:postcode" v="97229"/><tag k="addr:city" v="Portland"/><tag k="addr:street" v="Northwest Murray Boulevard"/></node>
<node id="-40" lat="45.524893151" lon="-122.814617856" visible="true"><tag k="addr:housenumber" v="742"/><tag k="addr:postcode" v="97229"/><tag k="addr:city" v="Portland"/><tag k="addr:street" v="Northwest Murray Boulevard"/></node>
<node id="-41" lat="45.525097363" lon="-122.81432897" visible="true"><tag k="addr:housenumber" v="800"/><tag k="addr:postcode" v="97229"/><tag k="addr:city" v="Portland"/><tag k="addr:street" v="Northwest Murray Boulevard"/></node>
<node id="-42" lat="45.525095069" lon="-122.814327323" visible="true"><tag k="addr:housenumber" v="806"/><tag k="addr:postcode" v="97229"/><tag k="addr:city" v="Portland"/><tag k="addr:street" v="Northwest Murray Boulevard"/></node>
<node id="-43" lat="45.526818899" lon="-122.814229618" visible="true"><tag k="addr:housenumber" v="1075"/><tag k="addr:postcode" v="97229"/><tag k="addr:city" v="Portland"/><tag k="addr:street" v="Northwest Murray Road"/></node>
<node id="-44" lat="45.52682183" lon="-122.814234677" visible="true"><tag k="addr:housenumber" v="1085"/><tag k="addr:postcode" v="97229"/><tag k="addr:city" v="Portland"/><tag k="addr:street" v="Northwest Murray Road"/></node>
<node id="-45" lat="45.526822366" lon="-122.814231236" visible="true"><tag k="addr:housenumber" v="1105"/><tag k="addr:postcode" v="97229"/><tag k="addr:city" v="Portland"/><tag k="addr:street" v="Northwest Murray Road"/></node>
<node id="-46" lat="45.525536639" lon="-122.815558354" visible="true"><tag k="addr:housenumber" v="13535"/><tag k="addr:postcode" v="97229"/><tag k="addr:city" v="Portland"/><tag k="addr:street" v="Northwest Science Park Drive"/></node>
<node id="-47" lat="45.525536371" lon="-122.815559241" visible="true"><tag k="addr:housenumber" v="13545"/><tag k="addr:postcode" v="97229"/><tag k="addr:city" v="Portland"/><tag k="addr:street" v="Northwest Science Park Drive"/></node>
</osm>