<?xml version="1.0"?>
<osm version="0.6" upload="false" generator="uvmogr2osm">
<node id="-1" lat="45.586299719" lon="-122.744794944" visible="true"><tag k="addr:housenumber" v="7307"/><tag k="addr:postcode" v="97203"/><tag k="addr:city" v="Portland"/><tag k="addr:street" v="North Buchanan Avenue"/></node>
<node id="-2" lat="45.591167268" lon="-122.749241119" visible="true"><tag k="addr:housenumber" v="8132"/><tag k="addr:postcode" v="97203"/><tag k="addr:city" v="Portland"/><tag k="addr:street" v="North Central Street"/></node>
<node id="-3" lat="45.584237974" lon="-122.752578567" visible="true"><tag k="addr:housenumber" v="8025"/><tag k="addr:postcode" v="97203"/><tag k="addr:city" v="Portland"/><tag k="addr:street" v="North Crawford Street"/></node>
<node id="-4" lat="45.584445694" lon="-122.75083237" visible="true"><tag k="addr:housenumber" v="7903 A"/><tag k="addr:postcode" v="97203"/><tag k="addr:city" v="Portland"/><tag k="addr:street" v="North Decatur Street"/></node>
<node id="-5" lat="45.584446495" lon="-122.750826692" visible="true"><tag k="addr:housenumber" v="7903 B"/><tag k="addr:postcode" v="97203"/><tag k="addr:city" v="Portland"/><tag k="addr:street" v="North Decatur Street"/></node>
<node id="-6" lat="45.584132766" lon="-122.74752452" visible="true"><tag k="addr:housenumber" v="7641"/><tag k="addr:postcode" v="97203"/><tag k="addr:city" v="Portland"/><tag k="addr:street" v="North Edison Street"/></node>
<node id="-7" lat="45.585119071" lon="-122.751921534" visible="true"><tag k="addr:housenumber" v="8024"/><tag k="addr:postcode" v="97203"/><tag k="addr:city" v="Portland"/><tag k="addr:street" v="North Edison Street"/></node>
<node id="-8" lat="45.585120058" lon="-122.751922917" visible="true"><tag k="addr:housenumber" v="8026"/><tag k="addr:postcode" v="97203"/><tag k="addr:city" v="Portland"/><tag k="addr:street" v="North Edison Street"/></node>
<node id="-9" lat="45.585893896" lon="-122.752361785" visible="true"><tag k="addr:housenumber" v="8117"/><tag k="addr:postcode" v="97203"/><tag k="addr:city" v="Portland"/><tag k="addr:street" v="North Edison Street"/></node>
<node id="-10" lat="45.586125691" lon="-122.743698878" visible="true"><tag k="addr:housenumber" v="7321"/><tag k="addr:postcode" v="97203"/><tag k="addr:city" v="Portland"/><tag k="addr:street" v="North Ivanhoe Street"/></node>
<node id="-11" lat="45.586126423" lon="-122.743694367" visible="true"><tag k="addr:housenumber" v="7335"/><tag k="addr:postcode" v="97203"/><tag k="addr:city" v="Portland"/><tag k="addr:street" v="North Ivanhoe Street"/></node>
<node id="-12" lat="45.586126331" lon="-122.743698525" visible="true"><tag k="addr:housenumber" v="7401"/><tag k="addr:postcode" v="97203"/><tag k="addr:city" v="Portland"/><tag k="addr:street" v="North Ivanhoe Street"/></node>
<node id="-13" lat="45.587611194" lon="-122.750006645" visible="true"><tag k="addr:housenumber" v="8024"/><tag k="addr:postcode" v="97203"/><tag k="addr:city" v="Portland"/><tag k="addr:street" v="North Ivanhoe Street"/></node>
<node id="-14" lat="45.587614192" lon="-122.750010066" visible="true"><tag k="addr:housenumber" v="8040"/><tag k="addr:postcode" v="97203"/><tag k="addr:city" v="Portland"/><tag k="addr:street" v="North Ivanhoe Street"/></node>
<node id="-15" lat="45.588121579" lon="-122.752088397" visible="true"><tag k="addr:housenumber" v="8220"/><tag k="addr:postcode" v="97203"/><tag k="addr:city" v="Portland"/><tag k="addr:street" v="North Ivanhoe Street"/></node>
<node id="-16" lat="45.588114511" lon="-122.752092912" visible="true"><tag k="addr:housenumber" v="8222"/><tag k="addr:postcode" v="97203"/><tag k="addr:city" v="Portland"/><tag k="addr:street" v="North Ivanhoe Street"/></node>
<node id="-17" lat="45.588119851" lon="-122.752089795" visible="true"><tag k="addr:housenumber" v="8320"/><tag k="addr:postcode" v="97203"/><tag k="addr:city" v="Portland"/><tag k="addr:street" v="North Ivanhoe Street"/></node>
<node id="-18" lat="45.58811517" lon="-122.752092717" visible="true"><tag k="addr:housenumber" v="8330"/><tag k="addr:postcode" v="97203"/><tag k="addr:city" v="Portland"/><tag k="addr:street" v="North Ivanhoe Street"/></node>
<node id="-19" lat="45.589213651" lon="-122.753396216" visible="true"><tag k="addr:housenumber" v="8401"/><tag k="addr:postcode" v="97203"/><tag k="addr:city" v="Portland"/><tag k="addr:street" v="North Ivanhoe Street"/></node>
<node id="-20" lat="45.588181672" lon="-122.749251679" visible="true"><tag k="addr:housenumber" v="8020"/><tag k="addr:postcode" v="97203"/><tag k="addr:city" v="Portland"/><tag k="addr:street" v="North Jersey Street"/></node>
<node id="-21" lat="45.588178655" lon="-122.74925067" visible="true"><tag k="addr:housenumber" v="8028"/><tag k="addr:postcode" v="97203"/><tag k="addr:city" v="Portland"/><tag k="addr:street" v="North Jersey Street"/></node>
<node id="-22" lat="45.588466055" lon="-122.750141796" visible="true"><tag k="addr:housenumber" v="8120"/><tag k="addr:postcode" v="97203"/><tag k="addr:city" v="Portland"/><tag k="addr:street" v="North Jersey Street"/></node>
<node id="-23" lat="45.588469086" lon="-122.750137957" visible="true"><tag k="addr:housenumber" v="8122"/><tag k="addr:postcode" v="97203"/><tag k="addr:city" v="Portland"/><tag k="addr:street" v="North Jersey Street"/></node>
<node id="-24" lat="45.588466776" lon="-122.750145251" visible="true"><tag k="addr:housenumber" v="8124"/><tag k="addr:postcode" v="97203"/><tag k="addr:city" v="Portland"/><tag k="addr:street" v="North Jersey Street"/></node>
<node id="-25" lat="45.589210346" lon="-122.753394342" visible="true"><tag k="addr:housenumber" v="7319"/><tag k="addr:postcode" v="97203"/><tag k="addr:city" v="Portland"/><tag k="addr:street" v="North John Avenue"/></node>
<node id="-26" lat="45.588280013" lon="-122.746051527" visible="true"><tag k="addr:housenumber" v="7719"/><tag k="addr:postcode" v="97203"/><tag k="addr:city" v="Portland"/><tag k="addr:street" v="North Kellogg Street"/></node>
<node id="-27" lat="45.588291133" lon="-122.746093376" visible="true"><tag k="addr:housenumber" v="7723"/><tag k="addr:postcode" v="97203"/><tag k="addr:city" v="Portland"/><tag k="addr:street" v="North Kellogg Street"/></node>
<node id="-28" lat="45.589004051" lon="-122.74478612" visible="true"><tag k="addr:housenumber" v="7624"/><tag k="addr:postcode" v="97203"/><tag k="addr:city" v="Portland"/><tag k="addr:street" v="North Leonard Street"/></node>
<node id="-29" lat="45.589001597" lon="-122.74479077" visible="true"><tag k="addr:housenumber" v="7626"/><tag k="addr:postcode" v="97203"/><tag k="addr:city" v="Portland"/><tag k="addr:street" v="North Leonard Street"/></node>
<node id="-30" lat="45.588999636" lon="-122.744791767" visible="true"><tag k="addr:housenumber" v="7628"/><tag k="addr:postcode" v="97203"/><tag k="addr:city" v="Portland"/><tag k="addr:street" v="North Leonard Street"/></node>
<node id="-31" lat="45.589109551" lon="-122.745741136" visible="true"><tag k="addr:housenumber" v="7720"/><tag k="addr:postcode" v="97203"/><tag k="addr:city" v="Portland"/><tag k="addr:street" v="North Leonard Street"/></node>
<node id="-32" lat="45.588604023" lon="-122.74462958" visible="true"><tag k="addr:housenumber" v="7611"/><tag k="addr:postcode" v="97203"/><tag k="addr:city" v="Portland"/><tag k="addr:street" v="North Lombard Street"/></node>
<node id="-33" lat="45.588607809" lon="-122.744627586" visible="true"><tag k="addr:housenumber" v="7615"/><tag k="addr:postcode" v="97203"/><tag k="addr:city" v="Portland"/><tag k="addr:street" v="North Lombard Street"/></node>
<node id="-34" lat="45.588801552" lon="-122.747114515" visible="true"><tag k="addr:housenumber" v="7810"/><tag k="addr:postcode" v="97203"/><tag k="addr:city" v="Portland"/><tag k="addr:street" v="North Lombard Street"/></node>
<node id="-35" lat="45.588804419" lon="-122.747117171" visible="true"><tag k="addr:housenumber" v="7816"/><tag k="addr:postcode" v="97203"/><tag k="addr:city" v="Portland"/><tag k="addr:street" v="North Lombard Street"/></node>
<node id="-36" lat="45.588798434" lon="-122.74711672" visible="true"><tag k="addr:housenumber" v="7820"/><tag k="addr:postcode" v="97203"/><tag k="addr:city" v="Portland"/><tag k="addr:street" v="North Lombard Street"/></node>
<node id="-37" lat="45.589483487" lon="-122.746855308" visible="true"><tag k="addr:housenumber" v="7825"/><tag k="addr:postcode" v="97203"/><tag k="addr:city" v="Portland"/><tag k="addr:street" v="North Lombard Street"/></node>
<node id="-38" lat="45.588800757" lon="-122.747122288" visible="true"><tag k="addr:housenumber" v="7830"/><tag k="addr:postcode" v="97203"/><tag k="addr:city" v="Portland"/><tag k="addr:street" v="North Lombard Street"/></node>
<node id="-39" lat="45.589486675" lon="-122.746853542" visible="true"><tag k="addr:housenumber" v="7835"/><tag k="addr:postcode" v="97203"/><tag k="addr:city" v="Portland"/><tag k="addr:street" v="North Lombard Street"/></node>
<node id="-40" lat="45.589486349" lon="-122.746861638" visible="true"><tag k="addr:housenumber" v="7839"/><tag k="addr:postcode" v="97203"/><tag k="addr:city" v="Portland"/><tag k="addr:street" v="North Lombard Street"/></node>
<node id="-41" lat="45.589185635" lon="-122.748424754" visible="true"><tag k="addr:housenumber" v="8014"/><tag k="addr:postcode" v="97203"/><tag k="addr:city" v="Portland"/><tag k="addr:street" v="North Lombard Street"/></node>
<node id="-42" lat="45.589187122" lon="-122.748427198" visible="true"><tag k="addr:housenumber" v="8016"/><tag k="addr:postcode" v="97203"/><tag k="addr:city" v="Portland"/><tag k="addr:street" v="North Lombard Street"/></node>
<node id="-43" lat="45.58968501" lon="-122.749918282" visible="true"><tag k="addr:housenumber" v="8117"/><tag k="addr:postcode" v="97203"/><tag k="addr:city" v="Portland"/><tag k="addr:street" v="North Lombard Street"/></node>
<node id="-44" lat="45.589689091" lon="-122.749914679" visible="true"><tag k="addr:housenumber" v="8169"/><tag k="addr:postcode" v="97203"/><tag k="addr:city" v="Portland"/><tag k="addr:street" v="North Lombard Street"/></node>
<node id="-45" lat="45.589681305" lon="-122.749918255" visible="true"><tag k="addr:housenumber" v="8173"/><tag k="addr:postcode" v="97203"/><tag k="addr:city" v="Portland"/><tag k="addr:street" v="North Lombard Street"/></node>
<node id="-46" lat="45.589685543" lon="-122.749913489" visible="true"><tag k="addr:housenumber" v="8179"/><tag k="addr:postcode" v="97203"/><tag k="addr:city" v="Portland"/><tag k="addr:street" v="North Lombard Street"/></node>
<node id="-47" lat="45.589361355" lon="-122.752714651" visible="true"><tag k="addr:housenumber" v="8332"/><tag k="addr:postcode" v="97203"/><tag k="addr:city" v="Portland"/><tag k="addr:street" v="North Lombard Street"/></node>
<node id="-48" lat="45.589362417" lon="-122.752715789" visible="true"><tag k="addr:housenumber" v="8336"/><tag k="addr:postcode" v="97203"/><tag k="addr:city" v="Portland"/><tag k="addr:street" v="North Lombard Street"/></node>
<node id="-49" lat="45.589362255" lon="-122.752715208" visible="true"><tag k="addr:housenumber" v="8338"/><tag k="addr:postcode" v="97203"/><tag k="addr:city" v="Portland"/><tag k="addr:street" v="North Lombard Street"/></node>
<node id="-50" lat="45.59004144" lon="-122.753152878" visible="true"><tag k="addr:housenumber" v="8407"/><tag k="addr:postcode" v="97203"/><tag k="addr:city" v="Portland"/><tag k="addr:street" v="North Lombard Street"/></node>
<node id="-51" lat="45.590045353" lon="-122.753157326" visible="true"><tag k="addr:housenumber" v="8409"/><tag k="addr:postcode" v="97203"/><tag k="addr:city" v="Portland"/><tag k="addr:street" v="North Lombard Street"/></node>
<node id="-52" lat="45.589526939" lon="-122.753611484" visible="true"><tag k="addr:housenumber" v="8422"/><tag k="addr:postcode" v="97203"/><tag k="addr:city" v="Portland"/><tag k="addr:street" v="North Lombard Street"/></node>
<node id="-53" lat="45.589523174" lon="-122.753605897" visible="true"><tag k="addr:housenumber" v="8430"/><tag k="addr:postcode" v="97203"/><tag k="addr:city" v="Portland"/><tag k="addr:street" v="North Lombard Street"/></node>
<node id="-54" lat="45.589772081" lon="-122.749046157" visible="true"><tag k="addr:housenumber" v="8011"/><tag k="addr:postcode" v="97203"/><tag k="addr:city" v="Portland"/><tag k="addr:street" v="North Lombard Way"/></node>
<node id="-55" lat="45.589776213" lon="-122.749040756" visible="true"><tag k="addr:housenumber" v="8071"/><tag k="addr:postcode" v="97203"/><tag k="addr:city" v="Portland"/><tag k="addr:street" v="North Lombard Way"/></node>
<node id="-56" lat="45.584148073" lon="-122.751600297" visible="true"><tag k="addr:housenumber" v="6726"/><tag k="addr:postcode" v="97203"/><tag k="addr:city" v="Portland"/><tag k="addr:street" v="North Mohawk Avenue"/></node>
<node id="-57" lat="45.58415118" lon="-122.751599718" visible="true"><tag k="addr:housenumber" v="6738"/><tag k="addr:postcode" v="97203"/><tag k="addr:city" v="Portland"/><tag k="addr:street" v="North Mohawk Avenue"/></node>
<node id="-58" lat="45.586477527" lon="-122.749997998" visible="true"><tag k="addr:housenumber" v="7102"/><tag k="addr:postcode" v="97203"/><tag k="addr:city" v="Portland"/><tag k="addr:street" v="North Mohawk Avenue"/></node>
<node id="-59" lat="45.5864793" lon="-122.749999229" visible="true"><tag k="addr:housenumber" v="7106"/><tag k="addr:postcode" v="97203"/><tag k="addr:city" v="Portland"/><tag k="addr:street" v="North Mohawk Avenue"/></node>
<node id="-60" lat="45.587329761" lon="-122.750110695" visible="true"><tag k="addr:housenumber" v="7207"/><tag k="addr:postcode" v="97203"/><tag k="addr:city" v="Portland"/><tag k="addr:street" v="North Mohawk Avenue"/></node>
<node id="-61" lat="45.586305089" lon="-122.744797966" visible="true"><tag k="addr:housenumber" v="7304"/><tag k="addr:postcode" v="97203"/><tag k="addr:city" v="Portland"/><tag k="addr:street" v="North Polk Avenue"/></node>
<node id="-62" lat="45.589106025" lon="-122.745739432" visible="true"><tag k="addr:housenumber" v="7531"/><tag k="addr:postcode" v="97203"/><tag k="addr:city" v="Portland"/><tag k="addr:street" v="North Polk Avenue"/></node>
<node id="-63" lat="45.590507274" lon="-122.744832353" visible="true"><tag k="addr:housenumber" v="8533"/><tag k="addr:postcode" v="97203"/><tag k="addr:city" v="Portland"/><tag k="addr:street" v="North Polk Avenue"/></node>
<node id="-64" lat="45.590514357" lon="-122.744828379" visible="true"><tag k="addr:housenumber" v="8539"/><tag k="addr:postcode" v="97203"/><tag k="addr:city" v="Portland"/><tag k="addr:street" v="North Polk Avenue"/></node>
<node id="-65" lat="45.586485777" lon="-122.750018465" visible="true"><tag k="addr:housenumber" v="7937"/><tag k="addr:postcode" v="97203"/><tag k="addr:city" v="Portland"/><tag k="addr:street" v="North Princeton Street"/></node>
<node id="-66" lat="45.584239243" lon="-122.752579386" visible="true"><tag k="addr:housenumber" v="6716"/><tag k="addr:postcode" v="97203"/><tag k="addr:city" v="Portland"/><tag k="addr:street" v="North Richmond Avenue"/></node>
<node id="-67" lat="45.585777888" lon="-122.75278316" visible="true"><tag k="addr:housenumber" v="6902"/><tag k="addr:postcode" v="97203"/><tag k="addr:city" v="Portland"/><tag k="addr:street" v="North Richmond Avenue"/></node>
<node id="-68" lat="45.585773137" lon="-122.752784127" visible="true"><tag k="addr:housenumber" v="6904"/><tag k="addr:postcode" v="97203"/><tag k="addr:city" v="Portland"/><tag k="addr:street" v="North Richmond Avenue"/></node>
<node id="-69" lat="45.585775411" lon="-122.752785846" visible="true"><tag k="addr:housenumber" v="6906"/><tag k="addr:postcode" v="97203"/><tag k="addr:city" v="Portland"/><tag k="addr:street" v="North Richmond Avenue"/></node>
<node id="-70" lat="45.585923966" lon="-122.752687744" visible="true"><tag k="addr:housenumber" v="6912"/><tag k="addr:postcode" v="97203"/><tag k="addr:city" v="Portland"/><tag k="addr:street" v="North Richmond Avenue"/></node>
<node id="-71" lat="45.585914548" lon="-122.75269235" visible="true"><tag k="addr:housenumber" v="6914"/><tag k="addr:postcode" v="97203"/><tag k="addr:city" v="Portland"/><tag k="addr:street" v="North Richmond Avenue"/></node>
<node id="-72" lat="45.585921751" lon="-122.752684685" visible="true"><tag k="addr:housenumber" v="6916"/><tag k="addr:postcode" v="97203"/><tag k="addr:city" v="Portland"/><tag k="addr:street" v="North Richmond Avenue"/></node>
<node id="-73" lat="45.585921118" lon="-122.752690444" visible="true"><tag k="addr:housenumber" v="6918"/><tag k="addr:postcode" v="97203"/><tag k="addr:city" v="Portland"/><tag k="addr:street" v="North Richmond Avenue"/></node>
<node id="-74" lat="45.587345736" lon="-122.751746364" visible="true"><tag k="addr:housenumber" v="7124"/><tag k="addr:postcode" v="97203"/><tag k="addr:city" v="Portland"/><tag k="addr:street" v="North Richmond Avenue"/></node>
<node id="-75" lat="45.587349837" lon="-122.751753165" visible="true"><tag k="addr:housenumber" v="7128"/><tag k="addr:postcode" v="97203"/><tag k="addr:city" v="Portland"/><tag k="addr:street" v="North Richmond Avenue"/></node>
<node id="-76" lat="45.591158134" lon="-122.749247327" visible="true"><tag k="addr:housenumber" v="8506"/><tag k="addr:postcode" v="97203"/><tag k="addr:city" v="Portland"/><tag k="addr:street" v="North Richmond Avenue"/></node>
<node id="-77" lat="45.591163833" lon="-122.749248556" visible="true"><tag k="addr:housenumber" v="8510"/><tag k="addr:postcode" v="97203"/><tag k="addr:city" v="Portland"/><tag k="addr:street" v="North Richmond Avenue"/></node>
<node id="-78" lat="45.587361925" lon="-122.750084962" visible="true"><tag k="addr:housenumber" v="8007"/><tag k="addr:postcode" v="97203"/><tag k="addr:city" v="Portland"/><tag k="addr:street" v="North Syracuse Street"/></node>
<node id="-79" lat="45.587202588" lon="-122.751075143" visible="true"><tag k="addr:housenumber" v="8046"/><tag k="addr:postcode" v="97203"/><tag k="addr:city" v="Portland"/><tag k="addr:street" v="North Syracuse Street"/></node>
<node id="-80" lat="45.587203993" lon="-122.751067644" visible="true"><tag k="addr:housenumber" v="8048"/><tag k="addr:postcode" v="97203"/><tag k="addr:city" v="Portland"/><tag k="addr:street" v="North Syracuse Street"/></node>
<node id="-81" lat="45.587201824" lon="-122.751067584" visible="true"><tag k="addr:housenumber" v="8050"/><tag k="addr:postcode" v="97203"/><tag k="addr:city" v="Portland"/><tag k="addr:street" v="North Syracuse Street"/></node>
<node id="-82" lat="45.587202107" lon="-122.751066447" visible="true"><tag k="addr:housenumber" v="8052"/><tag k="addr:postcode" v="97203"/><tag k="addr:city" v="Portland"/><tag k="addr:street" v="North Syracuse Street"/></node>
<node id="-83" lat="45.588114708" lon="-122.752091589" visible="true"><tag k="addr:housenumber" v="8322"/><tag k="addr:postcode" v="97203"/><tag k="addr:city" v="Portland"/><tag k="addr:street" v="North Syracuse Street"/></node>
<node id="-84" lat="45.585488688" lon="-122.749048127" visible="true"><tag k="addr:housenumber" v="7003"/><tag k="addr:postcode" v="97203"/><tag k="addr:city" v="Portland"/><tag k="addr:street" v="North Tyler Avenue"/></node>
<node id="-85" lat="45.585492537" lon="-122.749049549" visible="true"><tag k="addr:housenumber" v="7007"/><tag k="addr:postcode" v="97203"/><tag k="addr:city" v="Portland"/><tag k="addr:street" v="North Tyler Avenue"/></node>
<node id="-86" lat="45.585814304" lon="-122.74894543" visible="true"><tag k="addr:housenumber" v="7029"/><tag k="addr:postcode" v="97203"/><tag k="addr:city" v="Portland"/><tag k="addr:street" v="North Tyler Avenue"/></node>
<node id="-87" lat="45.585817522" lon="-122.748940613" visible="true"><tag k="addr:housenumber" v="7031"/><tag k="addr:postcode" v="97203"/><tag k="addr:city" v="Portland"/><tag k="addr:street" v="North Tyler Avenue"/></node>
<node id="-88" lat="45.587215827" lon="-122.748008587" visible="true"><tag k="addr:housenumber" v="7243"/><tag k="addr:postcode" v="97203"/><tag k="addr:city" v="Portland"/><tag k="addr:street" v="North Tyler Avenue"/></node>
<node id="-89" lat="45.587215081" lon="-122.748004888" visible="true"><tag k="addr:housenumber" v="7245"/><tag k="addr:postcode" v="97203"/><tag k="addr:city" v="Portland"/><tag k="addr:street" v="North Tyler Avenue"/></node>
<node id="-90" lat="45.588801626" lon="-122.747121329" visible="true"><tag k="addr:housenumber" v="7455"/><tag k="addr:postcode" v="97203"/><tag k="addr:city" v="Portland"/><tag k="addr:street" v="North Tyler Avenue"/></node>
<node id="-91" lat="45.588801367" lon="-122.747113887" visible="true"><tag k="addr:housenumber" v="7475"/><tag k="addr:postcode" v="97203"/><tag k="addr:city" v="Portland"/><tag k="addr:street" v="North Tyler Avenue"/></node>
<node id="-92" lat="45.584130736" lon="-122.747527563" visible="true"><tag k="addr:housenumber" v="7646"/><tag k="addr:postcode" v="97203"/><tag k="addr:city" v="Portland"/><tag k="addr:street" v="North Willamette Boulevard"/></node>
<node id="-93" lat="45.58445675" lon="-122.747441729" visible="true"><tag k="addr:housenumber" v="7648"/><tag k="addr:postcode" v="97203"/><tag k="addr:city" v="Portland"/><tag k="addr:street" v="North Willamette Boulevard"/></node>
<node id="-94" lat="45.584456594" lon="-122.747436102" visible="true"><tag k="addr:housenumber" v="7660"/><tag k="addr:postcode" v="97203"/><tag k="addr:city" v="Portland"/><tag k="addr:street" v="North Willamette Boulevard"/></node>
<node id="-95" lat="45.584907772" lon="-122.74885059" visible="true"><tag k="addr:housenumber" v="7744"/><tag k="addr:postcode" v="97203"/><tag k="addr:city" v="Portland"/><tag k="addr:street" v="North Willamette Boulevard"/></node>
<node id="-96" lat="45.5849098" lon="-122.748844649" visible="true"><tag k="addr:housenumber" v="7748"/><tag k="addr:postcode" v="97203"/><tag k="addr:city" v="Portland"/><tag k="addr:street" v="North Willamette Boulevard"/></node>
<node id="-97" lat="45.585747894" lon="-122.749850781" visible="true"><tag k="addr:housenumber" v="7903"/><tag k="addr:postcode" v="97203"/><tag k="addr:city" v="Portland"/><tag k="addr:street" v="North Willamette Boulevard"/></node>
<node id="-98" lat="45.585746435" lon="-122.749843046" visible="true"><tag k="addr:housenumber" v="7905"/><tag k="addr:postcode" v="97203"/><tag k="addr:city" v="Portland"/><tag k="addr:street" v="North Willamette Boulevard"/></node>
<node id="-99" lat="45.585884625" lon="-122.752360295" visible="true"><tag k="addr:housenumber" v="8114"/><tag k="addr:postcode" v="97203"/><tag k="addr:city" v="Portland"/><tag k="addr:street" v="North Willamette Boulevard"/></node>
<node id="-100" lat="45.5858937" lon="-122.752358664" visible="true"><tag k="addr:housenumber" v="8118"/><tag k="addr:postcode" v="97203"/><tag k="addr:city" v="Portland"/><tag k="addr:street" v="North Willamette Boulevard"/></node>
<node id="-101" lat="45.586540179" lon="-122.752279452" visible="true"><tag k="addr:housenumber" v="8121"/><tag k="addr:postcode" v="97203"/><tag k="addr:city" v="Portland"/><tag k="addr:street" v="North Willamette Boulevard"/></node>
<node id="-102" lat="45.586541833" lon="-122.752280012" visible="true"><tag k="addr:housenumber" v="8125"/><tag k="addr:postcode" v="97203"/><tag k="addr:city" v="Portland"/><tag k="addr:street" v="North Willamette Boulevard"/></node>
<node id="-103" lat="45.586541433" lon="-122.752281322" visible="true"><tag k="addr:housenumber" v="8133"/><tag k="addr:postcode" v="97203"/><tag k="addr:city" v="Portland"/><tag k="addr:street" v="North Willamette Boulevard"/></node>
<node id="-104" lat="45.586539833" lon="-122.752280317" visible="true"><tag k="addr:housenumber" v="8137"/><tag k="addr:postcode" v="97203"/><tag k="addr:city" v="Portland"/><tag k="addr:street" v="North Willamette Boulevard"/></node>
<node id="-105" lat="45.586387143" lon="-122.753423209" visible="true"><tag k="addr:housenumber" v="8224"/><tag k="addr:postcode" v="97203"/><tag k="addr:city" v="Portland"/><tag k="addr:street" v="North Willamette Boulevard"/></node>
<node id="-106" lat="45.586388806" lon="-122.753424068" visible="true"><tag k="addr:housenumber" v="8226"/><tag k="addr:postcode" v="97203"/><tag k="addr:city" v="Portland"/><tag k="addr:street" v="North Willamette Boulevard"/></node>
<node id="-107" lat="45.586386828" lon="-122.753421817" visible="true"><tag k="addr:housenumber" v="8228"/><tag k="addr:postcode" v="97203"/><tag k="addr:city" v="Portland"/><tag k="addr:street" v="North Willamette Boulevard"/></node>
<node id="-108" lat="45.586394945" lon="-122.753427362" visible="true"><tag k="addr:housenumber" v="8230"/><tag k="addr:postcode" v="97203"/><tag k="addr:city" v="Portland"/><tag k="addr:street" v="North Willamette Boulevard"/></node>
</osm>