<?xml version="1.0"?>
<osm version="0.6" upload="false" generator="uvmogr2osm">
<node id="-1" lat="45.548502761" lon="-122.586540732" visible="true"><tag k="addr:housenumber" v="3514"/><tag k="addr:postcode" v="97212"/><tag k="addr:city" v="Portland"/><tag k="addr:street" v="Northeast 14th Avenue"/></node>
<node id="-2" lat="45.548503297" lon="-122.586538948" visible="true"><tag k="addr:housenumber" v="3514"/><tag k="addr:postcode" v="97213"/><tag k="addr:city" v="Portland"/><tag k="addr:street" v="Northeast 74th Avenue"/></node>
<node id="-3" lat="45.548502301" lon="-122.586543102" visible="true"><tag k="addr:housenumber" v="3516"/><tag k="addr:postcode" v="97213"/><tag k="addr:city" v="Portland"/><tag k="addr:street" v="Northeast 74th Avenue"/></node>
<node id="-4" lat="45.551204109" lon="-122.586485077" visible="true"><tag k="addr:housenumber" v="3904"/><tag k="addr:postcode" v="97213"/><tag k="addr:city" v="Portland"/><tag k="addr:street" v="Northeast 74th Avenue"/></node>
<node id="-5" lat="45.551209457" lon="-122.586488739" visible="true"><tag k="addr:housenumber" v="3908"/><tag k="addr:postcode" v="97213"/><tag k="addr:city" v="Portland"/><tag k="addr:street" v="Northeast 74th Avenue"/></node>
<node id="-6" lat="45.554307526" lon="-122.584995574" visible="true"><tag k="addr:housenumber" v="4325"/><tag k="addr:postcode" v="97218"/><tag k="addr:city" v="Portland"/><tag k="addr:street" v="Northeast 76th Avenue"/></node>
<node id="-7" lat="45.554303295" lon="-122.584996321" visible="true"><tag k="addr:housenumber" v="4327"/><tag k="addr:postcode" v="97218"/><tag k="addr:city" v="Portland"/><tag k="addr:street" v="Northeast 76th Avenue"/></node>
<node id="-8" lat="45.554509175" lon="-122.584392706" visible="true"><tag k="addr:housenumber" v="4338"/><tag k="addr:postcode" v="97218"/><tag k="addr:city" v="Portland"/><tag k="addr:street" v="Northeast 76th Avenue"/></node>
<node id="-9" lat="45.554504486" lon="-122.584390542" visible="true"><tag k="addr:housenumber" v="4344"/><tag k="addr:postcode" v="97218"/><tag k="addr:city" v="Portland"/><tag k="addr:street" v="Northeast 76th Avenue"/></node>
<node id="-10" lat="45.550742097" lon="-122.584076439" visible="true"><tag k="addr:housenumber" v="3821"/><tag k="addr:postcode" v="97213"/><tag k="addr:city" v="Portland"/><tag k="addr:street" v="Northeast 77th Avenue"/></node>
<node id="-11" lat="45.550736145" lon="-122.584081208" visible="true"><tag k="addr:housenumber" v="3823"/><tag k="addr:postcode" v="97213"/><tag k="addr:city" v="Portland"/><tag k="addr:street" v="Northeast 77th Avenue"/></node>
<node id="-12" lat="45.550739884" lon="-122.584078872" visible="true"><tag k="addr:housenumber" v="3825"/><tag k="addr:postcode" v="97213"/><tag k="addr:city" v="Portland"/><tag k="addr:street" v="Northeast 77th Avenue"/></node>
<node id="-13" lat="45.554769319" lon="-122.582979889" visible="true"><tag k="addr:housenumber" v="4411"/><tag k="addr:postcode" v="97218"/><tag k="addr:city" v="Portland"/><tag k="addr:street" v="Northeast 78th Avenue"/></node>
<node id="-14" lat="45.554773917" lon="-122.582983239" visible="true"><tag k="addr:housenumber" v="4415"/><tag k="addr:postcode" v="97218"/><tag k="addr:city" v="Portland"/><tag k="addr:street" v="Northeast 78th Avenue"/></node>
<node id="-15" lat="45.548754854" lon="-122.582011664" visible="true"><tag k="addr:housenumber" v="3535"/><tag k="addr:postcode" v="97213"/><tag k="addr:city" v="Portland"/><tag k="addr:street" v="Northeast 79th Avenue"/></node>
<node id="-16" lat="45.548758285" lon="-122.582013501" visible="true"><tag k="addr:housenumber" v="3537"/><tag k="addr:postcode" v="97213"/><tag k="addr:city" v="Portland"/><tag k="addr:street" v="Northeast 79th Avenue"/></node>
<node id="-17" lat="45.548325762" lon="-122.581082299" visible="true"><tag k="addr:housenumber" v="3505"/><tag k="addr:postcode" v="97213"/><tag k="addr:city" v="Portland"/><tag k="addr:street" v="Northeast 80th Avenue"/></node>
<node id="-18" lat="45.55207074" lon="-122.581020643" visible="true"><tag k="addr:housenumber" v="4023"/><tag k="addr:postcode" v="97213"/><tag k="addr:city" v="Portland"/><tag k="addr:street" v="Northeast 80th Avenue"/></node>
<node id="-19" lat="45.552069686" lon="-122.581019379" visible="true"><tag k="addr:housenumber" v="4027"/><tag k="addr:postcode" v="97213"/><tag k="addr:city" v="Portland"/><tag k="addr:street" v="Northeast 80th Avenue"/></node>
<node id="-20" lat="45.552071468" lon="-122.581020951" visible="true"><tag k="addr:housenumber" v="4033"/><tag k="addr:postcode" v="97213"/><tag k="addr:city" v="Portland"/><tag k="addr:street" v="Northeast 80th Avenue"/></node>
<node id="-21" lat="45.551165648" lon="-122.57939029" visible="true"><tag k="addr:housenumber" v="3906"/><tag k="addr:postcode" v="97213"/><tag k="addr:city" v="Portland"/><tag k="addr:street" v="Northeast 81st Avenue"/></node>
<node id="-22" lat="45.551162083" lon="-122.579388211" visible="true"><tag k="addr:housenumber" v="3908"/><tag k="addr:postcode" v="97213"/><tag k="addr:city" v="Portland"/><tag k="addr:street" v="Northeast 81st Avenue"/></node>
<node id="-23" lat="45.553220234" lon="-122.579341469" visible="true"><tag k="addr:housenumber" v="4206"/><tag k="addr:postcode" v="97218"/><tag k="addr:city" v="Portland"/><tag k="addr:street" v="Northeast 81st Avenue"/></node>
<node id="-24" lat="45.55324079" lon="-122.579348032" visible="true"><tag k="addr:housenumber" v="4210"/><tag k="addr:postcode" v="97218"/><tag k="addr:city" v="Portland"/><tag k="addr:street" v="Northeast 81st Avenue"/></node>
<node id="-25" lat="45.553281802" lon="-122.579354019" visible="true"><tag k="addr:housenumber" v="4214"/><tag k="addr:postcode" v="97218"/><tag k="addr:city" v="Portland"/><tag k="addr:street" v="Northeast 81st Avenue"/></node>
<node id="-26" lat="45.549019748" lon="-122.579060503" visible="true"><tag k="addr:housenumber" v="3545"/><tag k="addr:postcode" v="97220"/><tag k="addr:city" v="Portland"/><tag k="addr:street" v="Northeast 82nd Avenue"/></node>
<node id="-27" lat="45.549020533" lon="-122.579053971" visible="true"><tag k="addr:housenumber" v="3607"/><tag k="addr:postcode" v="97220"/><tag k="addr:city" v="Portland"/><tag k="addr:street" v="Northeast 82nd Avenue"/></node>
<node id="-28" lat="45.549016717" lon="-122.579053239" visible="true"><tag k="addr:housenumber" v="3611"/><tag k="addr:postcode" v="97220"/><tag k="addr:city" v="Portland"/><tag k="addr:street" v="Northeast 82nd Avenue"/></node>
<node id="-29" lat="45.54902093" lon="-122.579057287" visible="true"><tag k="addr:housenumber" v="3615"/><tag k="addr:postcode" v="97220"/><tag k="addr:city" v="Portland"/><tag k="addr:street" v="Northeast 82nd Avenue"/></node>
<node id="-30" lat="45.549146328" lon="-122.579050831" visible="true"><tag k="addr:housenumber" v="3619"/><tag k="addr:postcode" v="97220"/><tag k="addr:city" v="Portland"/><tag k="addr:street" v="Northeast 82nd Avenue"/></node>
<node id="-31" lat="45.549146891" lon="-122.579049671" visible="true"><tag k="addr:housenumber" v="3621"/><tag k="addr:postcode" v="97220"/><tag k="addr:city" v="Portland"/><tag k="addr:street" v="Northeast 82nd Avenue"/></node>
<node id="-32" lat="45.550429555" lon="-122.579020549" visible="true"><tag k="addr:housenumber" v="3807"/><tag k="addr:postcode" v="97220"/><tag k="addr:city" v="Portland"/><tag k="addr:street" v="Northeast 82nd Avenue"/></node>
<node id="-33" lat="45.550428038" lon="-122.579025832" visible="true"><tag k="addr:housenumber" v="3809"/><tag k="addr:postcode" v="97220"/><tag k="addr:city" v="Portland"/><tag k="addr:street" v="Northeast 82nd Avenue"/></node>
<node id="-34" lat="45.551431264" lon="-122.579001925" visible="true"><tag k="addr:housenumber" v="3925"/><tag k="addr:postcode" v="97220"/><tag k="addr:city" v="Portland"/><tag k="addr:street" v="Northeast 82nd Avenue"/></node>
<node id="-35" lat="45.551432094" lon="-122.579011694" visible="true"><tag k="addr:housenumber" v="3927"/><tag k="addr:postcode" v="97220"/><tag k="addr:city" v="Portland"/><tag k="addr:street" v="Northeast 82nd Avenue"/></node>
<node id="-36" lat="45.551569411" lon="-122.579007745" visible="true"><tag k="addr:housenumber" v="3931"/><tag k="addr:postcode" v="97220"/><tag k="addr:city" v="Portland"/><tag k="addr:street" v="Northeast 82nd Avenue"/></node>
<node id="-37" lat="45.55156739" lon="-122.579008076" visible="true"><tag k="addr:housenumber" v="3933"/><tag k="addr:postcode" v="97220"/><tag k="addr:city" v="Portland"/><tag k="addr:street" v="Northeast 82nd Avenue"/></node>
<node id="-38" lat="45.55171272" lon="-122.579004229" visible="true"><tag k="addr:housenumber" v="4003"/><tag k="addr:postcode" v="97220"/><tag k="addr:city" v="Portland"/><tag k="addr:street" v="Northeast 82nd Avenue"/></node>
<node id="-39" lat="45.551704745" lon="-122.579004479" visible="true"><tag k="addr:housenumber" v="4005"/><tag k="addr:postcode" v="97220"/><tag k="addr:city" v="Portland"/><tag k="addr:street" v="Northeast 82nd Avenue"/></node>
<node id="-40" lat="45.551709397" lon="-122.579004902" visible="true"><tag k="addr:housenumber" v="4007"/><tag k="addr:postcode" v="97220"/><tag k="addr:city" v="Portland"/><tag k="addr:street" v="Northeast 82nd Avenue"/></node>
<node id="-41" lat="45.551846409" lon="-122.579001974" visible="true"><tag k="addr:housenumber" v="4009"/><tag k="addr:postcode" v="97220"/><tag k="addr:city" v="Portland"/><tag k="addr:street" v="Northeast 82nd Avenue"/></node>
<node id="-42" lat="45.551840867" lon="-122.579003106" visible="true"><tag k="addr:housenumber" v="4011"/><tag k="addr:postcode" v="97220"/><tag k="addr:city" v="Portland"/><tag k="addr:street" v="Northeast 82nd Avenue"/></node>
<node id="-43" lat="45.551843986" lon="-122.579004505" visible="true"><tag k="addr:housenumber" v="4013"/><tag k="addr:postcode" v="97220"/><tag k="addr:city" v="Portland"/><tag k="addr:street" v="Northeast 82nd Avenue"/></node>
<node id="-44" lat="45.552971998" lon="-122.578980544" visible="true"><tag k="addr:housenumber" v="4125"/><tag k="addr:postcode" v="97220"/><tag k="addr:city" v="Portland"/><tag k="addr:street" v="Northeast 82nd Avenue"/></node>
<node id="-45" lat="45.552969305" lon="-122.578976517" visible="true"><tag k="addr:housenumber" v="4127"/><tag k="addr:postcode" v="97220"/><tag k="addr:city" v="Portland"/><tag k="addr:street" v="Northeast 82nd Avenue"/></node>
<node id="-46" lat="45.552969489" lon="-122.578976144" visible="true"><tag k="addr:housenumber" v="4129"/><tag k="addr:postcode" v="97220"/><tag k="addr:city" v="Portland"/><tag k="addr:street" v="Northeast 82nd Avenue"/></node>
<node id="-47" lat="45.552966541" lon="-122.578981776" visible="true"><tag k="addr:housenumber" v="4131"/><tag k="addr:postcode" v="97220"/><tag k="addr:city" v="Portland"/><tag k="addr:street" v="Northeast 82nd Avenue"/></node>
<node id="-48" lat="45.552970651" lon="-122.578983217" visible="true"><tag k="addr:housenumber" v="4133"/><tag k="addr:postcode" v="97220"/><tag k="addr:city" v="Portland"/><tag k="addr:street" v="Northeast 82nd Avenue"/></node>
<node id="-49" lat="45.552972706" lon="-122.578983528" visible="true"><tag k="addr:housenumber" v="4135"/><tag k="addr:postcode" v="97220"/><tag k="addr:city" v="Portland"/><tag k="addr:street" v="Northeast 82nd Avenue"/></node>
<node id="-50" lat="45.552971118" lon="-122.578982101" visible="true"><tag k="addr:housenumber" v="4137"/><tag k="addr:postcode" v="97220"/><tag k="addr:city" v="Portland"/><tag k="addr:street" v="Northeast 82nd Avenue"/></node>
<node id="-51" lat="45.552967912" lon="-122.578983441" visible="true"><tag k="addr:housenumber" v="4139"/><tag k="addr:postcode" v="97220"/><tag k="addr:city" v="Portland"/><tag k="addr:street" v="Northeast 82nd Avenue"/></node>
<node id="-52" lat="45.552970362" lon="-122.578982094" visible="true"><tag k="addr:housenumber" v="4141"/><tag k="addr:postcode" v="97220"/><tag k="addr:city" v="Portland"/><tag k="addr:street" v="Northeast 82nd Avenue"/></node>
<node id="-53" lat="45.552965429" lon="-122.578980211" visible="true"><tag k="addr:housenumber" v="4143"/><tag k="addr:postcode" v="97220"/><tag k="addr:city" v="Portland"/><tag k="addr:street" v="Northeast 82nd Avenue"/></node>
<node id="-54" lat="45.55296792" lon="-122.578976849" visible="true"><tag k="addr:housenumber" v="4145"/><tag k="addr:postcode" v="97220"/><tag k="addr:city" v="Portland"/><tag k="addr:street" v="Northeast 82nd Avenue"/></node>
<node id="-55" lat="45.552966209" lon="-122.578981861" visible="true"><tag k="addr:housenumber" v="4147"/><tag k="addr:postcode" v="97220"/><tag k="addr:city" v="Portland"/><tag k="addr:street" v="Northeast 82nd Avenue"/></node>
<node id="-56" lat="45.552964306" lon="-122.578983917" visible="true"><tag k="addr:housenumber" v="4149"/><tag k="addr:postcode" v="97220"/><tag k="addr:city" v="Portland"/><tag k="addr:street" v="Northeast 82nd Avenue"/></node>
<node id="-57" lat="45.554400907" lon="-122.578958565" visible="true"><tag k="addr:housenumber" v="4349"/><tag k="addr:postcode" v="97220"/><tag k="addr:city" v="Portland"/><tag k="addr:street" v="Northeast 82nd Avenue"/></node>
<node id="-58" lat="45.554403534" lon="-122.578956701" visible="true"><tag k="addr:housenumber" v="4351"/><tag k="addr:postcode" v="97220"/><tag k="addr:city" v="Portland"/><tag k="addr:street" v="Northeast 82nd Avenue"/></node>
<node id="-59" lat="45.549460774" lon="-122.58410711" visible="true"><tag k="addr:housenumber" v="7626"/><tag k="addr:postcode" v="97213"/><tag k="addr:city" v="Portland"/><tag k="addr:street" v="Northeast Beech Street"/></node>
<node id="-60" lat="45.549462573" lon="-122.584106499" visible="true"><tag k="addr:housenumber" v="7634"/><tag k="addr:postcode" v="97213"/><tag k="addr:city" v="Portland"/><tag k="addr:street" v="Northeast Beech Street"/></node>
<node id="-61" lat="45.549747646" lon="-122.580039037" visible="true"><tag k="addr:housenumber" v="8025"/><tag k="addr:postcode" v="97213"/><tag k="addr:city" v="Portland"/><tag k="addr:street" v="Northeast Beech Street"/></node>
<node id="-62" lat="45.549748938" lon="-122.580039887" visible="true"><tag k="addr:housenumber" v="8027"/><tag k="addr:postcode" v="97213"/><tag k="addr:city" v="Portland"/><tag k="addr:street" v="Northeast Beech Street"/></node>
<node id="-63" lat="45.54942562" lon="-122.579420097" visible="true"><tag k="addr:housenumber" v="8104"/><tag k="addr:postcode" v="97213"/><tag k="addr:city" v="Portland"/><tag k="addr:street" v="Northeast Beech Street"/></node>
<node id="-64" lat="45.549742033" lon="-122.579416024" visible="true"><tag k="addr:housenumber" v="8105"/><tag k="addr:postcode" v="97213"/><tag k="addr:city" v="Portland"/><tag k="addr:street" v="Northeast Beech Street"/></node>
<node id="-65" lat="45.549429016" lon="-122.579421549" visible="true"><tag k="addr:housenumber" v="8116"/><tag k="addr:postcode" v="97213"/><tag k="addr:city" v="Portland"/><tag k="addr:street" v="Northeast Beech Street"/></node>
<node id="-66" lat="45.549745393" lon="-122.579415153" visible="true"><tag k="addr:housenumber" v="8117"/><tag k="addr:postcode" v="97213"/><tag k="addr:city" v="Portland"/><tag k="addr:street" v="Northeast Beech Street"/></node>
<node id="-67" lat="45.549754653" lon="-122.579057986" visible="true"><tag k="addr:housenumber" v="8127"/><tag k="addr:postcode" v="97213"/><tag k="addr:city" v="Portland"/><tag k="addr:street" v="Northeast Beech Street"/></node>
<node id="-68" lat="45.549414954" lon="-122.579068763" visible="true"><tag k="addr:housenumber" v="8128"/><tag k="addr:postcode" v="97213"/><tag k="addr:city" v="Portland"/><tag k="addr:street" v="Northeast Beech Street"/></node>
<node id="-69" lat="45.549753934" lon="-122.579061171" visible="true"><tag k="addr:housenumber" v="8129"/><tag k="addr:postcode" v="97213"/><tag k="addr:city" v="Portland"/><tag k="addr:street" v="Northeast Beech Street"/></node>
<node id="-70" lat="45.549752597" lon="-122.57905999" visible="true"><tag k="addr:housenumber" v="8130"/><tag k="addr:postcode" v="97213"/><tag k="addr:city" v="Portland"/><tag k="addr:street" v="Northeast Beech Street"/></node>
<node id="-71" lat="45.549758894" lon="-122.579058032" visible="true"><tag k="addr:housenumber" v="8131"/><tag k="addr:postcode" v="97213"/><tag k="addr:city" v="Portland"/><tag k="addr:street" v="Northeast Beech Street"/></node>
<node id="-72" lat="45.549417109" lon="-122.579061298" visible="true"><tag k="addr:housenumber" v="8132"/><tag k="addr:postcode" v="97213"/><tag k="addr:city" v="Portland"/><tag k="addr:street" v="Northeast Beech Street"/></node>
<node id="-73" lat="45.551170295" lon="-122.580396459" visible="true"><tag k="addr:housenumber" v="8005"/><tag k="addr:postcode" v="97213"/><tag k="addr:city" v="Portland"/><tag k="addr:street" v="Northeast Failing Street"/></node>
<node id="-74" lat="45.551164405" lon="-122.580401013" visible="true"><tag k="addr:housenumber" v="8007"/><tag k="addr:postcode" v="97213"/><tag k="addr:city" v="Portland"/><tag k="addr:street" v="Northeast Failing Street"/></node>
<node id="-75" lat="45.551166471" lon="-122.580404459" visible="true"><tag k="addr:housenumber" v="8015"/><tag k="addr:postcode" v="97213"/><tag k="addr:city" v="Portland"/><tag k="addr:street" v="Northeast Failing Street"/></node>
<node id="-76" lat="45.551170603" lon="-122.580400368" visible="true"><tag k="addr:housenumber" v="8017"/><tag k="addr:postcode" v="97213"/><tag k="addr:city" v="Portland"/><tag k="addr:street" v="Northeast Failing Street"/></node>
<node id="-77" lat="45.551161556" lon="-122.579388379" visible="true"><tag k="addr:housenumber" v="8107"/><tag k="addr:postcode" v="97213"/><tag k="addr:city" v="Portland"/><tag k="addr:street" v="Northeast Failing Street"/></node>
<node id="-78" lat="45.551162184" lon="-122.579388808" visible="true"><tag k="addr:housenumber" v="8109"/><tag k="addr:postcode" v="97213"/><tag k="addr:city" v="Portland"/><tag k="addr:street" v="Northeast Failing Street"/></node>
<node id="-79" lat="45.551157744" lon="-122.579384069" visible="true"><tag k="addr:housenumber" v="8111"/><tag k="addr:postcode" v="97213"/><tag k="addr:city" v="Portland"/><tag k="addr:street" v="Northeast Failing Street"/></node>
<node id="-80" lat="45.54834428" lon="-122.583501158" visible="true"><tag k="addr:housenumber" v="7703"/><tag k="addr:postcode" v="97213"/><tag k="addr:city" v="Portland"/><tag k="addr:street" v="Northeast Fremont Street"/></node>
<node id="-81" lat="45.548339309" lon="-122.583497896" visible="true"><tag k="addr:housenumber" v="7705"/><tag k="addr:postcode" v="97213"/><tag k="addr:city" v="Portland"/><tag k="addr:street" v="Northeast Fremont Street"/></node>
<node id="-82" lat="45.54832943" lon="-122.581078139" visible="true"><tag k="addr:housenumber" v="7931"/><tag k="addr:postcode" v="97213"/><tag k="addr:city" v="Portland"/><tag k="addr:street" v="Northeast Fremont Street"/></node>
<node id="-83" lat="45.548319038" lon="-122.579437757" visible="true"><tag k="addr:housenumber" v="8105"/><tag k="addr:postcode" v="97213"/><tag k="addr:city" v="Portland"/><tag k="addr:street" v="Northeast Fremont Street"/></node>
<node id="-84" lat="45.548318194" lon="-122.579441552" visible="true"><tag k="addr:housenumber" v="8107"/><tag k="addr:postcode" v="97213"/><tag k="addr:city" v="Portland"/><tag k="addr:street" v="Northeast Fremont Street"/></node>
<node id="-85" lat="45.552568794" lon="-122.580375303" visible="true"><tag k="addr:housenumber" v="8001"/><tag k="addr:postcode" v="97218"/><tag k="addr:city" v="Portland"/><tag k="addr:street" v="Northeast Mason Street"/></node>
<node id="-86" lat="45.552568227" lon="-122.580374158" visible="true"><tag k="addr:housenumber" v="8003"/><tag k="addr:postcode" v="97218"/><tag k="addr:city" v="Portland"/><tag k="addr:street" v="Northeast Mason Street"/></node>
<node id="-87" lat="45.552563834" lon="-122.579977568" visible="true"><tag k="addr:housenumber" v="8027"/><tag k="addr:postcode" v="97218"/><tag k="addr:city" v="Portland"/><tag k="addr:street" v="Northeast Mason Street"/></node>
<node id="-88" lat="45.55256633" lon="-122.579982833" visible="true"><tag k="addr:housenumber" v="8031"/><tag k="addr:postcode" v="97218"/><tag k="addr:city" v="Portland"/><tag k="addr:street" v="Northeast Mason Street"/></node>
<node id="-89" lat="45.548366286" lon="-122.58834387" visible="true"><tag k="addr:housenumber" v="7206"/><tag k="addr:postcode" v="97213"/><tag k="addr:city" v="Portland"/><tag k="addr:street" v="Northeast Sandy Boulevard"/></node>
<node id="-90" lat="45.548421974" lon="-122.588075873" visible="true"><tag k="addr:housenumber" v="7220"/><tag k="addr:postcode" v="97213"/><tag k="addr:city" v="Portland"/><tag k="addr:street" v="Northeast Sandy Boulevard"/></node>
<node id="-91" lat="45.548415981" lon="-122.588078991" visible="true"><tag k="addr:housenumber" v="7224"/><tag k="addr:postcode" v="97213"/><tag k="addr:city" v="Portland"/><tag k="addr:street" v="Northeast Sandy Boulevard"/></node>
<node id="-92" lat="45.548366565" lon="-122.588348731" visible="true"><tag k="addr:housenumber" v="7226"/><tag k="addr:postcode" v="97213"/><tag k="addr:city" v="Portland"/><tag k="addr:street" v="Northeast Sandy Boulevard"/></node>
<node id="-93" lat="45.548419319" lon="-122.588073304" visible="true"><tag k="addr:housenumber" v="7240"/><tag k="addr:postcode" v="97213"/><tag k="addr:city" v="Portland"/><tag k="addr:street" v="Northeast Sandy Boulevard"/></node>
<node id="-94" lat="45.548416626" lon="-122.588077339" visible="true"><tag k="addr:housenumber" v="7253"/><tag k="addr:postcode" v="97213"/><tag k="addr:city" v="Portland"/><tag k="addr:street" v="Northeast Sandy Boulevard"/></node>
<node id="-95" lat="45.548664007" lon="-122.587526426" visible="true"><tag k="addr:housenumber" v="7310"/><tag k="addr:postcode" v="97213"/><tag k="addr:city" v="Portland"/><tag k="addr:street" v="Northeast Sandy Boulevard"/></node>
<node id="-96" lat="45.548669653" lon="-122.587522643" visible="true"><tag k="addr:housenumber" v="7314"/><tag k="addr:postcode" v="97213"/><tag k="addr:city" v="Portland"/><tag k="addr:street" v="Northeast Sandy Boulevard"/></node>
<node id="-97" lat="45.548672668" lon="-122.587518758" visible="true"><tag k="addr:housenumber" v="7320"/><tag k="addr:postcode" v="97213"/><tag k="addr:city" v="Portland"/><tag k="addr:street" v="Northeast Sandy Boulevard"/></node>
<node id="-98" lat="45.549251464" lon="-122.586088363" visible="true"><tag k="addr:housenumber" v="7430"/><tag k="addr:postcode" v="97213"/><tag k="addr:city" v="Portland"/><tag k="addr:street" v="Northeast Sandy Boulevard"/></node>
<node id="-99" lat="45.549247687" lon="-122.586090368" visible="true"><tag k="addr:housenumber" v="7434"/><tag k="addr:postcode" v="97213"/><tag k="addr:city" v="Portland"/><tag k="addr:street" v="Northeast Sandy Boulevard"/></node>
<node id="-100" lat="45.549254661" lon="-122.586090405" visible="true"><tag k="addr:housenumber" v="7440"/><tag k="addr:postcode" v="97213"/><tag k="addr:city" v="Portland"/><tag k="addr:street" v="Northeast Sandy Boulevard"/></node>
<node id="-101" lat="45.550743577" lon="-122.583363122" visible="true"><tag k="addr:housenumber" v="7727"/><tag k="addr:postcode" v="97213"/><tag k="addr:city" v="Portland"/><tag k="addr:street" v="Northeast Sandy Boulevard"/></node>
<node id="-102" lat="45.550735763" lon="-122.58335762" visible="true"><tag k="addr:housenumber" v="7729"/><tag k="addr:postcode" v="97213"/><tag k="addr:city" v="Portland"/><tag k="addr:street" v="Northeast Sandy Boulevard"/></node>
<node id="-103" lat="45.550520537" lon="-122.582332245" visible="true"><tag k="addr:housenumber" v="7816"/><tag k="addr:postcode" v="97213"/><tag k="addr:city" v="Portland"/><tag k="addr:street" v="Northeast Sandy Boulevard"/></node>
<node id="-104" lat="45.550522161" lon="-122.582339028" visible="true"><tag k="addr:housenumber" v="7826"/><tag k="addr:postcode" v="97213"/><tag k="addr:city" v="Portland"/><tag k="addr:street" v="Northeast Sandy Boulevard"/></node>
<node id="-105" lat="45.553958922" lon="-122.578964958" visible="true"><tag k="addr:housenumber" v="8123"/><tag k="addr:postcode" v="97218"/><tag k="addr:city" v="Portland"/><tag k="addr:street" v="Northeast Skidmore Street"/></node>
<node id="-106" lat="45.553955153" lon="-122.578960049" visible="true"><tag k="addr:housenumber" v="8129"/><tag k="addr:postcode" v="97218"/><tag k="addr:city" v="Portland"/><tag k="addr:street" v="Northeast Skidmore Street"/></node>
</osm>