<?xml version="1.0"?>
<osm version="0.6" upload="false" generator="uvmogr2osm">
<node id="-1" lat="45.522325847" lon="-122.559139024" visible="true"><tag k="addr:housenumber" v="10118"/><tag k="addr:postcode" v="97216"/><tag k="addr:city" v="Portland"/><tag k="addr:street" v="East Burnside Street"/></node>
<node id="-2" lat="45.522321781" lon="-122.559143244" visible="true"><tag k="addr:housenumber" v="10120"/><tag k="addr:postcode" v="97216"/><tag k="addr:city" v="Portland"/><tag k="addr:street" v="East Burnside Street"/></node>
<node id="-3" lat="45.522323848" lon="-122.559142038" visible="true"><tag k="addr:housenumber" v="10122"/><tag k="addr:postcode" v="97216"/><tag k="addr:city" v="Portland"/><tag k="addr:street" v="East Burnside Street"/></node>
<node id="-4" lat="45.522985939" lon="-122.561158232" visible="true"><tag k="addr:housenumber" v="11"/><tag k="addr:postcode" v="97220"/><tag k="addr:city" v="Portland"/><tag k="addr:street" v="Northeast 100th Avenue"/></node>
<node id="-5" lat="45.522982493" lon="-122.561158396" visible="true"><tag k="addr:housenumber" v="17"/><tag k="addr:postcode" v="97220"/><tag k="addr:city" v="Portland"/><tag k="addr:street" v="Northeast 100th Avenue"/></node>
<node id="-6" lat="45.526566527" lon="-122.560503581" visible="true"><tag k="addr:housenumber" v="510"/><tag k="addr:postcode" v="97220"/><tag k="addr:city" v="Portland"/><tag k="addr:street" v="Northeast 100th Avenue"/></node>
<node id="-7" lat="45.526569601" lon="-122.560500506" visible="true"><tag k="addr:housenumber" v="512"/><tag k="addr:postcode" v="97220"/><tag k="addr:city" v="Portland"/><tag k="addr:street" v="Northeast 100th Avenue"/></node>
<node id="-8" lat="45.522984428" lon="-122.561153167" visible="true"><tag k="addr:housenumber" v="9"/><tag k="addr:postcode" v="97220"/><tag k="addr:city" v="Portland"/><tag k="addr:street" v="Northeast 100th Avenue"/></node>
<node id="-9" lat="45.52684798" lon="-122.568309791" visible="true"><tag k="addr:housenumber" v="524"/><tag k="addr:postcode" v="97220"/><tag k="addr:city" v="Portland"/><tag k="addr:street" v="Northeast 92nd Avenue"/></node>
<node id="-10" lat="45.526843386" lon="-122.568308131" visible="true"><tag k="addr:housenumber" v="528"/><tag k="addr:postcode" v="97220"/><tag k="addr:city" v="Portland"/><tag k="addr:street" v="Northeast 92nd Avenue"/></node>
<node id="-11" lat="45.526844927" lon="-122.568304069" visible="true"><tag k="addr:housenumber" v="532"/><tag k="addr:postcode" v="97220"/><tag k="addr:city" v="Portland"/><tag k="addr:street" v="Northeast 92nd Avenue"/></node>
<node id="-12" lat="45.526915447" lon="-122.568342488" visible="true"><tag k="addr:housenumber" v="536"/><tag k="addr:postcode" v="97220"/><tag k="addr:city" v="Portland"/><tag k="addr:street" v="Northeast 92nd Avenue"/></node>
<node id="-13" lat="45.526917706" lon="-122.568340629" visible="true"><tag k="addr:housenumber" v="538"/><tag k="addr:postcode" v="97220"/><tag k="addr:city" v="Portland"/><tag k="addr:street" v="Northeast 92nd Avenue"/></node>
<node id="-14" lat="45.528651752" lon="-122.568322361" visible="true"><tag k="addr:housenumber" v="808"/><tag k="addr:postcode" v="97220"/><tag k="addr:city" v="Portland"/><tag k="addr:street" v="Northeast 92nd Avenue"/></node>
<node id="-15" lat="45.526096497" lon="-122.568170267" visible="true"><tag k="addr:housenumber" v="434"/><tag k="addr:postcode" v="97220"/><tag k="addr:city" v="Portland"/><tag k="addr:street" v="Northeast 92nd Place"/></node>
<node id="-16" lat="45.52690168" lon="-122.567453518" visible="true"><tag k="addr:housenumber" v="522"/><tag k="addr:postcode" v="97220"/><tag k="addr:city" v="Portland"/><tag k="addr:street" v="Northeast 93rd Avenue"/></node>
<node id="-17" lat="45.526899668" lon="-122.56745029" visible="true"><tag k="addr:housenumber" v="530"/><tag k="addr:postcode" v="97220"/><tag k="addr:city" v="Portland"/><tag k="addr:street" v="Northeast 93rd Avenue"/></node>
<node id="-18" lat="45.527052857" lon="-122.567974212" visible="true"><tag k="addr:housenumber" v="545"/><tag k="addr:postcode" v="97220"/><tag k="addr:city" v="Portland"/><tag k="addr:street" v="Northeast 93rd Avenue"/></node>
<node id="-19" lat="45.527057845" lon="-122.567973032" visible="true"><tag k="addr:housenumber" v="547"/><tag k="addr:postcode" v="97220"/><tag k="addr:city" v="Portland"/><tag k="addr:street" v="Northeast 93rd Avenue"/></node>
<node id="-20" lat="45.527196991" lon="-122.567453072" visible="true"><tag k="addr:housenumber" v="610"/><tag k="addr:postcode" v="97220"/><tag k="addr:city" v="Portland"/><tag k="addr:street" v="Northeast 93rd Avenue"/></node>
<node id="-21" lat="45.527195814" lon="-122.567449543" visible="true"><tag k="addr:housenumber" v="614"/><tag k="addr:postcode" v="97220"/><tag k="addr:city" v="Portland"/><tag k="addr:street" v="Northeast 93rd Avenue"/></node>
<node id="-22" lat="45.527258966" lon="-122.567961054" visible="true"><tag k="addr:housenumber" v="617"/><tag k="addr:postcode" v="97220"/><tag k="addr:city" v="Portland"/><tag k="addr:street" v="Northeast 93rd Avenue"/></node>
<node id="-23" lat="45.527195485" lon="-122.567455335" visible="true"><tag k="addr:housenumber" v="618"/><tag k="addr:postcode" v="97220"/><tag k="addr:city" v="Portland"/><tag k="addr:street" v="Northeast 93rd Avenue"/></node>
<node id="-24" lat="45.527261889" lon="-122.567965942" visible="true"><tag k="addr:housenumber" v="619"/><tag k="addr:postcode" v="97220"/><tag k="addr:city" v="Portland"/><tag k="addr:street" v="Northeast 93rd Avenue"/></node>
<node id="-25" lat="45.528536021" lon="-122.567951466" visible="true"><tag k="addr:housenumber" v="783"/><tag k="addr:postcode" v="97220"/><tag k="addr:city" v="Portland"/><tag k="addr:street" v="Northeast 93rd Avenue"/></node>
<node id="-26" lat="45.528534462" lon="-122.567953304" visible="true"><tag k="addr:housenumber" v="789"/><tag k="addr:postcode" v="97220"/><tag k="addr:city" v="Portland"/><tag k="addr:street" v="Northeast 93rd Avenue"/></node>
<node id="-27" lat="45.529227503" lon="-122.567949682" visible="true"><tag k="addr:housenumber" v="827"/><tag k="addr:postcode" v="97220"/><tag k="addr:city" v="Portland"/><tag k="addr:street" v="Northeast 93rd Avenue"/></node>
<node id="-28" lat="45.529230586" lon="-122.56794549" visible="true"><tag k="addr:housenumber" v="829"/><tag k="addr:postcode" v="97220"/><tag k="addr:city" v="Portland"/><tag k="addr:street" v="Northeast 93rd Avenue"/></node>
<node id="-29" lat="45.529229957" lon="-122.567950149" visible="true"><tag k="addr:housenumber" v="831"/><tag k="addr:postcode" v="97220"/><tag k="addr:city" v="Portland"/><tag k="addr:street" v="Northeast 93rd Avenue"/></node>
<node id="-30" lat="45.529226008" lon="-122.567951196" visible="true"><tag k="addr:housenumber" v="833"/><tag k="addr:postcode" v="97220"/><tag k="addr:city" v="Portland"/><tag k="addr:street" v="Northeast 93rd Avenue"/></node>
<node id="-31" lat="45.524307976" lon="-122.566477918" visible="true"><tag k="addr:housenumber" v="214"/><tag k="addr:postcode" v="97220"/><tag k="addr:city" v="Portland"/><tag k="addr:street" v="Northeast 94th Avenue"/></node>
<node id="-32" lat="45.524317292" lon="-122.566470711" visible="true"><tag k="addr:housenumber" v="216"/><tag k="addr:postcode" v="97220"/><tag k="addr:city" v="Portland"/><tag k="addr:street" v="Northeast 94th Avenue"/></node>
<node id="-33" lat="45.526558527" lon="-122.566528039" visible="true"><tag k="addr:housenumber" v="502"/><tag k="addr:postcode" v="97220"/><tag k="addr:city" v="Portland"/><tag k="addr:street" v="Northeast 94th Avenue"/></node>
<node id="-34" lat="45.526566062" lon="-122.566530529" visible="true"><tag k="addr:housenumber" v="506"/><tag k="addr:postcode" v="97220"/><tag k="addr:city" v="Portland"/><tag k="addr:street" v="Northeast 94th Avenue"/></node>
<node id="-35" lat="45.526558556" lon="-122.56653335" visible="true"><tag k="addr:housenumber" v="510"/><tag k="addr:postcode" v="97220"/><tag k="addr:city" v="Portland"/><tag k="addr:street" v="Northeast 94th Avenue"/></node>
<node id="-36" lat="45.526567402" lon="-122.566529006" visible="true"><tag k="addr:housenumber" v="514"/><tag k="addr:postcode" v="97220"/><tag k="addr:city" v="Portland"/><tag k="addr:street" v="Northeast 94th Avenue"/></node>
<node id="-37" lat="45.527632969" lon="-122.566613535" visible="true"><tag k="addr:housenumber" v="702"/><tag k="addr:postcode" v="97220"/><tag k="addr:city" v="Portland"/><tag k="addr:street" v="Northeast 94th Avenue"/></node>
<node id="-38" lat="45.527638551" lon="-122.566609149" visible="true"><tag k="addr:housenumber" v="708"/><tag k="addr:postcode" v="97220"/><tag k="addr:city" v="Portland"/><tag k="addr:street" v="Northeast 94th Avenue"/></node>
<node id="-39" lat="45.528044987" lon="-122.566495144" visible="true"><tag k="addr:housenumber" v="728"/><tag k="addr:postcode" v="97220"/><tag k="addr:city" v="Portland"/><tag k="addr:street" v="Northeast 94th Avenue"/></node>
<node id="-40" lat="45.528047595" lon="-122.566495853" visible="true"><tag k="addr:housenumber" v="730"/><tag k="addr:postcode" v="97220"/><tag k="addr:city" v="Portland"/><tag k="addr:street" v="Northeast 94th Avenue"/></node>
<node id="-41" lat="45.528048791" lon="-122.566503105" visible="true"><tag k="addr:housenumber" v="732"/><tag k="addr:postcode" v="97220"/><tag k="addr:city" v="Portland"/><tag k="addr:street" v="Northeast 94th Avenue"/></node>
<node id="-42" lat="45.528051622" lon="-122.566497026" visible="true"><tag k="addr:housenumber" v="734"/><tag k="addr:postcode" v="97220"/><tag k="addr:city" v="Portland"/><tag k="addr:street" v="Northeast 94th Avenue"/></node>
<node id="-43" lat="45.528046386" lon="-122.566502832" visible="true"><tag k="addr:housenumber" v="736"/><tag k="addr:postcode" v="97220"/><tag k="addr:city" v="Portland"/><tag k="addr:street" v="Northeast 94th Avenue"/></node>
<node id="-44" lat="45.5280535" lon="-122.56650106" visible="true"><tag k="addr:housenumber" v="738"/><tag k="addr:postcode" v="97220"/><tag k="addr:city" v="Portland"/><tag k="addr:street" v="Northeast 94th Avenue"/></node>
<node id="-45" lat="45.528385035" lon="-122.566613278" visible="true"><tag k="addr:housenumber" v="750"/><tag k="addr:postcode" v="97220"/><tag k="addr:city" v="Portland"/><tag k="addr:street" v="Northeast 94th Avenue"/></node>
<node id="-46" lat="45.528389399" lon="-122.566574627" visible="true"><tag k="addr:housenumber" v="758"/><tag k="addr:postcode" v="97220"/><tag k="addr:city" v="Portland"/><tag k="addr:street" v="Northeast 94th Avenue"/></node>
<node id="-47" lat="45.528469147" lon="-122.567103448" visible="true"><tag k="addr:housenumber" v="761"/><tag k="addr:postcode" v="97220"/><tag k="addr:city" v="Portland"/><tag k="addr:street" v="Northeast 94th Avenue"/></node>
<node id="-48" lat="45.528473949" lon="-122.567110848" visible="true"><tag k="addr:housenumber" v="765"/><tag k="addr:postcode" v="97220"/><tag k="addr:city" v="Portland"/><tag k="addr:street" v="Northeast 94th Avenue"/></node>
<node id="-49" lat="45.529687746" lon="-122.566576188" visible="true"><tag k="addr:housenumber" v="922"/><tag k="addr:postcode" v="97220"/><tag k="addr:city" v="Portland"/><tag k="addr:street" v="Northeast 94th Avenue"/></node>
<node id="-50" lat="45.52968308" lon="-122.566584285" visible="true"><tag k="addr:housenumber" v="924"/><tag k="addr:postcode" v="97220"/><tag k="addr:city" v="Portland"/><tag k="addr:street" v="Northeast 94th Avenue"/></node>
<node id="-51" lat="45.524529721" lon="-122.56382048" visible="true"><tag k="addr:housenumber" v="237"/><tag k="addr:postcode" v="97220"/><tag k="addr:city" v="Portland"/><tag k="addr:street" v="Northeast 97th Avenue"/></node>
<node id="-52" lat="45.524721267" lon="-122.562597513" visible="true"><tag k="addr:housenumber" v="245"/><tag k="addr:postcode" v="97220"/><tag k="addr:city" v="Portland"/><tag k="addr:street" v="Northeast 99th Avenue"/></node>
<node id="-53" lat="45.524723583" lon="-122.56259292" visible="true"><tag k="addr:housenumber" v="247"/><tag k="addr:postcode" v="97220"/><tag k="addr:city" v="Portland"/><tag k="addr:street" v="Northeast 99th Avenue"/></node>
<node id="-54" lat="45.524717074" lon="-122.562594392" visible="true"><tag k="addr:housenumber" v="249"/><tag k="addr:postcode" v="97220"/><tag k="addr:city" v="Portland"/><tag k="addr:street" v="Northeast 99th Avenue"/></node>
<node id="-55" lat="45.525176736" lon="-122.561800849" visible="true"><tag k="addr:housenumber" v="326"/><tag k="addr:postcode" v="97220"/><tag k="addr:city" v="Portland"/><tag k="addr:street" v="Northeast 99th Avenue"/></node>
<node id="-56" lat="45.525177758" lon="-122.5617938" visible="true"><tag k="addr:housenumber" v="328"/><tag k="addr:postcode" v="97220"/><tag k="addr:city" v="Portland"/><tag k="addr:street" v="Northeast 99th Avenue"/></node>
<node id="-57" lat="45.525338773" lon="-122.561788642" visible="true"><tag k="addr:housenumber" v="340"/><tag k="addr:postcode" v="97220"/><tag k="addr:city" v="Portland"/><tag k="addr:street" v="Northeast 99th Avenue"/></node>
<node id="-58" lat="45.525338749" lon="-122.561793399" visible="true"><tag k="addr:housenumber" v="342"/><tag k="addr:postcode" v="97220"/><tag k="addr:city" v="Portland"/><tag k="addr:street" v="Northeast 99th Avenue"/></node>
<node id="-59" lat="45.524530095" lon="-122.563825708" visible="true"><tag k="addr:housenumber" v="9650"/><tag k="addr:postcode" v="97220"/><tag k="addr:city" v="Portland"/><tag k="addr:street" v="Northeast Everett Street"/></node>
<node id="-60" lat="45.526555081" lon="-122.558906256" visible="true"><tag k="addr:housenumber" v="10115"/><tag k="addr:postcode" v="97220"/><tag k="addr:city" v="Portland"/><tag k="addr:street" v="Northeast Glisan Street"/></node>
<node id="-61" lat="45.526551353" lon="-122.558910816" visible="true"><tag k="addr:housenumber" v="10119"/><tag k="addr:postcode" v="97220"/><tag k="addr:city" v="Portland"/><tag k="addr:street" v="Northeast Glisan Street"/></node>
<node id="-62" lat="45.52655454" lon="-122.558906104" visible="true"><tag k="addr:housenumber" v="10121"/><tag k="addr:postcode" v="97220"/><tag k="addr:city" v="Portland"/><tag k="addr:street" v="Northeast Glisan Street"/></node>
<node id="-63" lat="45.526558142" lon="-122.558905629" visible="true"><tag k="addr:housenumber" v="10125"/><tag k="addr:postcode" v="97220"/><tag k="addr:city" v="Portland"/><tag k="addr:street" v="Northeast Glisan Street"/></node>
<node id="-64" lat="45.526095625" lon="-122.568164773" visible="true"><tag k="addr:housenumber" v="9252"/><tag k="addr:postcode" v="97220"/><tag k="addr:city" v="Portland"/><tag k="addr:street" v="Northeast Glisan Street"/></node>
<node id="-65" lat="45.526174207" lon="-122.567668808" visible="true"><tag k="addr:housenumber" v="9270"/><tag k="addr:postcode" v="97220"/><tag k="addr:city" v="Portland"/><tag k="addr:street" v="Northeast Glisan Street"/></node>
<node id="-66" lat="45.526173755" lon="-122.567669647" visible="true"><tag k="addr:housenumber" v="9300"/><tag k="addr:postcode" v="97220"/><tag k="addr:city" v="Portland"/><tag k="addr:street" v="Northeast Glisan Street"/></node>
<node id="-67" lat="45.526691334" lon="-122.563118722" visible="true"><tag k="addr:housenumber" v="9745"/><tag k="addr:postcode" v="97220"/><tag k="addr:city" v="Portland"/><tag k="addr:street" v="Northeast Glisan Street"/></node>
<node id="-68" lat="45.526688794" lon="-122.563118938" visible="true"><tag k="addr:housenumber" v="9747"/><tag k="addr:postcode" v="97220"/><tag k="addr:city" v="Portland"/><tag k="addr:street" v="Northeast Glisan Street"/></node>
<node id="-69" lat="45.530857299" lon="-122.568039626" visible="true"><tag k="addr:housenumber" v="9222"/><tag k="addr:postcode" v="97220"/><tag k="addr:city" v="Portland"/><tag k="addr:street" v="Northeast Hassalo Street"/></node>
<node id="-70" lat="45.530852612" lon="-122.568045195" visible="true"><tag k="addr:housenumber" v="9228"/><tag k="addr:postcode" v="97220"/><tag k="addr:city" v="Portland"/><tag k="addr:street" v="Northeast Hassalo Street"/></node>
<node id="-71" lat="45.530927227" lon="-122.567981553" visible="true"><tag k="addr:housenumber" v="9234"/><tag k="addr:postcode" v="97220"/><tag k="addr:city" v="Portland"/><tag k="addr:street" v="Northeast Hassalo Street"/></node>
<node id="-72" lat="45.530920968" lon="-122.567982646" visible="true"><tag k="addr:housenumber" v="9240"/><tag k="addr:postcode" v="97220"/><tag k="addr:city" v="Portland"/><tag k="addr:street" v="Northeast Hassalo Street"/></node>
<node id="-73" lat="45.530102389" lon="-122.568292452" visible="true"><tag k="addr:housenumber" v="9223"/><tag k="addr:postcode" v="97220"/><tag k="addr:city" v="Portland"/><tag k="addr:street" v="Northeast Holladay Street"/></node>
<node id="-74" lat="45.530119825" lon="-122.56755567" visible="true"><tag k="addr:housenumber" v="9307"/><tag k="addr:postcode" v="97220"/><tag k="addr:city" v="Portland"/><tag k="addr:street" v="Northeast Holladay Street"/></node>
<node id="-75" lat="45.530070174" lon="-122.567194859" visible="true"><tag k="addr:housenumber" v="9317"/><tag k="addr:postcode" v="97220"/><tag k="addr:city" v="Portland"/><tag k="addr:street" v="Northeast Holladay Street"/></node>
<node id="-76" lat="45.528650508" lon="-122.568325043" visible="true"><tag k="addr:housenumber" v="9230"/><tag k="addr:postcode" v="97220"/><tag k="addr:city" v="Portland"/><tag k="addr:street" v="Northeast Oregon Street"/></node>
<node id="-77" lat="45.530097004" lon="-122.568291475" visible="true"><tag k="addr:housenumber" v="1003"/><tag k="addr:postcode" v="97220"/><tag k="addr:city" v="Portland"/><tag k="addr:street" v="Northeast Tamera Lane"/></node>
<node id="-78" lat="45.530387533" lon="-122.567936766" visible="true"><tag k="addr:housenumber" v="1014"/><tag k="addr:postcode" v="97220"/><tag k="addr:city" v="Portland"/><tag k="addr:street" v="Northeast Tamera Lane"/></node>
<node id="-79" lat="45.53039527" lon="-122.567938021" visible="true"><tag k="addr:housenumber" v="1028"/><tag k="addr:postcode" v="97220"/><tag k="addr:city" v="Portland"/><tag k="addr:street" v="Northeast Tamera Lane"/></node>
<node id="-80" lat="45.530071548" lon="-122.567192779" visible="true"><tag k="addr:housenumber" v="1129"/><tag k="addr:postcode" v="97220"/><tag k="addr:city" v="Portland"/><tag k="addr:street" v="Northeast Tamera Lane"/></node>
<node id="-81" lat="45.530120319" lon="-122.567556202" visible="true"><tag k="addr:housenumber" v="1132"/><tag k="addr:postcode" v="97220"/><tag k="addr:city" v="Portland"/><tag k="addr:street" v="Northeast Tamera Lane"/></node>
<node id="-82" lat="45.522127219" lon="-122.558608721" visible="true"><tag k="addr:housenumber" v="41"/><tag k="addr:postcode" v="97216"/><tag k="addr:city" v="Portland"/><tag k="addr:street" v="Southeast 102nd Avenue"/></node>
<node id="-83" lat="45.522134077" lon="-122.558615736" visible="true"><tag k="addr:housenumber" v="45"/><tag k="addr:postcode" v="97216"/><tag k="addr:city" v="Portland"/><tag k="addr:street" v="Southeast 102nd Avenue"/></node>
<node id="-84" lat="45.520972778" lon="-122.566443245" visible="true"><tag k="addr:housenumber" v="206"/><tag k="addr:postcode" v="97216"/><tag k="addr:city" v="Portland"/><tag k="addr:street" v="Southeast 94th Avenue"/></node>
<node id="-85" lat="45.520969478" lon="-122.566448245" visible="true"><tag k="addr:housenumber" v="210"/><tag k="addr:postcode" v="97216"/><tag k="addr:city" v="Portland"/><tag k="addr:street" v="Southeast 94th Avenue"/></node>
<node id="-86" lat="45.520549487" lon="-122.567119356" visible="true"><tag k="addr:housenumber" v="235"/><tag k="addr:postcode" v="97216"/><tag k="addr:city" v="Portland"/><tag k="addr:street" v="Southeast 94th Avenue"/></node>
<node id="-87" lat="45.520542918" lon="-122.56712291" visible="true"><tag k="addr:housenumber" v="241"/><tag k="addr:postcode" v="97216"/><tag k="addr:city" v="Portland"/><tag k="addr:street" v="Southeast 94th Avenue"/></node>
<node id="-88" lat="45.521948485" lon="-122.563374362" visible="true"><tag k="addr:housenumber" v="16"/><tag k="addr:postcode" v="97216"/><tag k="addr:city" v="Portland"/><tag k="addr:street" v="Southeast 97th Avenue"/></node>
<node id="-89" lat="45.521941108" lon="-122.563381635" visible="true"><tag k="addr:housenumber" v="38"/><tag k="addr:postcode" v="97216"/><tag k="addr:city" v="Portland"/><tag k="addr:street" v="Southeast 97th Avenue"/></node>
</osm>