<?xml version="1.0"?>
<osm version="0.6" upload="false" generator="uvmogr2osm">
<node id="-1" lat="45.523265166" lon="-122.588211125" visible="true"><tag k="addr:housenumber" v="7227"/><tag k="addr:postcode" v="97215"/><tag k="addr:city" v="Portland"/><tag k="addr:street" v="East Burnside Street"/></node>
<node id="-2" lat="45.523273802" lon="-122.5882157" visible="true"><tag k="addr:housenumber" v="7229"/><tag k="addr:postcode" v="97215"/><tag k="addr:city" v="Portland"/><tag k="addr:street" v="East Burnside Street"/></node>
<node id="-3" lat="45.523268451" lon="-122.588208378" visible="true"><tag k="addr:housenumber" v="7231"/><tag k="addr:postcode" v="97215"/><tag k="addr:city" v="Portland"/><tag k="addr:street" v="East Burnside Street"/></node>
<node id="-4" lat="45.52326811" lon="-122.588210318" visible="true"><tag k="addr:housenumber" v="7233"/><tag k="addr:postcode" v="97215"/><tag k="addr:city" v="Portland"/><tag k="addr:street" v="East Burnside Street"/></node>
<node id="-5" lat="45.522956064" lon="-122.582137321" visible="true"><tag k="addr:housenumber" v="7903"/><tag k="addr:postcode" v="97215"/><tag k="addr:city" v="Portland"/><tag k="addr:street" v="East Burnside Street"/></node>
<node id="-6" lat="45.52295607" lon="-122.582130437" visible="true"><tag k="addr:housenumber" v="7909"/><tag k="addr:postcode" v="97215"/><tag k="addr:city" v="Portland"/><tag k="addr:street" v="East Burnside Street"/></node>
<node id="-7" lat="45.522589695" lon="-122.582039865" visible="true"><tag k="addr:housenumber" v="7910"/><tag k="addr:postcode" v="97215"/><tag k="addr:city" v="Portland"/><tag k="addr:street" v="East Burnside Street"/></node>
<node id="-8" lat="45.522592594" lon="-122.582033459" visible="true"><tag k="addr:housenumber" v="7912"/><tag k="addr:postcode" v="97215"/><tag k="addr:city" v="Portland"/><tag k="addr:street" v="East Burnside Street"/></node>
<node id="-9" lat="45.522960405" lon="-122.582135638" visible="true"><tag k="addr:housenumber" v="7915"/><tag k="addr:postcode" v="97215"/><tag k="addr:city" v="Portland"/><tag k="addr:street" v="East Burnside Street"/></node>
<node id="-10" lat="45.522654506" lon="-122.581761397" visible="true"><tag k="addr:housenumber" v="7950"/><tag k="addr:postcode" v="97215"/><tag k="addr:city" v="Portland"/><tag k="addr:street" v="East Burnside Street"/></node>
<node id="-11" lat="45.522660977" lon="-122.581759058" visible="true"><tag k="addr:housenumber" v="7956"/><tag k="addr:postcode" v="97215"/><tag k="addr:city" v="Portland"/><tag k="addr:street" v="East Burnside Street"/></node>
<node id="-12" lat="45.522658368" lon="-122.581761854" visible="true"><tag k="addr:housenumber" v="7962"/><tag k="addr:postcode" v="97215"/><tag k="addr:city" v="Portland"/><tag k="addr:street" v="East Burnside Street"/></node>
<node id="-13" lat="45.522582761" lon="-122.580786636" visible="true"><tag k="addr:housenumber" v="8028"/><tag k="addr:postcode" v="97215"/><tag k="addr:city" v="Portland"/><tag k="addr:street" v="East Burnside Street"/></node>
<node id="-14" lat="45.52257812" lon="-122.58079104" visible="true"><tag k="addr:housenumber" v="8032"/><tag k="addr:postcode" v="97215"/><tag k="addr:city" v="Portland"/><tag k="addr:street" v="East Burnside Street"/></node>
<node id="-15" lat="45.523037008" lon="-122.580515186" visible="true"><tag k="addr:housenumber" v="8041"/><tag k="addr:postcode" v="97215"/><tag k="addr:city" v="Portland"/><tag k="addr:street" v="East Burnside Street"/></node>
<node id="-16" lat="45.523043215" lon="-122.58051941" visible="true"><tag k="addr:housenumber" v="8043"/><tag k="addr:postcode" v="97215"/><tag k="addr:city" v="Portland"/><tag k="addr:street" v="East Burnside Street"/></node>
<node id="-17" lat="45.523035871" lon="-122.580514217" visible="true"><tag k="addr:housenumber" v="8045"/><tag k="addr:postcode" v="97215"/><tag k="addr:city" v="Portland"/><tag k="addr:street" v="East Burnside Street"/></node>
<node id="-18" lat="45.524794635" lon="-122.589175128" visible="true"><tag k="addr:housenumber" v="303"/><tag k="addr:postcode" v="97213"/><tag k="addr:city" v="Portland"/><tag k="addr:street" v="Northeast 72nd Avenue"/></node>
<node id="-19" lat="45.523432433" lon="-122.588261293" visible="true"><tag k="addr:housenumber" v="15"/><tag k="addr:postcode" v="97213"/><tag k="addr:city" v="Portland"/><tag k="addr:street" v="Northeast 73rd Avenue"/></node>
<node id="-20" lat="45.523437484" lon="-122.588261458" visible="true"><tag k="addr:housenumber" v="17"/><tag k="addr:postcode" v="97213"/><tag k="addr:city" v="Portland"/><tag k="addr:street" v="Northeast 73rd Avenue"/></node>
<node id="-21" lat="45.523431058" lon="-122.588257751" visible="true"><tag k="addr:housenumber" v="19"/><tag k="addr:postcode" v="97213"/><tag k="addr:city" v="Portland"/><tag k="addr:street" v="Northeast 73rd Avenue"/></node>
<node id="-22" lat="45.523438004" lon="-122.588255416" visible="true"><tag k="addr:housenumber" v="21"/><tag k="addr:postcode" v="97213"/><tag k="addr:city" v="Portland"/><tag k="addr:street" v="Northeast 73rd Avenue"/></node>
<node id="-23" lat="45.525146403" lon="-122.586521131" visible="true"><tag k="addr:housenumber" v="324"/><tag k="addr:postcode" v="97213"/><tag k="addr:city" v="Portland"/><tag k="addr:street" v="Northeast 74th Avenue"/></node>
<node id="-24" lat="45.525138159" lon="-122.586512695" visible="true"><tag k="addr:housenumber" v="332"/><tag k="addr:postcode" v="97213"/><tag k="addr:city" v="Portland"/><tag k="addr:street" v="Northeast 74th Avenue"/></node>
<node id="-25" lat="45.525145593" lon="-122.587093008" visible="true"><tag k="addr:housenumber" v="333"/><tag k="addr:postcode" v="97213"/><tag k="addr:city" v="Portland"/><tag k="addr:street" v="Northeast 74th Avenue"/></node>
<node id="-26" lat="45.525152789" lon="-122.587093782" visible="true"><tag k="addr:housenumber" v="335"/><tag k="addr:postcode" v="97213"/><tag k="addr:city" v="Portland"/><tag k="addr:street" v="Northeast 74th Avenue"/></node>
<node id="-27" lat="45.523514741" lon="-122.584367662" visible="true"><tag k="addr:housenumber" v="102"/><tag k="addr:postcode" v="97213"/><tag k="addr:city" v="Portland"/><tag k="addr:street" v="Northeast 76th Avenue"/></node>
<node id="-28" lat="45.523513496" lon="-122.584363547" visible="true"><tag k="addr:housenumber" v="104"/><tag k="addr:postcode" v="97213"/><tag k="addr:city" v="Portland"/><tag k="addr:street" v="Northeast 76th Avenue"/></node>
<node id="-29" lat="45.524373362" lon="-122.584979284" visible="true"><tag k="addr:housenumber" v="225"/><tag k="addr:postcode" v="97213"/><tag k="addr:city" v="Portland"/><tag k="addr:street" v="Northeast 76th Avenue"/></node>
<node id="-30" lat="45.524372729" lon="-122.584979632" visible="true"><tag k="addr:housenumber" v="227"/><tag k="addr:postcode" v="97213"/><tag k="addr:city" v="Portland"/><tag k="addr:street" v="Northeast 76th Avenue"/></node>
<node id="-31" lat="45.525541535" lon="-122.584360695" visible="true"><tag k="addr:housenumber" v="358"/><tag k="addr:postcode" v="97213"/><tag k="addr:city" v="Portland"/><tag k="addr:street" v="Northeast 76th Avenue"/></node>
<node id="-32" lat="45.525537192" lon="-122.58436319" visible="true"><tag k="addr:housenumber" v="360"/><tag k="addr:postcode" v="97213"/><tag k="addr:city" v="Portland"/><tag k="addr:street" v="Northeast 76th Avenue"/></node>
<node id="-33" lat="45.525955262" lon="-122.584356821" visible="true"><tag k="addr:housenumber" v="424"/><tag k="addr:postcode" v="97213"/><tag k="addr:city" v="Portland"/><tag k="addr:street" v="Northeast 76th Avenue"/></node>
<node id="-34" lat="45.525956554" lon="-122.584360391" visible="true"><tag k="addr:housenumber" v="426"/><tag k="addr:postcode" v="97213"/><tag k="addr:city" v="Portland"/><tag k="addr:street" v="Northeast 76th Avenue"/></node>
<node id="-35" lat="45.525956038" lon="-122.584359345" visible="true"><tag k="addr:housenumber" v="428"/><tag k="addr:postcode" v="97213"/><tag k="addr:city" v="Portland"/><tag k="addr:street" v="Northeast 76th Avenue"/></node>
<node id="-36" lat="45.52594987" lon="-122.584358871" visible="true"><tag k="addr:housenumber" v="430"/><tag k="addr:postcode" v="97213"/><tag k="addr:city" v="Portland"/><tag k="addr:street" v="Northeast 76th Avenue"/></node>
<node id="-37" lat="45.525958" lon="-122.584359101" visible="true"><tag k="addr:housenumber" v="432"/><tag k="addr:postcode" v="97213"/><tag k="addr:city" v="Portland"/><tag k="addr:street" v="Northeast 76th Avenue"/></node>
<node id="-38" lat="45.523390875" lon="-122.583157888" visible="true"><tag k="addr:housenumber" v="100"/><tag k="addr:postcode" v="97213"/><tag k="addr:city" v="Portland"/><tag k="addr:street" v="Northeast 78th Avenue"/></node>
<node id="-39" lat="45.523394967" lon="-122.58315641" visible="true"><tag k="addr:housenumber" v="102"/><tag k="addr:postcode" v="97213"/><tag k="addr:city" v="Portland"/><tag k="addr:street" v="Northeast 78th Avenue"/></node>
<node id="-40" lat="45.523945415" lon="-122.583156749" visible="true"><tag k="addr:housenumber" v="132"/><tag k="addr:postcode" v="97213"/><tag k="addr:city" v="Portland"/><tag k="addr:street" v="Northeast 78th Avenue"/></node>
<node id="-41" lat="45.523939097" lon="-122.583150292" visible="true"><tag k="addr:housenumber" v="134"/><tag k="addr:postcode" v="97213"/><tag k="addr:city" v="Portland"/><tag k="addr:street" v="Northeast 78th Avenue"/></node>
<node id="-42" lat="45.524471244" lon="-122.58387232" visible="true"><tag k="addr:housenumber" v="223"/><tag k="addr:postcode" v="97213"/><tag k="addr:city" v="Portland"/><tag k="addr:street" v="Northeast 78th Avenue"/></node>
<node id="-43" lat="45.524470823" lon="-122.583876728" visible="true"><tag k="addr:housenumber" v="225"/><tag k="addr:postcode" v="97213"/><tag k="addr:city" v="Portland"/><tag k="addr:street" v="Northeast 78th Avenue"/></node>
<node id="-44" lat="45.524465225" lon="-122.583874291" visible="true"><tag k="addr:housenumber" v="227"/><tag k="addr:postcode" v="97213"/><tag k="addr:city" v="Portland"/><tag k="addr:street" v="Northeast 78th Avenue"/></node>
<node id="-45" lat="45.525430852" lon="-122.583869192" visible="true"><tag k="addr:housenumber" v="351"/><tag k="addr:postcode" v="97213"/><tag k="addr:city" v="Portland"/><tag k="addr:street" v="Northeast 78th Avenue"/></node>
<node id="-46" lat="45.525430607" lon="-122.58387179" visible="true"><tag k="addr:housenumber" v="355"/><tag k="addr:postcode" v="97213"/><tag k="addr:city" v="Portland"/><tag k="addr:street" v="Northeast 78th Avenue"/></node>
<node id="-47" lat="45.523783768" lon="-122.58175081" visible="true"><tag k="addr:housenumber" v="117"/><tag k="addr:postcode" v="97213"/><tag k="addr:city" v="Portland"/><tag k="addr:street" v="Northeast 80th Avenue"/></node>
<node id="-48" lat="45.523779824" lon="-122.581753773" visible="true"><tag k="addr:housenumber" v="119"/><tag k="addr:postcode" v="97213"/><tag k="addr:city" v="Portland"/><tag k="addr:street" v="Northeast 80th Avenue"/></node>
<node id="-49" lat="45.523084254" lon="-122.580989723" visible="true"><tag k="addr:housenumber" v="20"/><tag k="addr:postcode" v="97213"/><tag k="addr:city" v="Portland"/><tag k="addr:street" v="Northeast 80th Avenue"/></node>
<node id="-50" lat="45.524086476" lon="-122.581161809" visible="true"><tag k="addr:housenumber" v="202"/><tag k="addr:postcode" v="97213"/><tag k="addr:city" v="Portland"/><tag k="addr:street" v="Northeast 80th Avenue"/></node>
<node id="-51" lat="45.524095338" lon="-122.581154982" visible="true"><tag k="addr:housenumber" v="204"/><tag k="addr:postcode" v="97213"/><tag k="addr:city" v="Portland"/><tag k="addr:street" v="Northeast 80th Avenue"/></node>
<node id="-52" lat="45.523082991" lon="-122.5809873" visible="true"><tag k="addr:housenumber" v="22"/><tag k="addr:postcode" v="97213"/><tag k="addr:city" v="Portland"/><tag k="addr:street" v="Northeast 80th Avenue"/></node>
<node id="-53" lat="45.525379255" lon="-122.579657031" visible="true"><tag k="addr:housenumber" v="302"/><tag k="addr:postcode" v="97213"/><tag k="addr:city" v="Portland"/><tag k="addr:street" v="Northeast 81st Avenue"/></node>
<node id="-54" lat="45.525381358" lon="-122.579666084" visible="true"><tag k="addr:housenumber" v="304"/><tag k="addr:postcode" v="97213"/><tag k="addr:city" v="Portland"/><tag k="addr:street" v="Northeast 81st Avenue"/></node>
<node id="-55" lat="45.525377395" lon="-122.579660759" visible="true"><tag k="addr:housenumber" v="306"/><tag k="addr:postcode" v="97213"/><tag k="addr:city" v="Portland"/><tag k="addr:street" v="Northeast 81st Avenue"/></node>
<node id="-56" lat="45.525383528" lon="-122.579664191" visible="true"><tag k="addr:housenumber" v="308"/><tag k="addr:postcode" v="97213"/><tag k="addr:city" v="Portland"/><tag k="addr:street" v="Northeast 81st Avenue"/></node>
<node id="-57" lat="45.525382769" lon="-122.579663556" visible="true"><tag k="addr:housenumber" v="310"/><tag k="addr:postcode" v="97213"/><tag k="addr:city" v="Portland"/><tag k="addr:street" v="Northeast 81st Avenue"/></node>
<node id="-58" lat="45.525377607" lon="-122.579658002" visible="true"><tag k="addr:housenumber" v="312"/><tag k="addr:postcode" v="97213"/><tag k="addr:city" v="Portland"/><tag k="addr:street" v="Northeast 81st Avenue"/></node>
<node id="-59" lat="45.525382479" lon="-122.579659341" visible="true"><tag k="addr:housenumber" v="314"/><tag k="addr:postcode" v="97213"/><tag k="addr:city" v="Portland"/><tag k="addr:street" v="Northeast 81st Avenue"/></node>
<node id="-60" lat="45.52537611" lon="-122.579657913" visible="true"><tag k="addr:housenumber" v="316"/><tag k="addr:postcode" v="97213"/><tag k="addr:city" v="Portland"/><tag k="addr:street" v="Northeast 81st Avenue"/></node>
<node id="-61" lat="45.525382354" lon="-122.579662125" visible="true"><tag k="addr:housenumber" v="318"/><tag k="addr:postcode" v="97213"/><tag k="addr:city" v="Portland"/><tag k="addr:street" v="Northeast 81st Avenue"/></node>
<node id="-62" lat="45.519413152" lon="-122.580196094" visible="true"><tag k="addr:housenumber" v="414"/><tag k="addr:postcode" v="97213"/><tag k="addr:city" v="Portland"/><tag k="addr:street" v="Northeast 81st Avenue"/></node>
<node id="-63" lat="45.519417487" lon="-122.580193121" visible="true"><tag k="addr:housenumber" v="418"/><tag k="addr:postcode" v="97213"/><tag k="addr:city" v="Portland"/><tag k="addr:street" v="Northeast 81st Avenue"/></node>
<node id="-64" lat="45.526013538" lon="-122.57973634" visible="true"><tag k="addr:housenumber" v="425"/><tag k="addr:postcode" v="97213"/><tag k="addr:city" v="Portland"/><tag k="addr:street" v="Northeast 81st Avenue"/></node>
<node id="-65" lat="45.526006269" lon="-122.579738301" visible="true"><tag k="addr:housenumber" v="426"/><tag k="addr:postcode" v="97213"/><tag k="addr:city" v="Portland"/><tag k="addr:street" v="Northeast 81st Avenue"/></node>
<node id="-66" lat="45.526011679" lon="-122.579736663" visible="true"><tag k="addr:housenumber" v="428"/><tag k="addr:postcode" v="97213"/><tag k="addr:city" v="Portland"/><tag k="addr:street" v="Northeast 81st Avenue"/></node>
<node id="-67" lat="45.523358276" lon="-122.580888288" visible="true"><tag k="addr:housenumber" v="8028"/><tag k="addr:postcode" v="97213"/><tag k="addr:city" v="Portland"/><tag k="addr:street" v="Northeast Couch Street"/></node>
<node id="-68" lat="45.523352898" lon="-122.580886124" visible="true"><tag k="addr:housenumber" v="8030"/><tag k="addr:postcode" v="97213"/><tag k="addr:city" v="Portland"/><tag k="addr:street" v="Northeast Couch Street"/></node>
<node id="-69" lat="45.523358033" lon="-122.580704181" visible="true"><tag k="addr:housenumber" v="8034"/><tag k="addr:postcode" v="97213"/><tag k="addr:city" v="Portland"/><tag k="addr:street" v="Northeast Couch Street"/></node>
<node id="-70" lat="45.523360662" lon="-122.580696445" visible="true"><tag k="addr:housenumber" v="8036"/><tag k="addr:postcode" v="97213"/><tag k="addr:city" v="Portland"/><tag k="addr:street" v="Northeast Couch Street"/></node>
<node id="-71" lat="45.524794977" lon="-122.589176148" visible="true"><tag k="addr:housenumber" v="7125"/><tag k="addr:postcode" v="97213"/><tag k="addr:city" v="Portland"/><tag k="addr:street" v="Northeast Everett Street"/></node>
<node id="-72" lat="45.524788606" lon="-122.585074704" visible="true"><tag k="addr:housenumber" v="7531"/><tag k="addr:postcode" v="97213"/><tag k="addr:city" v="Portland"/><tag k="addr:street" v="Northeast Everett Street"/></node>
<node id="-73" lat="45.524784545" lon="-122.585076114" visible="true"><tag k="addr:housenumber" v="7535"/><tag k="addr:postcode" v="97213"/><tag k="addr:city" v="Portland"/><tag k="addr:street" v="Northeast Everett Street"/></node>
<node id="-74" lat="45.524497226" lon="-122.584359133" visible="true"><tag k="addr:housenumber" v="7606"/><tag k="addr:postcode" v="97213"/><tag k="addr:city" v="Portland"/><tag k="addr:street" v="Northeast Everett Street"/></node>
<node id="-75" lat="45.524495048" lon="-122.584365796" visible="true"><tag k="addr:housenumber" v="7610"/><tag k="addr:postcode" v="97213"/><tag k="addr:city" v="Portland"/><tag k="addr:street" v="Northeast Everett Street"/></node>
<node id="-76" lat="45.524499712" lon="-122.584365684" visible="true"><tag k="addr:housenumber" v="7612"/><tag k="addr:postcode" v="97213"/><tag k="addr:city" v="Portland"/><tag k="addr:street" v="Northeast Everett Street"/></node>
<node id="-77" lat="45.524500878" lon="-122.584362384" visible="true"><tag k="addr:housenumber" v="7616"/><tag k="addr:postcode" v="97213"/><tag k="addr:city" v="Portland"/><tag k="addr:street" v="Northeast Everett Street"/></node>
<node id="-78" lat="45.524496416" lon="-122.584366568" visible="true"><tag k="addr:housenumber" v="7618"/><tag k="addr:postcode" v="97213"/><tag k="addr:city" v="Portland"/><tag k="addr:street" v="Northeast Everett Street"/></node>
<node id="-79" lat="45.524435684" lon="-122.582798289" visible="true"><tag k="addr:housenumber" v="7822"/><tag k="addr:postcode" v="97213"/><tag k="addr:city" v="Portland"/><tag k="addr:street" v="Northeast Everett Street"/></node>
<node id="-80" lat="45.524438278" lon="-122.582793388" visible="true"><tag k="addr:housenumber" v="7824"/><tag k="addr:postcode" v="97213"/><tag k="addr:city" v="Portland"/><tag k="addr:street" v="Northeast Everett Street"/></node>
<node id="-81" lat="45.524441834" lon="-122.582796331" visible="true"><tag k="addr:housenumber" v="7826"/><tag k="addr:postcode" v="97213"/><tag k="addr:city" v="Portland"/><tag k="addr:street" v="Northeast Everett Street"/></node>
<node id="-82" lat="45.52444082" lon="-122.582792898" visible="true"><tag k="addr:housenumber" v="7828"/><tag k="addr:postcode" v="97213"/><tag k="addr:city" v="Portland"/><tag k="addr:street" v="Northeast Everett Street"/></node>
<node id="-83" lat="45.525824715" lon="-122.580472015" visible="true"><tag k="addr:housenumber" v="8023"/><tag k="addr:postcode" v="97213"/><tag k="addr:city" v="Portland"/><tag k="addr:street" v="Northeast Flanders Street"/></node>
<node id="-84" lat="45.5258317" lon="-122.580472802" visible="true"><tag k="addr:housenumber" v="8025"/><tag k="addr:postcode" v="97213"/><tag k="addr:city" v="Portland"/><tag k="addr:street" v="Northeast Flanders Street"/></node>
<node id="-85" lat="45.525833233" lon="-122.580471482" visible="true"><tag k="addr:housenumber" v="8027"/><tag k="addr:postcode" v="97213"/><tag k="addr:city" v="Portland"/><tag k="addr:street" v="Northeast Flanders Street"/></node>
<node id="-86" lat="45.525827245" lon="-122.580466974" visible="true"><tag k="addr:housenumber" v="8031"/><tag k="addr:postcode" v="97213"/><tag k="addr:city" v="Portland"/><tag k="addr:street" v="Northeast Flanders Street"/></node>
<node id="-87" lat="45.525826104" lon="-122.580466907" visible="true"><tag k="addr:housenumber" v="8033"/><tag k="addr:postcode" v="97213"/><tag k="addr:city" v="Portland"/><tag k="addr:street" v="Northeast Flanders Street"/></node>
<node id="-88" lat="45.525827648" lon="-122.580474713" visible="true"><tag k="addr:housenumber" v="8035"/><tag k="addr:postcode" v="97213"/><tag k="addr:city" v="Portland"/><tag k="addr:street" v="Northeast Flanders Street"/></node>
<node id="-89" lat="45.52582335" lon="-122.580470541" visible="true"><tag k="addr:housenumber" v="8037"/><tag k="addr:postcode" v="97213"/><tag k="addr:city" v="Portland"/><tag k="addr:street" v="Northeast Flanders Street"/></node>
<node id="-90" lat="45.525823279" lon="-122.580466768" visible="true"><tag k="addr:housenumber" v="8039"/><tag k="addr:postcode" v="97213"/><tag k="addr:city" v="Portland"/><tag k="addr:street" v="Northeast Flanders Street"/></node>
<node id="-91" lat="45.525830819" lon="-122.580472217" visible="true"><tag k="addr:housenumber" v="8041"/><tag k="addr:postcode" v="97213"/><tag k="addr:city" v="Portland"/><tag k="addr:street" v="Northeast Flanders Street"/></node>
<node id="-92" lat="45.525826754" lon="-122.580469832" visible="true"><tag k="addr:housenumber" v="8043"/><tag k="addr:postcode" v="97213"/><tag k="addr:city" v="Portland"/><tag k="addr:street" v="Northeast Flanders Street"/></node>
<node id="-93" lat="45.525827853" lon="-122.580473241" visible="true"><tag k="addr:housenumber" v="8045"/><tag k="addr:postcode" v="97213"/><tag k="addr:city" v="Portland"/><tag k="addr:street" v="Northeast Flanders Street"/></node>
<node id="-94" lat="45.525828766" lon="-122.580469138" visible="true"><tag k="addr:housenumber" v="8047"/><tag k="addr:postcode" v="97213"/><tag k="addr:city" v="Portland"/><tag k="addr:street" v="Northeast Flanders Street"/></node>
<node id="-95" lat="45.525826662" lon="-122.580466005" visible="true"><tag k="addr:housenumber" v="8049"/><tag k="addr:postcode" v="97213"/><tag k="addr:city" v="Portland"/><tag k="addr:street" v="Northeast Flanders Street"/></node>
<node id="-96" lat="45.525826364" lon="-122.580471902" visible="true"><tag k="addr:housenumber" v="8051"/><tag k="addr:postcode" v="97213"/><tag k="addr:city" v="Portland"/><tag k="addr:street" v="Northeast Flanders Street"/></node>
<node id="-97" lat="45.525825272" lon="-122.580469545" visible="true"><tag k="addr:housenumber" v="8053"/><tag k="addr:postcode" v="97213"/><tag k="addr:city" v="Portland"/><tag k="addr:street" v="Northeast Flanders Street"/></node>
<node id="-98" lat="45.525824569" lon="-122.580471429" visible="true"><tag k="addr:housenumber" v="8055"/><tag k="addr:postcode" v="97213"/><tag k="addr:city" v="Portland"/><tag k="addr:street" v="Northeast Flanders Street"/></node>
<node id="-99" lat="45.525831574" lon="-122.580465147" visible="true"><tag k="addr:housenumber" v="8057"/><tag k="addr:postcode" v="97213"/><tag k="addr:city" v="Portland"/><tag k="addr:street" v="Northeast Flanders Street"/></node>
<node id="-100" lat="45.525828903" lon="-122.580466609" visible="true"><tag k="addr:housenumber" v="8059"/><tag k="addr:postcode" v="97213"/><tag k="addr:city" v="Portland"/><tag k="addr:street" v="Northeast Flanders Street"/></node>
<node id="-101" lat="45.525826505" lon="-122.580465268" visible="true"><tag k="addr:housenumber" v="8061"/><tag k="addr:postcode" v="97213"/><tag k="addr:city" v="Portland"/><tag k="addr:street" v="Northeast Flanders Street"/></node>
<node id="-102" lat="45.52582955" lon="-122.580468807" visible="true"><tag k="addr:housenumber" v="8063"/><tag k="addr:postcode" v="97213"/><tag k="addr:city" v="Portland"/><tag k="addr:street" v="Northeast Flanders Street"/></node>
<node id="-103" lat="45.52583096" lon="-122.580474218" visible="true"><tag k="addr:housenumber" v="8065"/><tag k="addr:postcode" v="97213"/><tag k="addr:city" v="Portland"/><tag k="addr:street" v="Northeast Flanders Street"/></node>
<node id="-104" lat="45.525829614" lon="-122.580467107" visible="true"><tag k="addr:housenumber" v="8067"/><tag k="addr:postcode" v="97213"/><tag k="addr:city" v="Portland"/><tag k="addr:street" v="Northeast Flanders Street"/></node>
<node id="-105" lat="45.525828376" lon="-122.580468523" visible="true"><tag k="addr:housenumber" v="8069"/><tag k="addr:postcode" v="97213"/><tag k="addr:city" v="Portland"/><tag k="addr:street" v="Northeast Flanders Street"/></node>
<node id="-106" lat="45.526226824" lon="-122.58874782" visible="true"><tag k="addr:housenumber" v="7202"/><tag k="addr:postcode" v="97213"/><tag k="addr:city" v="Portland"/><tag k="addr:street" v="Northeast Glisan Street"/></node>
<node id="-107" lat="45.526221044" lon="-122.588749806" visible="true"><tag k="addr:housenumber" v="7204"/><tag k="addr:postcode" v="97213"/><tag k="addr:city" v="Portland"/><tag k="addr:street" v="Northeast Glisan Street"/></node>
<node id="-108" lat="45.526214106" lon="-122.588527173" visible="true"><tag k="addr:housenumber" v="7210"/><tag k="addr:postcode" v="97213"/><tag k="addr:city" v="Portland"/><tag k="addr:street" v="Northeast Glisan Street"/></node>
<node id="-109" lat="45.526222084" lon="-122.588519509" visible="true"><tag k="addr:housenumber" v="7212"/><tag k="addr:postcode" v="97213"/><tag k="addr:city" v="Portland"/><tag k="addr:street" v="Northeast Glisan Street"/></node>
<node id="-110" lat="45.526271317" lon="-122.587682567" visible="true"><tag k="addr:housenumber" v="7300"/><tag k="addr:postcode" v="97213"/><tag k="addr:city" v="Portland"/><tag k="addr:street" v="Northeast Glisan Street"/></node>
<node id="-111" lat="45.526266248" lon="-122.587685986" visible="true"><tag k="addr:housenumber" v="7332"/><tag k="addr:postcode" v="97213"/><tag k="addr:city" v="Portland"/><tag k="addr:street" v="Northeast Glisan Street"/></node>
<node id="-112" lat="45.526260543" lon="-122.585206993" visible="true"><tag k="addr:housenumber" v="7530"/><tag k="addr:postcode" v="97213"/><tag k="addr:city" v="Portland"/><tag k="addr:street" v="Northeast Glisan Street"/></node>
<node id="-113" lat="45.526233644" lon="-122.582779787" visible="true"><tag k="addr:housenumber" v="7830"/><tag k="addr:postcode" v="97213"/><tag k="addr:city" v="Portland"/><tag k="addr:street" v="Northeast Glisan Street"/></node>
<node id="-114" lat="45.526227054" lon="-122.582780188" visible="true"><tag k="addr:housenumber" v="7838"/><tag k="addr:postcode" v="97213"/><tag k="addr:city" v="Portland"/><tag k="addr:street" v="Northeast Glisan Street"/></node>
<node id="-115" lat="45.526260224" lon="-122.581157727" visible="true"><tag k="addr:housenumber" v="8000"/><tag k="addr:postcode" v="97213"/><tag k="addr:city" v="Portland"/><tag k="addr:street" v="Northeast Glisan Street"/></node>
<node id="-116" lat="45.52626088" lon="-122.581159199" visible="true"><tag k="addr:housenumber" v="8012"/><tag k="addr:postcode" v="97213"/><tag k="addr:city" v="Portland"/><tag k="addr:street" v="Northeast Glisan Street"/></node>
<node id="-117" lat="45.526253884" lon="-122.581157894" visible="true"><tag k="addr:housenumber" v="8014"/><tag k="addr:postcode" v="97213"/><tag k="addr:city" v="Portland"/><tag k="addr:street" v="Northeast Glisan Street"/></node>
<node id="-118" lat="45.520914318" lon="-122.588684815" visible="true"><tag k="addr:housenumber" v="202"/><tag k="addr:postcode" v="97215"/><tag k="addr:city" v="Portland"/><tag k="addr:street" v="Southeast 72nd Avenue"/></node>
<node id="-119" lat="45.520916249" lon="-122.588689299" visible="true"><tag k="addr:housenumber" v="206"/><tag k="addr:postcode" v="97215"/><tag k="addr:city" v="Portland"/><tag k="addr:street" v="Southeast 72nd Avenue"/></node>
<node id="-120" lat="45.520812495" lon="-122.587490075" visible="true"><tag k="addr:housenumber" v="208"/><tag k="addr:postcode" v="97215"/><tag k="addr:city" v="Portland"/><tag k="addr:street" v="Southeast 73rd Avenue"/></node>
<node id="-121" lat="45.520583308" lon="-122.588111748" visible="true"><tag k="addr:housenumber" v="209"/><tag k="addr:postcode" v="97215"/><tag k="addr:city" v="Portland"/><tag k="addr:street" v="Southeast 73rd Avenue"/></node>
<node id="-122" lat="45.520809885" lon="-122.58748852" visible="true"><tag k="addr:housenumber" v="210"/><tag k="addr:postcode" v="97215"/><tag k="addr:city" v="Portland"/><tag k="addr:street" v="Southeast 73rd Avenue"/></node>
<node id="-123" lat="45.520714294" lon="-122.588098852" visible="true"><tag k="addr:housenumber" v="211"/><tag k="addr:postcode" v="97215"/><tag k="addr:city" v="Portland"/><tag k="addr:street" v="Southeast 73rd Avenue"/></node>
<node id="-124" lat="45.520663624" lon="-122.588113045" visible="true"><tag k="addr:housenumber" v="213"/><tag k="addr:postcode" v="97215"/><tag k="addr:city" v="Portland"/><tag k="addr:street" v="Southeast 73rd Avenue"/></node>
<node id="-125" lat="45.520652483" lon="-122.587481042" visible="true"><tag k="addr:housenumber" v="214"/><tag k="addr:postcode" v="97215"/><tag k="addr:city" v="Portland"/><tag k="addr:street" v="Southeast 73rd Avenue"/></node>
<node id="-126" lat="45.520702977" lon="-122.588004009" visible="true"><tag k="addr:housenumber" v="215"/><tag k="addr:postcode" v="97215"/><tag k="addr:city" v="Portland"/><tag k="addr:street" v="Southeast 73rd Avenue"/></node>
<node id="-127" lat="45.52065108" lon="-122.587477471" visible="true"><tag k="addr:housenumber" v="216"/><tag k="addr:postcode" v="97215"/><tag k="addr:city" v="Portland"/><tag k="addr:street" v="Southeast 73rd Avenue"/></node>
<node id="-128" lat="45.520452552" lon="-122.587668277" visible="true"><tag k="addr:housenumber" v="218"/><tag k="addr:postcode" v="97215"/><tag k="addr:city" v="Portland"/><tag k="addr:street" v="Southeast 73rd Avenue"/></node>
<node id="-129" lat="45.520446734" lon="-122.587673273" visible="true"><tag k="addr:housenumber" v="220"/><tag k="addr:postcode" v="97215"/><tag k="addr:city" v="Portland"/><tag k="addr:street" v="Southeast 73rd Avenue"/></node>
<node id="-130" lat="45.520445469" lon="-122.587665144" visible="true"><tag k="addr:housenumber" v="222"/><tag k="addr:postcode" v="97215"/><tag k="addr:city" v="Portland"/><tag k="addr:street" v="Southeast 73rd Avenue"/></node>
<node id="-131" lat="45.520445478" lon="-122.587667316" visible="true"><tag k="addr:housenumber" v="224"/><tag k="addr:postcode" v="97215"/><tag k="addr:city" v="Portland"/><tag k="addr:street" v="Southeast 73rd Avenue"/></node>
<node id="-132" lat="45.521329428" lon="-122.587054313" visible="true"><tag k="addr:housenumber" v="143"/><tag k="addr:postcode" v="97215"/><tag k="addr:city" v="Portland"/><tag k="addr:street" v="Southeast 74th Avenue"/></node>
<node id="-133" lat="45.52133449" lon="-122.587049903" visible="true"><tag k="addr:housenumber" v="145"/><tag k="addr:postcode" v="97215"/><tag k="addr:city" v="Portland"/><tag k="addr:street" v="Southeast 74th Avenue"/></node>
<node id="-134" lat="45.519616346" lon="-122.585645617" visible="true"><tag k="addr:housenumber" v="402"/><tag k="addr:postcode" v="97215"/><tag k="addr:city" v="Portland"/><tag k="addr:street" v="Southeast 75th Avenue"/></node>
<node id="-135" lat="45.519618338" lon="-122.58564341" visible="true"><tag k="addr:housenumber" v="406"/><tag k="addr:postcode" v="97215"/><tag k="addr:city" v="Portland"/><tag k="addr:street" v="Southeast 75th Avenue"/></node>
<node id="-136" lat="45.519411153" lon="-122.586055477" visible="true"><tag k="addr:housenumber" v="415"/><tag k="addr:postcode" v="97215"/><tag k="addr:city" v="Portland"/><tag k="addr:street" v="Southeast 75th Avenue"/></node>
<node id="-137" lat="45.519407623" lon="-122.586052459" visible="true"><tag k="addr:housenumber" v="425"/><tag k="addr:postcode" v="97215"/><tag k="addr:city" v="Portland"/><tag k="addr:street" v="Southeast 75th Avenue"/></node>
<node id="-138" lat="45.519729337" lon="-122.584368636" visible="true"><tag k="addr:housenumber" v="336"/><tag k="addr:postcode" v="97215"/><tag k="addr:city" v="Portland"/><tag k="addr:street" v="Southeast 76th Avenue"/></node>
<node id="-139" lat="45.519728429" lon="-122.584373521" visible="true"><tag k="addr:housenumber" v="338"/><tag k="addr:postcode" v="97215"/><tag k="addr:city" v="Portland"/><tag k="addr:street" v="Southeast 76th Avenue"/></node>
<node id="-140" lat="45.519334797" lon="-122.585123036" visible="true"><tag k="addr:housenumber" v="415"/><tag k="addr:postcode" v="97215"/><tag k="addr:city" v="Portland"/><tag k="addr:street" v="Southeast 76th Avenue"/></node>
<node id="-141" lat="45.519335728" lon="-122.585124109" visible="true"><tag k="addr:housenumber" v="417"/><tag k="addr:postcode" v="97215"/><tag k="addr:city" v="Portland"/><tag k="addr:street" v="Southeast 76th Avenue"/></node>
<node id="-142" lat="45.519943785" lon="-122.583884709" visible="true"><tag k="addr:housenumber" v="319"/><tag k="addr:postcode" v="97215"/><tag k="addr:city" v="Portland"/><tag k="addr:street" v="Southeast 78th Avenue"/></node>
<node id="-143" lat="45.519943454" lon="-122.583888154" visible="true"><tag k="addr:housenumber" v="321"/><tag k="addr:postcode" v="97215"/><tag k="addr:city" v="Portland"/><tag k="addr:street" v="Southeast 78th Avenue"/></node>
<node id="-144" lat="45.519828016" lon="-122.583884115" visible="true"><tag k="addr:housenumber" v="323"/><tag k="addr:postcode" v="97215"/><tag k="addr:city" v="Portland"/><tag k="addr:street" v="Southeast 78th Avenue"/></node>
<node id="-145" lat="45.519828749" lon="-122.583881126" visible="true"><tag k="addr:housenumber" v="325"/><tag k="addr:postcode" v="97215"/><tag k="addr:city" v="Portland"/><tag k="addr:street" v="Southeast 78th Avenue"/></node>
<node id="-146" lat="45.522135144" lon="-122.583158497" visible="true"><tag k="addr:housenumber" v="42"/><tag k="addr:postcode" v="97215"/><tag k="addr:city" v="Portland"/><tag k="addr:street" v="Southeast 78th Avenue"/></node>
<node id="-147" lat="45.522132814" lon="-122.58315494" visible="true"><tag k="addr:housenumber" v="50"/><tag k="addr:postcode" v="97215"/><tag k="addr:city" v="Portland"/><tag k="addr:street" v="Southeast 78th Avenue"/></node>
<node id="-148" lat="45.520646401" lon="-122.582746276" visible="true"><tag k="addr:housenumber" v="227"/><tag k="addr:postcode" v="97215"/><tag k="addr:city" v="Portland"/><tag k="addr:street" v="Southeast 79th Avenue"/></node>
<node id="-149" lat="45.520649182" lon="-122.582742934" visible="true"><tag k="addr:housenumber" v="229"/><tag k="addr:postcode" v="97215"/><tag k="addr:city" v="Portland"/><tag k="addr:street" v="Southeast 79th Avenue"/></node>
<node id="-150" lat="45.520644764" lon="-122.58274344" visible="true"><tag k="addr:housenumber" v="231"/><tag k="addr:postcode" v="97215"/><tag k="addr:city" v="Portland"/><tag k="addr:street" v="Southeast 79th Avenue"/></node>
<node id="-151" lat="45.521760216" lon="-122.581804706" visible="true"><tag k="addr:housenumber" v="111"/><tag k="addr:postcode" v="97215"/><tag k="addr:city" v="Portland"/><tag k="addr:street" v="Southeast 80th Avenue"/></node>
<node id="-152" lat="45.521755639" lon="-122.581805723" visible="true"><tag k="addr:housenumber" v="113"/><tag k="addr:postcode" v="97215"/><tag k="addr:city" v="Portland"/><tag k="addr:street" v="Southeast 80th Avenue"/></node>
<node id="-153" lat="45.521754312" lon="-122.581800071" visible="true"><tag k="addr:housenumber" v="115"/><tag k="addr:postcode" v="97215"/><tag k="addr:city" v="Portland"/><tag k="addr:street" v="Southeast 80th Avenue"/></node>
<node id="-154" lat="45.521695829" lon="-122.581167202" visible="true"><tag k="addr:housenumber" v="116"/><tag k="addr:postcode" v="97215"/><tag k="addr:city" v="Portland"/><tag k="addr:street" v="Southeast 80th Avenue"/></node>
<node id="-155" lat="45.521756718" lon="-122.581800099" visible="true"><tag k="addr:housenumber" v="117"/><tag k="addr:postcode" v="97215"/><tag k="addr:city" v="Portland"/><tag k="addr:street" v="Southeast 80th Avenue"/></node>
<node id="-156" lat="45.521692471" lon="-122.581161165" visible="true"><tag k="addr:housenumber" v="118"/><tag k="addr:postcode" v="97215"/><tag k="addr:city" v="Portland"/><tag k="addr:street" v="Southeast 80th Avenue"/></node>
<node id="-157" lat="45.521693434" lon="-122.581161375" visible="true"><tag k="addr:housenumber" v="120"/><tag k="addr:postcode" v="97215"/><tag k="addr:city" v="Portland"/><tag k="addr:street" v="Southeast 80th Avenue"/></node>
<node id="-158" lat="45.521689166" lon="-122.581162936" visible="true"><tag k="addr:housenumber" v="122"/><tag k="addr:postcode" v="97215"/><tag k="addr:city" v="Portland"/><tag k="addr:street" v="Southeast 80th Avenue"/></node>
<node id="-159" lat="45.521554556" lon="-122.581160379" visible="true"><tag k="addr:housenumber" v="126"/><tag k="addr:postcode" v="97215"/><tag k="addr:city" v="Portland"/><tag k="addr:street" v="Southeast 80th Avenue"/></node>
<node id="-160" lat="45.521551679" lon="-122.581161876" visible="true"><tag k="addr:housenumber" v="128"/><tag k="addr:postcode" v="97215"/><tag k="addr:city" v="Portland"/><tag k="addr:street" v="Southeast 80th Avenue"/></node>
<node id="-161" lat="45.521556414" lon="-122.581160612" visible="true"><tag k="addr:housenumber" v="130"/><tag k="addr:postcode" v="97215"/><tag k="addr:city" v="Portland"/><tag k="addr:street" v="Southeast 80th Avenue"/></node>
<node id="-162" lat="45.521559064" lon="-122.581169291" visible="true"><tag k="addr:housenumber" v="132"/><tag k="addr:postcode" v="97215"/><tag k="addr:city" v="Portland"/><tag k="addr:street" v="Southeast 80th Avenue"/></node>
<node id="-163" lat="45.520571735" lon="-122.581757371" visible="true"><tag k="addr:housenumber" v="232"/><tag k="addr:postcode" v="97215"/><tag k="addr:city" v="Portland"/><tag k="addr:street" v="Southeast 80th Avenue"/></node>
<node id="-164" lat="45.52056997" lon="-122.581766801" visible="true"><tag k="addr:housenumber" v="235"/><tag k="addr:postcode" v="97215"/><tag k="addr:city" v="Portland"/><tag k="addr:street" v="Southeast 80th Avenue"/></node>
<node id="-165" lat="45.520062693" lon="-122.581758604" visible="true"><tag k="addr:housenumber" v="305"/><tag k="addr:postcode" v="97215"/><tag k="addr:city" v="Portland"/><tag k="addr:street" v="Southeast 80th Avenue"/></node>
<node id="-166" lat="45.520061845" lon="-122.581763283" visible="true"><tag k="addr:housenumber" v="307"/><tag k="addr:postcode" v="97215"/><tag k="addr:city" v="Portland"/><tag k="addr:street" v="Southeast 80th Avenue"/></node>
<node id="-167" lat="45.520068296" lon="-122.581764121" visible="true"><tag k="addr:housenumber" v="309"/><tag k="addr:postcode" v="97215"/><tag k="addr:city" v="Portland"/><tag k="addr:street" v="Southeast 80th Avenue"/></node>
<node id="-168" lat="45.520061444" lon="-122.581764426" visible="true"><tag k="addr:housenumber" v="311"/><tag k="addr:postcode" v="97215"/><tag k="addr:city" v="Portland"/><tag k="addr:street" v="Southeast 80th Avenue"/></node>
<node id="-169" lat="45.52005892" lon="-122.581758821" visible="true"><tag k="addr:housenumber" v="315"/><tag k="addr:postcode" v="97215"/><tag k="addr:city" v="Portland"/><tag k="addr:street" v="Southeast 80th Avenue"/></node>
<node id="-170" lat="45.52006279" lon="-122.581764104" visible="true"><tag k="addr:housenumber" v="317"/><tag k="addr:postcode" v="97215"/><tag k="addr:city" v="Portland"/><tag k="addr:street" v="Southeast 80th Avenue"/></node>
<node id="-171" lat="45.520060678" lon="-122.581761252" visible="true"><tag k="addr:housenumber" v="319"/><tag k="addr:postcode" v="97215"/><tag k="addr:city" v="Portland"/><tag k="addr:street" v="Southeast 80th Avenue"/></node>
<node id="-172" lat="45.520059106" lon="-122.581768064" visible="true"><tag k="addr:housenumber" v="321"/><tag k="addr:postcode" v="97215"/><tag k="addr:city" v="Portland"/><tag k="addr:street" v="Southeast 80th Avenue"/></node>
<node id="-173" lat="45.519864649" lon="-122.581817669" visible="true"><tag k="addr:housenumber" v="323"/><tag k="addr:postcode" v="97215"/><tag k="addr:city" v="Portland"/><tag k="addr:street" v="Southeast 80th Avenue"/></node>
<node id="-174" lat="45.519864535" lon="-122.581818483" visible="true"><tag k="addr:housenumber" v="325"/><tag k="addr:postcode" v="97215"/><tag k="addr:city" v="Portland"/><tag k="addr:street" v="Southeast 80th Avenue"/></node>
<node id="-175" lat="45.519863804" lon="-122.581823183" visible="true"><tag k="addr:housenumber" v="327"/><tag k="addr:postcode" v="97215"/><tag k="addr:city" v="Portland"/><tag k="addr:street" v="Southeast 80th Avenue"/></node>
<node id="-176" lat="45.519860521" lon="-122.581825527" visible="true"><tag k="addr:housenumber" v="329"/><tag k="addr:postcode" v="97215"/><tag k="addr:city" v="Portland"/><tag k="addr:street" v="Southeast 80th Avenue"/></node>
<node id="-177" lat="45.519577215" lon="-122.581167161" visible="true"><tag k="addr:housenumber" v="404"/><tag k="addr:postcode" v="97215"/><tag k="addr:city" v="Portland"/><tag k="addr:street" v="Southeast 80th Avenue"/></node>
<node id="-178" lat="45.521935043" lon="-122.581163557" visible="true"><tag k="addr:housenumber" v="52"/><tag k="addr:postcode" v="97215"/><tag k="addr:city" v="Portland"/><tag k="addr:street" v="Southeast 80th Avenue"/></node>
<node id="-179" lat="45.5219282" lon="-122.581160275" visible="true"><tag k="addr:housenumber" v="58"/><tag k="addr:postcode" v="97215"/><tag k="addr:city" v="Portland"/><tag k="addr:street" v="Southeast 80th Avenue"/></node>
<node id="-180" lat="45.519812027" lon="-122.580837614" visible="true"><tag k="addr:housenumber" v="333"/><tag k="addr:postcode" v="97215"/><tag k="addr:city" v="Portland"/><tag k="addr:street" v="Southeast 81st Avenue"/></node>
<node id="-181" lat="45.519808535" lon="-122.58084303" visible="true"><tag k="addr:housenumber" v="335"/><tag k="addr:postcode" v="97215"/><tag k="addr:city" v="Portland"/><tag k="addr:street" v="Southeast 81st Avenue"/></node>
<node id="-182" lat="45.51980394" lon="-122.580837702" visible="true"><tag k="addr:housenumber" v="337"/><tag k="addr:postcode" v="97215"/><tag k="addr:city" v="Portland"/><tag k="addr:street" v="Southeast 81st Avenue"/></node>
<node id="-183" lat="45.519804281" lon="-122.580843288" visible="true"><tag k="addr:housenumber" v="339"/><tag k="addr:postcode" v="97215"/><tag k="addr:city" v="Portland"/><tag k="addr:street" v="Southeast 81st Avenue"/></node>
<node id="-184" lat="45.519813635" lon="-122.580842857" visible="true"><tag k="addr:housenumber" v="341"/><tag k="addr:postcode" v="97215"/><tag k="addr:city" v="Portland"/><tag k="addr:street" v="Southeast 81st Avenue"/></node>
<node id="-185" lat="45.519811381" lon="-122.580839082" visible="true"><tag k="addr:housenumber" v="343"/><tag k="addr:postcode" v="97215"/><tag k="addr:city" v="Portland"/><tag k="addr:street" v="Southeast 81st Avenue"/></node>
<node id="-186" lat="45.519811415" lon="-122.580837997" visible="true"><tag k="addr:housenumber" v="345"/><tag k="addr:postcode" v="97215"/><tag k="addr:city" v="Portland"/><tag k="addr:street" v="Southeast 81st Avenue"/></node>
<node id="-187" lat="45.519811324" lon="-122.580842352" visible="true"><tag k="addr:housenumber" v="347"/><tag k="addr:postcode" v="97215"/><tag k="addr:city" v="Portland"/><tag k="addr:street" v="Southeast 81st Avenue"/></node>
<node id="-188" lat="45.519810838" lon="-122.580843037" visible="true"><tag k="addr:housenumber" v="349"/><tag k="addr:postcode" v="97215"/><tag k="addr:city" v="Portland"/><tag k="addr:street" v="Southeast 81st Avenue"/></node>
<node id="-189" lat="45.519804235" lon="-122.580842531" visible="true"><tag k="addr:housenumber" v="351"/><tag k="addr:postcode" v="97215"/><tag k="addr:city" v="Portland"/><tag k="addr:street" v="Southeast 81st Avenue"/></node>
<node id="-190" lat="45.519412606" lon="-122.580192107" visible="true"><tag k="addr:housenumber" v="410"/><tag k="addr:postcode" v="97215"/><tag k="addr:city" v="Portland"/><tag k="addr:street" v="Southeast 81st Avenue"/></node>
<node id="-191" lat="45.519346125" lon="-122.580955847" visible="true"><tag k="addr:housenumber" v="411"/><tag k="addr:postcode" v="97215"/><tag k="addr:city" v="Portland"/><tag k="addr:street" v="Southeast 81st Avenue"/></node>
<node id="-192" lat="45.51941065" lon="-122.580198545" visible="true"><tag k="addr:housenumber" v="414"/><tag k="addr:postcode" v="97215"/><tag k="addr:city" v="Portland"/><tag k="addr:street" v="Southeast 81st Avenue"/></node>
<node id="-193" lat="45.519416254" lon="-122.580198339" visible="true"><tag k="addr:housenumber" v="418"/><tag k="addr:postcode" v="97215"/><tag k="addr:city" v="Portland"/><tag k="addr:street" v="Southeast 81st Avenue"/></node>
<node id="-194" lat="45.519347977" lon="-122.580949744" visible="true"><tag k="addr:housenumber" v="419"/><tag k="addr:postcode" v="97215"/><tag k="addr:city" v="Portland"/><tag k="addr:street" v="Southeast 81st Avenue"/></node>
<node id="-195" lat="45.51941452" lon="-122.580193394" visible="true"><tag k="addr:housenumber" v="422"/><tag k="addr:postcode" v="97215"/><tag k="addr:city" v="Portland"/><tag k="addr:street" v="Southeast 81st Avenue"/></node>
<node id="-196" lat="45.521582195" lon="-122.585549353" visible="true"><tag k="addr:housenumber" v="7507"/><tag k="addr:postcode" v="97215"/><tag k="addr:city" v="Portland"/><tag k="addr:street" v="Southeast Ash Street"/></node>
<node id="-197" lat="45.52158444" lon="-122.585553282" visible="true"><tag k="addr:housenumber" v="7509"/><tag k="addr:postcode" v="97215"/><tag k="addr:city" v="Portland"/><tag k="addr:street" v="Southeast Ash Street"/></node>
<node id="-198" lat="45.521586593" lon="-122.58555538" visible="true"><tag k="addr:housenumber" v="7511"/><tag k="addr:postcode" v="97215"/><tag k="addr:city" v="Portland"/><tag k="addr:street" v="Southeast Ash Street"/></node>
<node id="-199" lat="45.521352637" lon="-122.582039916" visible="true"><tag k="addr:housenumber" v="7913"/><tag k="addr:postcode" v="97215"/><tag k="addr:city" v="Portland"/><tag k="addr:street" v="Southeast Ash Street"/></node>
<node id="-200" lat="45.521356022" lon="-122.58203492" visible="true"><tag k="addr:housenumber" v="7915"/><tag k="addr:postcode" v="97215"/><tag k="addr:city" v="Portland"/><tag k="addr:street" v="Southeast Ash Street"/></node>
<node id="-201" lat="45.52626442" lon="-122.585209449" visible="true"><tag k="addr:housenumber" v="7530"/><tag k="addr:postcode" v="97215"/><tag k="addr:city" v="Portland"/><tag k="addr:street" v="Southeast Stark Street"/></node>
<node id="-202" lat="45.519581355" lon="-122.581173014" visible="true"><tag k="addr:housenumber" v="8009"/><tag k="addr:postcode" v="97215"/><tag k="addr:city" v="Portland"/><tag k="addr:street" v="Southeast Stark Street"/></node>
<node id="-203" lat="45.519343078" lon="-122.58095289" visible="true"><tag k="addr:housenumber" v="8037"/><tag k="addr:postcode" v="97215"/><tag k="addr:city" v="Portland"/><tag k="addr:street" v="Southeast Stark Street"/></node>
<node id="-204" lat="45.519417827" lon="-122.580191986" visible="true"><tag k="addr:housenumber" v="8115"/><tag k="addr:postcode" v="97215"/><tag k="addr:city" v="Portland"/><tag k="addr:street" v="Southeast Stark Street"/></node>
<node id="-205" lat="45.519418553" lon="-122.580201021" visible="true"><tag k="addr:housenumber" v="8119"/><tag k="addr:postcode" v="97215"/><tag k="addr:city" v="Portland"/><tag k="addr:street" v="Southeast Stark Street"/></node>
<node id="-206" lat="45.519405313" lon="-122.579362898" visible="true"><tag k="addr:housenumber" v="8135"/><tag k="addr:postcode" v="97215"/><tag k="addr:city" v="Portland"/><tag k="addr:street" v="Southeast Stark Street"/></node>
<node id="-207" lat="45.519405666" lon="-122.579363143" visible="true"><tag k="addr:housenumber" v="8149"/><tag k="addr:postcode" v="97215"/><tag k="addr:city" v="Portland"/><tag k="addr:street" v="Southeast Stark Street"/></node>
<node id="-208" lat="45.520912537" lon="-122.588688325" visible="true"><tag k="addr:housenumber" v="7201"/><tag k="addr:postcode" v="97215"/><tag k="addr:city" v="Portland"/><tag k="addr:street" v="Southeast Thorburn Street"/></node>
<node id="-209" lat="45.520737607" lon="-122.58845873" visible="true"><tag k="addr:housenumber" v="7221"/><tag k="addr:postcode" v="97215"/><tag k="addr:city" v="Portland"/><tag k="addr:street" v="Southeast Thorburn Street"/></node>
<node id="-210" lat="45.520808187" lon="-122.588463877" visible="true"><tag k="addr:housenumber" v="7223"/><tag k="addr:postcode" v="97215"/><tag k="addr:city" v="Portland"/><tag k="addr:street" v="Southeast Thorburn Street"/></node>
<node id="-211" lat="45.520768584" lon="-122.588345549" visible="true"><tag k="addr:housenumber" v="7225"/><tag k="addr:postcode" v="97215"/><tag k="addr:city" v="Portland"/><tag k="addr:street" v="Southeast Thorburn Street"/></node>
<node id="-212" lat="45.520688905" lon="-122.588341316" visible="true"><tag k="addr:housenumber" v="7227"/><tag k="addr:postcode" v="97215"/><tag k="addr:city" v="Portland"/><tag k="addr:street" v="Southeast Thorburn Street"/></node>
</osm>