<?xml version="1.0"?>
<osm version="0.6" upload="false" generator="uvmogr2osm">
<node id="-1" lat="45.556091498" lon="-122.557429469" visible="true"><tag k="addr:housenumber" v="4536"/><tag k="addr:postcode" v="97220"/><tag k="addr:city" v="Portland"/><tag k="addr:street" v="Northeast 102nd Avenue"/></node>
<node id="-2" lat="45.55609693" lon="-122.55743425" visible="true"><tag k="addr:housenumber" v="4544"/><tag k="addr:postcode" v="97220"/><tag k="addr:city" v="Portland"/><tag k="addr:street" v="Northeast 102nd Avenue"/></node>
<node id="-3" lat="45.557626945" lon="-122.555304239" visible="true"><tag k="addr:housenumber" v="4724"/><tag k="addr:postcode" v="97220"/><tag k="addr:city" v="Portland"/><tag k="addr:street" v="Northeast 104th Avenue"/></node>
<node id="-4" lat="45.557619101" lon="-122.555298753" visible="true"><tag k="addr:housenumber" v="4726"/><tag k="addr:postcode" v="97220"/><tag k="addr:city" v="Portland"/><tag k="addr:street" v="Northeast 104th Avenue"/></node>
<node id="-5" lat="45.558280582" lon="-122.555384345" visible="true"><tag k="addr:housenumber" v="4816"/><tag k="addr:postcode" v="97220"/><tag k="addr:city" v="Portland"/><tag k="addr:street" v="Northeast 104th Avenue"/></node>
<node id="-6" lat="45.558280708" lon="-122.555389638" visible="true"><tag k="addr:housenumber" v="4818"/><tag k="addr:postcode" v="97220"/><tag k="addr:city" v="Portland"/><tag k="addr:street" v="Northeast 104th Avenue"/></node>
<node id="-7" lat="45.558288399" lon="-122.555386213" visible="true"><tag k="addr:housenumber" v="4820"/><tag k="addr:postcode" v="97220"/><tag k="addr:city" v="Portland"/><tag k="addr:street" v="Northeast 104th Avenue"/></node>
<node id="-8" lat="45.55600466" lon="-122.555386039" visible="true"><tag k="addr:housenumber" v="4543"/><tag k="addr:postcode" v="97220"/><tag k="addr:city" v="Portland"/><tag k="addr:street" v="Northeast 105th Avenue"/></node>
<node id="-9" lat="45.556000986" lon="-122.555386162" visible="true"><tag k="addr:housenumber" v="4547"/><tag k="addr:postcode" v="97220"/><tag k="addr:city" v="Portland"/><tag k="addr:street" v="Northeast 105th Avenue"/></node>
<node id="-10" lat="45.556911605" lon="-122.554402612" visible="true"><tag k="addr:housenumber" v="4644"/><tag k="addr:postcode" v="97220"/><tag k="addr:city" v="Portland"/><tag k="addr:street" v="Northeast 105th Avenue"/></node>
<node id="-11" lat="45.556909476" lon="-122.554406341" visible="true"><tag k="addr:housenumber" v="4646"/><tag k="addr:postcode" v="97220"/><tag k="addr:city" v="Portland"/><tag k="addr:street" v="Northeast 105th Avenue"/></node>
<node id="-12" lat="45.556911756" lon="-122.554401719" visible="true"><tag k="addr:housenumber" v="4648"/><tag k="addr:postcode" v="97220"/><tag k="addr:city" v="Portland"/><tag k="addr:street" v="Northeast 105th Avenue"/></node>
<node id="-13" lat="45.556910058" lon="-122.554406967" visible="true"><tag k="addr:housenumber" v="4650"/><tag k="addr:postcode" v="97220"/><tag k="addr:city" v="Portland"/><tag k="addr:street" v="Northeast 105th Avenue"/></node>
<node id="-14" lat="45.558551903" lon="-122.554503896" visible="true"><tag k="addr:housenumber" v="4840"/><tag k="addr:postcode" v="97220"/><tag k="addr:city" v="Portland"/><tag k="addr:street" v="Northeast 105th Avenue"/></node>
<node id="-15" lat="45.558552606" lon="-122.554497091" visible="true"><tag k="addr:housenumber" v="4848"/><tag k="addr:postcode" v="97220"/><tag k="addr:city" v="Portland"/><tag k="addr:street" v="Northeast 105th Avenue"/></node>
<node id="-16" lat="45.557794274" lon="-122.551339519" visible="true"><tag k="addr:housenumber" v="4800"/><tag k="addr:postcode" v="97220"/><tag k="addr:city" v="Portland"/><tag k="addr:street" v="Northeast 108th Avenue"/></node>
<node id="-17" lat="45.557790813" lon="-122.551336818" visible="true"><tag k="addr:housenumber" v="4808"/><tag k="addr:postcode" v="97220"/><tag k="addr:city" v="Portland"/><tag k="addr:street" v="Northeast 108th Avenue"/></node>
<node id="-18" lat="45.556011216" lon="-122.550344988" visible="true"><tag k="addr:housenumber" v="4544"/><tag k="addr:postcode" v="97220"/><tag k="addr:city" v="Portland"/><tag k="addr:street" v="Northeast 109th Avenue"/></node>
<node id="-19" lat="45.556007799" lon="-122.550341383" visible="true"><tag k="addr:housenumber" v="4546"/><tag k="addr:postcode" v="97220"/><tag k="addr:city" v="Portland"/><tag k="addr:street" v="Northeast 109th Avenue"/></node>
<node id="-20" lat="45.557765904" lon="-122.548267967" visible="true"><tag k="addr:housenumber" v="4804"/><tag k="addr:postcode" v="97220"/><tag k="addr:city" v="Portland"/><tag k="addr:street" v="Northeast 111th Avenue"/></node>
<node id="-21" lat="45.557765187" lon="-122.548261974" visible="true"><tag k="addr:housenumber" v="4806"/><tag k="addr:postcode" v="97220"/><tag k="addr:city" v="Portland"/><tag k="addr:street" v="Northeast 111th Avenue"/></node>
<node id="-22" lat="45.559452747" lon="-122.547681163" visible="true"><tag k="addr:housenumber" v="5005"/><tag k="addr:postcode" v="97220"/><tag k="addr:city" v="Portland"/><tag k="addr:street" v="Northeast 112th Avenue"/></node>
<node id="-23" lat="45.559449168" lon="-122.547684375" visible="true"><tag k="addr:housenumber" v="5033"/><tag k="addr:postcode" v="97220"/><tag k="addr:city" v="Portland"/><tag k="addr:street" v="Northeast 112th Avenue"/></node>
<node id="-24" lat="45.555945406" lon="-122.543907856" visible="true"><tag k="addr:housenumber" v="4524"/><tag k="addr:postcode" v="97220"/><tag k="addr:city" v="Portland"/><tag k="addr:street" v="Northeast 115th Avenue"/></node>
<node id="-25" lat="45.55595246" lon="-122.54390684" visible="true"><tag k="addr:housenumber" v="4526"/><tag k="addr:postcode" v="97220"/><tag k="addr:city" v="Portland"/><tag k="addr:street" v="Northeast 115th Avenue"/></node>
<node id="-26" lat="45.557417225" lon="-122.544387458" visible="true"><tag k="addr:housenumber" v="4707"/><tag k="addr:postcode" v="97220"/><tag k="addr:city" v="Portland"/><tag k="addr:street" v="Northeast 115th Avenue"/></node>
<node id="-27" lat="45.5574148" lon="-122.544378212" visible="true"><tag k="addr:housenumber" v="4709"/><tag k="addr:postcode" v="97220"/><tag k="addr:city" v="Portland"/><tag k="addr:street" v="Northeast 115th Avenue"/></node>
<node id="-28" lat="45.559976343" lon="-122.543642518" visible="true"><tag k="addr:housenumber" v="5030"/><tag k="addr:postcode" v="97220"/><tag k="addr:city" v="Portland"/><tag k="addr:street" v="Northeast 115th Avenue"/></node>
<node id="-29" lat="45.556399089" lon="-122.541891323" visible="true"><tag k="addr:housenumber" v="4605"/><tag k="addr:postcode" v="97220"/><tag k="addr:city" v="Portland"/><tag k="addr:street" v="Northeast 118th Avenue"/></node>
<node id="-30" lat="45.556399561" lon="-122.541891345" visible="true"><tag k="addr:housenumber" v="4609"/><tag k="addr:postcode" v="97220"/><tag k="addr:city" v="Portland"/><tag k="addr:street" v="Northeast 118th Avenue"/></node>
<node id="-31" lat="45.558422354" lon="-122.539756637" visible="true"><tag k="addr:housenumber" v="12021"/><tag k="addr:postcode" v="97220"/><tag k="addr:city" v="Portland"/><tag k="addr:street" v="Northeast Erin Way"/></node>
<node id="-32" lat="45.558428486" lon="-122.539758011" visible="true"><tag k="addr:housenumber" v="12041"/><tag k="addr:postcode" v="97220"/><tag k="addr:city" v="Portland"/><tag k="addr:street" v="Northeast Erin Way"/></node>
<node id="-33" lat="45.561324475" lon="-122.545923833" visible="true"><tag k="addr:housenumber" v="11250"/><tag k="addr:postcode" v="97220"/><tag k="addr:city" v="Portland"/><tag k="addr:street" v="Northeast Marx Place"/></node>
<node id="-34" lat="45.561330438" lon="-122.545922765" visible="true"><tag k="addr:housenumber" v="11306"/><tag k="addr:postcode" v="97220"/><tag k="addr:city" v="Portland"/><tag k="addr:street" v="Northeast Marx Place"/></node>
<node id="-35" lat="45.561502392" lon="-122.556513731" visible="true"><tag k="addr:housenumber" v="10300"/><tag k="addr:postcode" v="97220"/><tag k="addr:city" v="Portland"/><tag k="addr:street" v="Northeast Marx Street"/></node>
<node id="-36" lat="45.561503446" lon="-122.556514545" visible="true"><tag k="addr:housenumber" v="10310"/><tag k="addr:postcode" v="97220"/><tag k="addr:city" v="Portland"/><tag k="addr:street" v="Northeast Marx Street"/></node>
<node id="-37" lat="45.56150386" lon="-122.556515966" visible="true"><tag k="addr:housenumber" v="10320"/><tag k="addr:postcode" v="97220"/><tag k="addr:city" v="Portland"/><tag k="addr:street" v="Northeast Marx Street"/></node>
<node id="-38" lat="45.560450661" lon="-122.550016525" visible="true"><tag k="addr:housenumber" v="10930"/><tag k="addr:postcode" v="97220"/><tag k="addr:city" v="Portland"/><tag k="addr:street" v="Northeast Marx Street"/></node>
<node id="-39" lat="45.560452667" lon="-122.550012789" visible="true"><tag k="addr:housenumber" v="10940"/><tag k="addr:postcode" v="97220"/><tag k="addr:city" v="Portland"/><tag k="addr:street" v="Northeast Marx Street"/></node>
<node id="-40" lat="45.559982534" lon="-122.543638319" visible="true"><tag k="addr:housenumber" v="11505"/><tag k="addr:postcode" v="97220"/><tag k="addr:city" v="Portland"/><tag k="addr:street" v="Northeast Marx Street"/></node>
<node id="-41" lat="45.559980745" lon="-122.54364118" visible="true"><tag k="addr:housenumber" v="11517"/><tag k="addr:postcode" v="97220"/><tag k="addr:city" v="Portland"/><tag k="addr:street" v="Northeast Marx Street"/></node>
<node id="-42" lat="45.55869086" lon="-122.555407079" visible="true"><tag k="addr:housenumber" v="10410"/><tag k="addr:postcode" v="97220"/><tag k="addr:city" v="Portland"/><tag k="addr:street" v="Northeast Sandy Boulevard"/></node>
<node id="-43" lat="45.558696546" lon="-122.555406759" visible="true"><tag k="addr:housenumber" v="10414"/><tag k="addr:postcode" v="97220"/><tag k="addr:city" v="Portland"/><tag k="addr:street" v="Northeast Sandy Boulevard"/></node>
<node id="-44" lat="45.55869672" lon="-122.555408114" visible="true"><tag k="addr:housenumber" v="10416"/><tag k="addr:postcode" v="97220"/><tag k="addr:city" v="Portland"/><tag k="addr:street" v="Northeast Sandy Boulevard"/></node>
<node id="-45" lat="45.558696098" lon="-122.555408444" visible="true"><tag k="addr:housenumber" v="10420"/><tag k="addr:postcode" v="97220"/><tag k="addr:city" v="Portland"/><tag k="addr:street" v="Northeast Sandy Boulevard"/></node>
<node id="-46" lat="45.558689521" lon="-122.555404871" visible="true"><tag k="addr:housenumber" v="10424"/><tag k="addr:postcode" v="97220"/><tag k="addr:city" v="Portland"/><tag k="addr:street" v="Northeast Sandy Boulevard"/></node>
<node id="-47" lat="45.558553712" lon="-122.554503158" visible="true"><tag k="addr:housenumber" v="10504"/><tag k="addr:postcode" v="97220"/><tag k="addr:city" v="Portland"/><tag k="addr:street" v="Northeast Sandy Boulevard"/></node>
<node id="-48" lat="45.558271167" lon="-122.551363335" visible="true"><tag k="addr:housenumber" v="10802"/><tag k="addr:postcode" v="97220"/><tag k="addr:city" v="Portland"/><tag k="addr:street" v="Northeast Sandy Boulevard"/></node>
<node id="-49" lat="45.558273157" lon="-122.551363624" visible="true"><tag k="addr:housenumber" v="10810"/><tag k="addr:postcode" v="97220"/><tag k="addr:city" v="Portland"/><tag k="addr:street" v="Northeast Sandy Boulevard"/></node>
<node id="-50" lat="45.558270955" lon="-122.551359424" visible="true"><tag k="addr:housenumber" v="10814"/><tag k="addr:postcode" v="97220"/><tag k="addr:city" v="Portland"/><tag k="addr:street" v="Northeast Sandy Boulevard"/></node>
<node id="-51" lat="45.558274308" lon="-122.551359267" visible="true"><tag k="addr:housenumber" v="10820"/><tag k="addr:postcode" v="97220"/><tag k="addr:city" v="Portland"/><tag k="addr:street" v="Northeast Sandy Boulevard"/></node>
<node id="-52" lat="45.558254136" lon="-122.5509711" visible="true"><tag k="addr:housenumber" v="10832"/><tag k="addr:postcode" v="97220"/><tag k="addr:city" v="Portland"/><tag k="addr:street" v="Northeast Sandy Boulevard"/></node>
<node id="-53" lat="45.55825939" lon="-122.550965945" visible="true"><tag k="addr:housenumber" v="10834"/><tag k="addr:postcode" v="97220"/><tag k="addr:city" v="Portland"/><tag k="addr:street" v="Northeast Sandy Boulevard"/></node>
<node id="-54" lat="45.557987961" lon="-122.548266442" visible="true"><tag k="addr:housenumber" v="11104"/><tag k="addr:postcode" v="97220"/><tag k="addr:city" v="Portland"/><tag k="addr:street" v="Northeast Sandy Boulevard"/></node>
<node id="-55" lat="45.557990213" lon="-122.548271706" visible="true"><tag k="addr:housenumber" v="11106"/><tag k="addr:postcode" v="97220"/><tag k="addr:city" v="Portland"/><tag k="addr:street" v="Northeast Sandy Boulevard"/></node>
<node id="-56" lat="45.557985906" lon="-122.548267174" visible="true"><tag k="addr:housenumber" v="11108"/><tag k="addr:postcode" v="97220"/><tag k="addr:city" v="Portland"/><tag k="addr:street" v="Northeast Sandy Boulevard"/></node>
<node id="-57" lat="45.557572308" lon="-122.542466282" visible="true"><tag k="addr:housenumber" v="11626"/><tag k="addr:postcode" v="97220"/><tag k="addr:city" v="Portland"/><tag k="addr:street" v="Northeast Sandy Boulevard"/></node>
<node id="-58" lat="45.557566592" lon="-122.542468323" visible="true"><tag k="addr:housenumber" v="11636"/><tag k="addr:postcode" v="97220"/><tag k="addr:city" v="Portland"/><tag k="addr:street" v="Northeast Sandy Boulevard"/></node>
<node id="-59" lat="45.557378324" lon="-122.542250804" visible="true"><tag k="addr:housenumber" v="11700"/><tag k="addr:postcode" v="97220"/><tag k="addr:city" v="Portland"/><tag k="addr:street" v="Northeast Sandy Boulevard"/></node>
<node id="-60" lat="45.557375146" lon="-122.542251236" visible="true"><tag k="addr:housenumber" v="11710"/><tag k="addr:postcode" v="97220"/><tag k="addr:city" v="Portland"/><tag k="addr:street" v="Northeast Sandy Boulevard"/></node>
<node id="-61" lat="45.561515405" lon="-122.543637883" visible="true"><tag k="addr:housenumber" v="11555"/><tag k="addr:postcode" v="97220"/><tag k="addr:city" v="Portland"/><tag k="addr:street" v="Northeast Sumner Street"/></node>
<node id="-62" lat="45.561513634" lon="-122.543630296" visible="true"><tag k="addr:housenumber" v="11633"/><tag k="addr:postcode" v="97220"/><tag k="addr:city" v="Portland"/><tag k="addr:street" v="Northeast Sumner Street"/></node>
<node id="-63" lat="45.556705562" lon="-122.555985901" visible="true"><tag k="addr:housenumber" v="10336"/><tag k="addr:postcode" v="97220"/><tag k="addr:city" v="Portland"/><tag k="addr:street" v="Northeast Wygant Street"/></node>
<node id="-64" lat="45.556707758" lon="-122.555607478" visible="true"><tag k="addr:housenumber" v="10340"/><tag k="addr:postcode" v="97220"/><tag k="addr:city" v="Portland"/><tag k="addr:street" v="Northeast Wygant Street"/></node>
<node id="-65" lat="45.55699592" lon="-122.552047406" visible="true"><tag k="addr:housenumber" v="10734"/><tag k="addr:postcode" v="97220"/><tag k="addr:city" v="Portland"/><tag k="addr:street" v="Northeast Wygant Street"/></node>
<node id="-66" lat="45.556998589" lon="-122.552041571" visible="true"><tag k="addr:housenumber" v="10736"/><tag k="addr:postcode" v="97220"/><tag k="addr:city" v="Portland"/><tag k="addr:street" v="Northeast Wygant Street"/></node>
<node id="-67" lat="45.556995855" lon="-122.552041111" visible="true"><tag k="addr:housenumber" v="10738"/><tag k="addr:postcode" v="97220"/><tag k="addr:city" v="Portland"/><tag k="addr:street" v="Northeast Wygant Street"/></node>
<node id="-68" lat="45.556995952" lon="-122.552044231" visible="true"><tag k="addr:housenumber" v="10740"/><tag k="addr:postcode" v="97220"/><tag k="addr:city" v="Portland"/><tag k="addr:street" v="Northeast Wygant Street"/></node>
<node id="-69" lat="45.556993206" lon="-122.552045741" visible="true"><tag k="addr:housenumber" v="10742"/><tag k="addr:postcode" v="97220"/><tag k="addr:city" v="Portland"/><tag k="addr:street" v="Northeast Wygant Street"/></node>
<node id="-70" lat="45.55645418" lon="-122.54932397" visible="true"><tag k="addr:housenumber" v="10950"/><tag k="addr:postcode" v="97220"/><tag k="addr:city" v="Portland"/><tag k="addr:street" v="Northeast Wygant Street"/></node>
<node id="-71" lat="45.556454682" lon="-122.54932242" visible="true"><tag k="addr:housenumber" v="10952"/><tag k="addr:postcode" v="97220"/><tag k="addr:city" v="Portland"/><tag k="addr:street" v="Northeast Wygant Street"/></node>
<node id="-72" lat="45.556452689" lon="-122.549323363" visible="true"><tag k="addr:housenumber" v="10954"/><tag k="addr:postcode" v="97220"/><tag k="addr:city" v="Portland"/><tag k="addr:street" v="Northeast Wygant Street"/></node>
<node id="-73" lat="45.556446597" lon="-122.549321414" visible="true"><tag k="addr:housenumber" v="10956"/><tag k="addr:postcode" v="97220"/><tag k="addr:city" v="Portland"/><tag k="addr:street" v="Northeast Wygant Street"/></node>
<node id="-74" lat="45.556450359" lon="-122.549329069" visible="true"><tag k="addr:housenumber" v="10958"/><tag k="addr:postcode" v="97220"/><tag k="addr:city" v="Portland"/><tag k="addr:street" v="Northeast Wygant Street"/></node>
<node id="-75" lat="45.556450148" lon="-122.549321784" visible="true"><tag k="addr:housenumber" v="10960"/><tag k="addr:postcode" v="97220"/><tag k="addr:city" v="Portland"/><tag k="addr:street" v="Northeast Wygant Street"/></node>
<node id="-76" lat="45.556447105" lon="-122.549326335" visible="true"><tag k="addr:housenumber" v="10962"/><tag k="addr:postcode" v="97220"/><tag k="addr:city" v="Portland"/><tag k="addr:street" v="Northeast Wygant Street"/></node>
<node id="-77" lat="45.55644926" lon="-122.549324966" visible="true"><tag k="addr:housenumber" v="10964"/><tag k="addr:postcode" v="97220"/><tag k="addr:city" v="Portland"/><tag k="addr:street" v="Northeast Wygant Street"/></node>
<node id="-78" lat="45.556453723" lon="-122.549329104" visible="true"><tag k="addr:housenumber" v="10966"/><tag k="addr:postcode" v="97220"/><tag k="addr:city" v="Portland"/><tag k="addr:street" v="Northeast Wygant Street"/></node>
<node id="-79" lat="45.556448489" lon="-122.549329344" visible="true"><tag k="addr:housenumber" v="10968"/><tag k="addr:postcode" v="97220"/><tag k="addr:city" v="Portland"/><tag k="addr:street" v="Northeast Wygant Street"/></node>
<node id="-80" lat="45.556450786" lon="-122.549328657" visible="true"><tag k="addr:housenumber" v="10970"/><tag k="addr:postcode" v="97220"/><tag k="addr:city" v="Portland"/><tag k="addr:street" v="Northeast Wygant Street"/></node>
<node id="-81" lat="45.556448775" lon="-122.549329419" visible="true"><tag k="addr:housenumber" v="10972"/><tag k="addr:postcode" v="97220"/><tag k="addr:city" v="Portland"/><tag k="addr:street" v="Northeast Wygant Street"/></node>
<node id="-82" lat="45.556447825" lon="-122.549328246" visible="true"><tag k="addr:housenumber" v="10974"/><tag k="addr:postcode" v="97220"/><tag k="addr:city" v="Portland"/><tag k="addr:street" v="Northeast Wygant Street"/></node>
</osm>