<?xml version="1.0"?>
<osm version="0.6" upload="false" generator="uvmogr2osm">
<node id="-1" lat="45.526732783" lon="-122.599471702" visible="true"><tag k="addr:housenumber" v="504"/><tag k="addr:postcode" v="97213"/><tag k="addr:city" v="Portland"/><tag k="addr:street" v="Northeast 62nd Avenue"/></node>
<node id="-2" lat="45.526737359" lon="-122.599472829" visible="true"><tag k="addr:housenumber" v="506"/><tag k="addr:postcode" v="97213"/><tag k="addr:city" v="Portland"/><tag k="addr:street" v="Northeast 62nd Avenue"/></node>
<node id="-3" lat="45.528012535" lon="-122.599359001" visible="true"><tag k="addr:housenumber" v="714"/><tag k="addr:postcode" v="97213"/><tag k="addr:city" v="Portland"/><tag k="addr:street" v="Northeast 62nd Avenue"/></node>
<node id="-4" lat="45.52802159" lon="-122.599359478" visible="true"><tag k="addr:housenumber" v="716"/><tag k="addr:postcode" v="97213"/><tag k="addr:city" v="Portland"/><tag k="addr:street" v="Northeast 62nd Avenue"/></node>
<node id="-5" lat="45.533256735" lon="-122.599126956" visible="true"><tag k="addr:housenumber" v="1413"/><tag k="addr:postcode" v="97213"/><tag k="addr:city" v="Portland"/><tag k="addr:street" v="Northeast 63rd Avenue"/></node>
<node id="-6" lat="45.53325496" lon="-122.599124772" visible="true"><tag k="addr:housenumber" v="1415"/><tag k="addr:postcode" v="97213"/><tag k="addr:city" v="Portland"/><tag k="addr:street" v="Northeast 63rd Avenue"/></node>
<node id="-7" lat="45.526727714" lon="-122.598884401" visible="true"><tag k="addr:housenumber" v="505"/><tag k="addr:postcode" v="97213"/><tag k="addr:city" v="Portland"/><tag k="addr:street" v="Northeast 63rd Avenue"/></node>
<node id="-8" lat="45.526729969" lon="-122.598884494" visible="true"><tag k="addr:housenumber" v="509"/><tag k="addr:postcode" v="97213"/><tag k="addr:city" v="Portland"/><tag k="addr:street" v="Northeast 63rd Avenue"/></node>
<node id="-9" lat="45.526993968" lon="-122.598882996" visible="true"><tag k="addr:housenumber" v="527"/><tag k="addr:postcode" v="97213"/><tag k="addr:city" v="Portland"/><tag k="addr:street" v="Northeast 63rd Avenue"/></node>
<node id="-10" lat="45.52699398" lon="-122.598884604" visible="true"><tag k="addr:housenumber" v="529"/><tag k="addr:postcode" v="97213"/><tag k="addr:city" v="Portland"/><tag k="addr:street" v="Northeast 63rd Avenue"/></node>
<node id="-11" lat="45.530336785" lon="-122.597137462" visible="true"><tag k="addr:housenumber" v="1126"/><tag k="addr:postcode" v="97213"/><tag k="addr:city" v="Portland"/><tag k="addr:street" v="Northeast 64th Avenue"/></node>
<node id="-12" lat="45.530336722" lon="-122.597134764" visible="true"><tag k="addr:housenumber" v="1128"/><tag k="addr:postcode" v="97213"/><tag k="addr:city" v="Portland"/><tag k="addr:street" v="Northeast 64th Avenue"/></node>
<node id="-13" lat="45.530449774" lon="-122.597697057" visible="true"><tag k="addr:housenumber" v="1131"/><tag k="addr:postcode" v="97213"/><tag k="addr:city" v="Portland"/><tag k="addr:street" v="Northeast 64th Avenue"/></node>
<node id="-14" lat="45.530449312" lon="-122.597698077" visible="true"><tag k="addr:housenumber" v="1133"/><tag k="addr:postcode" v="97213"/><tag k="addr:city" v="Portland"/><tag k="addr:street" v="Northeast 64th Avenue"/></node>
<node id="-15" lat="45.527729748" lon="-122.597282472" visible="true"><tag k="addr:housenumber" v="640"/><tag k="addr:postcode" v="97213"/><tag k="addr:city" v="Portland"/><tag k="addr:street" v="Northeast 64th Avenue"/></node>
<node id="-16" lat="45.527724334" lon="-122.597285924" visible="true"><tag k="addr:housenumber" v="642"/><tag k="addr:postcode" v="97213"/><tag k="addr:city" v="Portland"/><tag k="addr:street" v="Northeast 64th Avenue"/></node>
<node id="-17" lat="45.527999144" lon="-122.597278234" visible="true"><tag k="addr:housenumber" v="716"/><tag k="addr:postcode" v="97213"/><tag k="addr:city" v="Portland"/><tag k="addr:street" v="Northeast 64th Avenue"/></node>
<node id="-18" lat="45.528006612" lon="-122.597282521" visible="true"><tag k="addr:housenumber" v="718"/><tag k="addr:postcode" v="97213"/><tag k="addr:city" v="Portland"/><tag k="addr:street" v="Northeast 64th Avenue"/></node>
<node id="-19" lat="45.530989902" lon="-122.596730291" visible="true"><tag k="addr:housenumber" v="1161"/><tag k="addr:postcode" v="97213"/><tag k="addr:city" v="Portland"/><tag k="addr:street" v="Northeast 65th Avenue"/></node>
<node id="-20" lat="45.530990819" lon="-122.596733211" visible="true"><tag k="addr:housenumber" v="1163"/><tag k="addr:postcode" v="97213"/><tag k="addr:city" v="Portland"/><tag k="addr:street" v="Northeast 65th Avenue"/></node>
<node id="-21" lat="45.530990129" lon="-122.59673577" visible="true"><tag k="addr:housenumber" v="1165"/><tag k="addr:postcode" v="97213"/><tag k="addr:city" v="Portland"/><tag k="addr:street" v="Northeast 65th Avenue"/></node>
<node id="-22" lat="45.530984129" lon="-122.596738579" visible="true"><tag k="addr:housenumber" v="1167"/><tag k="addr:postcode" v="97213"/><tag k="addr:city" v="Portland"/><tag k="addr:street" v="Northeast 65th Avenue"/></node>
<node id="-23" lat="45.530993163" lon="-122.596735362" visible="true"><tag k="addr:housenumber" v="1169"/><tag k="addr:postcode" v="97213"/><tag k="addr:city" v="Portland"/><tag k="addr:street" v="Northeast 65th Avenue"/></node>
<node id="-24" lat="45.530985708" lon="-122.596735172" visible="true"><tag k="addr:housenumber" v="1171"/><tag k="addr:postcode" v="97213"/><tag k="addr:city" v="Portland"/><tag k="addr:street" v="Northeast 65th Avenue"/></node>
<node id="-25" lat="45.530988851" lon="-122.596734366" visible="true"><tag k="addr:housenumber" v="1175"/><tag k="addr:postcode" v="97213"/><tag k="addr:city" v="Portland"/><tag k="addr:street" v="Northeast 65th Avenue"/></node>
<node id="-26" lat="45.530987843" lon="-122.596730832" visible="true"><tag k="addr:housenumber" v="1177"/><tag k="addr:postcode" v="97213"/><tag k="addr:city" v="Portland"/><tag k="addr:street" v="Northeast 65th Avenue"/></node>
<node id="-27" lat="45.529651599" lon="-122.596660839" visible="true"><tag k="addr:housenumber" v="927"/><tag k="addr:postcode" v="97213"/><tag k="addr:city" v="Portland"/><tag k="addr:street" v="Northeast 65th Avenue"/></node>
<node id="-28" lat="45.529655028" lon="-122.596665045" visible="true"><tag k="addr:housenumber" v="933"/><tag k="addr:postcode" v="97213"/><tag k="addr:city" v="Portland"/><tag k="addr:street" v="Northeast 65th Avenue"/></node>
<node id="-29" lat="45.527196377" lon="-122.594150728" visible="true"><tag k="addr:housenumber" v="604"/><tag k="addr:postcode" v="97213"/><tag k="addr:city" v="Portland"/><tag k="addr:street" v="Northeast 67th Avenue"/></node>
<node id="-30" lat="45.527202097" lon="-122.594154337" visible="true"><tag k="addr:housenumber" v="606"/><tag k="addr:postcode" v="97213"/><tag k="addr:city" v="Portland"/><tag k="addr:street" v="Northeast 67th Avenue"/></node>
<node id="-31" lat="45.527907675" lon="-122.594146997" visible="true"><tag k="addr:housenumber" v="716"/><tag k="addr:postcode" v="97213"/><tag k="addr:city" v="Portland"/><tag k="addr:street" v="Northeast 67th Avenue"/></node>
<node id="-32" lat="45.527909779" lon="-122.594149439" visible="true"><tag k="addr:housenumber" v="718"/><tag k="addr:postcode" v="97213"/><tag k="addr:city" v="Portland"/><tag k="addr:street" v="Northeast 67th Avenue"/></node>
<node id="-33" lat="45.528767888" lon="-122.594121592" visible="true"><tag k="addr:housenumber" v="834"/><tag k="addr:postcode" v="97213"/><tag k="addr:city" v="Portland"/><tag k="addr:street" v="Northeast 67th Avenue"/></node>
<node id="-34" lat="45.528772828" lon="-122.594125716" visible="true"><tag k="addr:housenumber" v="836"/><tag k="addr:postcode" v="97213"/><tag k="addr:city" v="Portland"/><tag k="addr:street" v="Northeast 67th Avenue"/></node>
<node id="-35" lat="45.529987274" lon="-122.59304785" visible="true"><tag k="addr:housenumber" v="1008"/><tag k="addr:postcode" v="97213"/><tag k="addr:city" v="Portland"/><tag k="addr:street" v="Northeast 68th Avenue"/></node>
<node id="-36" lat="45.529983606" lon="-122.593053865" visible="true"><tag k="addr:housenumber" v="1011"/><tag k="addr:postcode" v="97213"/><tag k="addr:city" v="Portland"/><tag k="addr:street" v="Northeast 68th Avenue"/></node>
<node id="-37" lat="45.529982729" lon="-122.593049619" visible="true"><tag k="addr:housenumber" v="1012"/><tag k="addr:postcode" v="97213"/><tag k="addr:city" v="Portland"/><tag k="addr:street" v="Northeast 68th Avenue"/></node>
<node id="-38" lat="45.529989197" lon="-122.59305518" visible="true"><tag k="addr:housenumber" v="1016"/><tag k="addr:postcode" v="97213"/><tag k="addr:city" v="Portland"/><tag k="addr:street" v="Northeast 68th Avenue"/></node>
<node id="-39" lat="45.529987208" lon="-122.593056116" visible="true"><tag k="addr:housenumber" v="1017"/><tag k="addr:postcode" v="97213"/><tag k="addr:city" v="Portland"/><tag k="addr:street" v="Northeast 68th Avenue"/></node>
<node id="-40" lat="45.529983244" lon="-122.593049666" visible="true"><tag k="addr:housenumber" v="1020"/><tag k="addr:postcode" v="97213"/><tag k="addr:city" v="Portland"/><tag k="addr:street" v="Northeast 68th Avenue"/></node>
<node id="-41" lat="45.532642316" lon="-122.592566617" visible="true"><tag k="addr:housenumber" v="1320"/><tag k="addr:postcode" v="97213"/><tag k="addr:city" v="Portland"/><tag k="addr:street" v="Northeast 68th Avenue"/></node>
<node id="-42" lat="45.532637149" lon="-122.592565982" visible="true"><tag k="addr:housenumber" v="1322"/><tag k="addr:postcode" v="97213"/><tag k="addr:city" v="Portland"/><tag k="addr:street" v="Northeast 68th Avenue"/></node>
<node id="-43" lat="45.532636953" lon="-122.592572061" visible="true"><tag k="addr:housenumber" v="1326"/><tag k="addr:postcode" v="97213"/><tag k="addr:city" v="Portland"/><tag k="addr:street" v="Northeast 68th Avenue"/></node>
<node id="-44" lat="45.532641805" lon="-122.592571099" visible="true"><tag k="addr:housenumber" v="1330"/><tag k="addr:postcode" v="97213"/><tag k="addr:city" v="Portland"/><tag k="addr:street" v="Northeast 68th Avenue"/></node>
<node id="-45" lat="45.532638149" lon="-122.592565878" visible="true"><tag k="addr:housenumber" v="1334"/><tag k="addr:postcode" v="97213"/><tag k="addr:city" v="Portland"/><tag k="addr:street" v="Northeast 68th Avenue"/></node>
<node id="-46" lat="45.532642886" lon="-122.592571411" visible="true"><tag k="addr:housenumber" v="1336"/><tag k="addr:postcode" v="97213"/><tag k="addr:city" v="Portland"/><tag k="addr:street" v="Northeast 68th Avenue"/></node>
<node id="-47" lat="45.532640065" lon="-122.592571721" visible="true"><tag k="addr:housenumber" v="1342"/><tag k="addr:postcode" v="97213"/><tag k="addr:city" v="Portland"/><tag k="addr:street" v="Northeast 68th Avenue"/></node>
<node id="-48" lat="45.532641632" lon="-122.592573219" visible="true"><tag k="addr:housenumber" v="1344"/><tag k="addr:postcode" v="97213"/><tag k="addr:city" v="Portland"/><tag k="addr:street" v="Northeast 68th Avenue"/></node>
<node id="-49" lat="45.533047865" lon="-122.592470912" visible="true"><tag k="addr:housenumber" v="1400"/><tag k="addr:postcode" v="97213"/><tag k="addr:city" v="Portland"/><tag k="addr:street" v="Northeast 68th Avenue"/></node>
<node id="-50" lat="45.533044554" lon="-122.592463103" visible="true"><tag k="addr:housenumber" v="1410"/><tag k="addr:postcode" v="97213"/><tag k="addr:city" v="Portland"/><tag k="addr:street" v="Northeast 68th Avenue"/></node>
<node id="-51" lat="45.527192641" lon="-122.593135911" visible="true"><tag k="addr:housenumber" v="602"/><tag k="addr:postcode" v="97213"/><tag k="addr:city" v="Portland"/><tag k="addr:street" v="Northeast 68th Avenue"/></node>
<node id="-52" lat="45.527195675" lon="-122.593138141" visible="true"><tag k="addr:housenumber" v="604"/><tag k="addr:postcode" v="97213"/><tag k="addr:city" v="Portland"/><tag k="addr:street" v="Northeast 68th Avenue"/></node>
<node id="-53" lat="45.528378531" lon="-122.593745308" visible="true"><tag k="addr:housenumber" v="803"/><tag k="addr:postcode" v="97213"/><tag k="addr:city" v="Portland"/><tag k="addr:street" v="Northeast 68th Avenue"/></node>
<node id="-54" lat="45.52849443" lon="-122.593114135" visible="true"><tag k="addr:housenumber" v="816"/><tag k="addr:postcode" v="97213"/><tag k="addr:city" v="Portland"/><tag k="addr:street" v="Northeast 68th Avenue"/></node>
<node id="-55" lat="45.528499829" lon="-122.593119636" visible="true"><tag k="addr:housenumber" v="818"/><tag k="addr:postcode" v="97213"/><tag k="addr:city" v="Portland"/><tag k="addr:street" v="Northeast 68th Avenue"/></node>
<node id="-56" lat="45.529858938" lon="-122.592079306" visible="true"><tag k="addr:housenumber" v="1000"/><tag k="addr:postcode" v="97213"/><tag k="addr:city" v="Portland"/><tag k="addr:street" v="Northeast 69th Avenue"/></node>
<node id="-57" lat="45.529859287" lon="-122.592082673" visible="true"><tag k="addr:housenumber" v="1010"/><tag k="addr:postcode" v="97213"/><tag k="addr:city" v="Portland"/><tag k="addr:street" v="Northeast 69th Avenue"/></node>
<node id="-58" lat="45.532113219" lon="-122.591564314" visible="true"><tag k="addr:housenumber" v="1230"/><tag k="addr:postcode" v="97213"/><tag k="addr:city" v="Portland"/><tag k="addr:street" v="Northeast 69th Avenue"/></node>
<node id="-59" lat="45.532116153" lon="-122.591567635" visible="true"><tag k="addr:housenumber" v="1232"/><tag k="addr:postcode" v="97213"/><tag k="addr:city" v="Portland"/><tag k="addr:street" v="Northeast 69th Avenue"/></node>
<node id="-60" lat="45.532113074" lon="-122.59156846" visible="true"><tag k="addr:housenumber" v="1234"/><tag k="addr:postcode" v="97213"/><tag k="addr:city" v="Portland"/><tag k="addr:street" v="Northeast 69th Avenue"/></node>
<node id="-61" lat="45.533163509" lon="-122.591562788" visible="true"><tag k="addr:housenumber" v="1402"/><tag k="addr:postcode" v="97213"/><tag k="addr:city" v="Portland"/><tag k="addr:street" v="Northeast 69th Avenue"/></node>
<node id="-62" lat="45.533166136" lon="-122.591558792" visible="true"><tag k="addr:housenumber" v="1404"/><tag k="addr:postcode" v="97213"/><tag k="addr:city" v="Portland"/><tag k="addr:street" v="Northeast 69th Avenue"/></node>
<node id="-63" lat="45.533162154" lon="-122.591565022" visible="true"><tag k="addr:housenumber" v="1406"/><tag k="addr:postcode" v="97213"/><tag k="addr:city" v="Portland"/><tag k="addr:street" v="Northeast 69th Avenue"/></node>
<node id="-64" lat="45.533160336" lon="-122.591562638" visible="true"><tag k="addr:housenumber" v="1408"/><tag k="addr:postcode" v="97213"/><tag k="addr:city" v="Portland"/><tag k="addr:street" v="Northeast 69th Avenue"/></node>
<node id="-65" lat="45.533163205" lon="-122.591557513" visible="true"><tag k="addr:housenumber" v="1410"/><tag k="addr:postcode" v="97213"/><tag k="addr:city" v="Portland"/><tag k="addr:street" v="Northeast 69th Avenue"/></node>
<node id="-66" lat="45.533166542" lon="-122.591560149" visible="true"><tag k="addr:housenumber" v="1412"/><tag k="addr:postcode" v="97213"/><tag k="addr:city" v="Portland"/><tag k="addr:street" v="Northeast 69th Avenue"/></node>
<node id="-67" lat="45.533162783" lon="-122.591557271" visible="true"><tag k="addr:housenumber" v="1414"/><tag k="addr:postcode" v="97213"/><tag k="addr:city" v="Portland"/><tag k="addr:street" v="Northeast 69th Avenue"/></node>
<node id="-68" lat="45.533157316" lon="-122.591566211" visible="true"><tag k="addr:housenumber" v="1416"/><tag k="addr:postcode" v="97213"/><tag k="addr:city" v="Portland"/><tag k="addr:street" v="Northeast 69th Avenue"/></node>
<node id="-69" lat="45.533162816" lon="-122.591559421" visible="true"><tag k="addr:housenumber" v="1418"/><tag k="addr:postcode" v="97213"/><tag k="addr:city" v="Portland"/><tag k="addr:street" v="Northeast 69th Avenue"/></node>
<node id="-70" lat="45.533162398" lon="-122.591558628" visible="true"><tag k="addr:housenumber" v="1420"/><tag k="addr:postcode" v="97213"/><tag k="addr:city" v="Portland"/><tag k="addr:street" v="Northeast 69th Avenue"/></node>
<node id="-71" lat="45.533165294" lon="-122.591559189" visible="true"><tag k="addr:housenumber" v="1422"/><tag k="addr:postcode" v="97213"/><tag k="addr:city" v="Portland"/><tag k="addr:street" v="Northeast 69th Avenue"/></node>
<node id="-72" lat="45.533162421" lon="-122.591562192" visible="true"><tag k="addr:housenumber" v="1424"/><tag k="addr:postcode" v="97213"/><tag k="addr:city" v="Portland"/><tag k="addr:street" v="Northeast 69th Avenue"/></node>
<node id="-73" lat="45.533163828" lon="-122.591559052" visible="true"><tag k="addr:housenumber" v="1426"/><tag k="addr:postcode" v="97213"/><tag k="addr:city" v="Portland"/><tag k="addr:street" v="Northeast 69th Avenue"/></node>
<node id="-74" lat="45.533159297" lon="-122.591566918" visible="true"><tag k="addr:housenumber" v="1428"/><tag k="addr:postcode" v="97213"/><tag k="addr:city" v="Portland"/><tag k="addr:street" v="Northeast 69th Avenue"/></node>
<node id="-75" lat="45.533167086" lon="-122.591566481" visible="true"><tag k="addr:housenumber" v="1430"/><tag k="addr:postcode" v="97213"/><tag k="addr:city" v="Portland"/><tag k="addr:street" v="Northeast 69th Avenue"/></node>
<node id="-76" lat="45.533157378" lon="-122.59156085" visible="true"><tag k="addr:housenumber" v="1432"/><tag k="addr:postcode" v="97213"/><tag k="addr:city" v="Portland"/><tag k="addr:street" v="Northeast 69th Avenue"/></node>
<node id="-77" lat="45.533162317" lon="-122.591557931" visible="true"><tag k="addr:housenumber" v="1434"/><tag k="addr:postcode" v="97213"/><tag k="addr:city" v="Portland"/><tag k="addr:street" v="Northeast 69th Avenue"/></node>
<node id="-78" lat="45.528679595" lon="-122.592726219" visible="true"><tag k="addr:housenumber" v="831"/><tag k="addr:postcode" v="97213"/><tag k="addr:city" v="Portland"/><tag k="addr:street" v="Northeast 69th Avenue"/></node>
<node id="-79" lat="45.528679888" lon="-122.592725426" visible="true"><tag k="addr:housenumber" v="833"/><tag k="addr:postcode" v="97213"/><tag k="addr:city" v="Portland"/><tag k="addr:street" v="Northeast 69th Avenue"/></node>
<node id="-80" lat="45.532596517" lon="-122.589596726" visible="true"><tag k="addr:housenumber" v="1326"/><tag k="addr:postcode" v="97213"/><tag k="addr:city" v="Portland"/><tag k="addr:street" v="Northeast 71st Avenue"/></node>
<node id="-81" lat="45.532602368" lon="-122.589605587" visible="true"><tag k="addr:housenumber" v="1336"/><tag k="addr:postcode" v="97213"/><tag k="addr:city" v="Portland"/><tag k="addr:street" v="Northeast 71st Avenue"/></node>
<node id="-82" lat="45.533010138" lon="-122.590025939" visible="true"><tag k="addr:housenumber" v="1407"/><tag k="addr:postcode" v="97213"/><tag k="addr:city" v="Portland"/><tag k="addr:street" v="Northeast 71st Avenue"/></node>
<node id="-83" lat="45.533010373" lon="-122.590030881" visible="true"><tag k="addr:housenumber" v="1409"/><tag k="addr:postcode" v="97213"/><tag k="addr:city" v="Portland"/><tag k="addr:street" v="Northeast 71st Avenue"/></node>
<node id="-84" lat="45.533452886" lon="-122.589512471" visible="true"><tag k="addr:housenumber" v="1442"/><tag k="addr:postcode" v="97213"/><tag k="addr:city" v="Portland"/><tag k="addr:street" v="Northeast 71st Avenue"/></node>
<node id="-85" lat="45.533199682" lon="-122.599569747" visible="true"><tag k="addr:housenumber" v="6219"/><tag k="addr:postcode" v="97213"/><tag k="addr:city" v="Portland"/><tag k="addr:street" v="Northeast Clackamas Street"/></node>
<node id="-86" lat="45.533203196" lon="-122.599560131" visible="true"><tag k="addr:housenumber" v="6221"/><tag k="addr:postcode" v="97213"/><tag k="addr:city" v="Portland"/><tag k="addr:street" v="Northeast Clackamas Street"/></node>
<node id="-87" lat="45.533203111" lon="-122.599566715" visible="true"><tag k="addr:housenumber" v="6223"/><tag k="addr:postcode" v="97213"/><tag k="addr:city" v="Portland"/><tag k="addr:street" v="Northeast Clackamas Street"/></node>
<node id="-88" lat="45.532953904" lon="-122.591164582" visible="true"><tag k="addr:housenumber" v="6927"/><tag k="addr:postcode" v="97213"/><tag k="addr:city" v="Portland"/><tag k="addr:street" v="Northeast Clackamas Street"/></node>
<node id="-89" lat="45.532958871" lon="-122.591156425" visible="true"><tag k="addr:housenumber" v="6933"/><tag k="addr:postcode" v="97213"/><tag k="addr:city" v="Portland"/><tag k="addr:street" v="Northeast Clackamas Street"/></node>
<node id="-90" lat="45.533024526" lon="-122.590418183" visible="true"><tag k="addr:housenumber" v="7021"/><tag k="addr:postcode" v="97213"/><tag k="addr:city" v="Portland"/><tag k="addr:street" v="Northeast Clackamas Street"/></node>
<node id="-91" lat="45.533020539" lon="-122.59041971" visible="true"><tag k="addr:housenumber" v="7023"/><tag k="addr:postcode" v="97213"/><tag k="addr:city" v="Portland"/><tag k="addr:street" v="Northeast Clackamas Street"/></node>
<node id="-92" lat="45.526731957" lon="-122.599275615" visible="true"><tag k="addr:housenumber" v="6213"/><tag k="addr:postcode" v="97213"/><tag k="addr:city" v="Portland"/><tag k="addr:street" v="Northeast Glisan Street"/></node>
<node id="-93" lat="45.526731039" lon="-122.599276098" visible="true"><tag k="addr:housenumber" v="6215"/><tag k="addr:postcode" v="97213"/><tag k="addr:city" v="Portland"/><tag k="addr:street" v="Northeast Glisan Street"/></node>
<node id="-94" lat="45.5267145" lon="-122.59265142" visible="true"><tag k="addr:housenumber" v="6833"/><tag k="addr:postcode" v="97213"/><tag k="addr:city" v="Portland"/><tag k="addr:street" v="Northeast Glisan Street"/></node>
<node id="-95" lat="45.526716248" lon="-122.592657492" visible="true"><tag k="addr:housenumber" v="6835"/><tag k="addr:postcode" v="97213"/><tag k="addr:city" v="Portland"/><tag k="addr:street" v="Northeast Glisan Street"/></node>
<node id="-96" lat="45.526716088" lon="-122.591025378" visible="true"><tag k="addr:housenumber" v="7015"/><tag k="addr:postcode" v="97213"/><tag k="addr:city" v="Portland"/><tag k="addr:street" v="Northeast Glisan Street"/></node>
<node id="-97" lat="45.52671292" lon="-122.591018814" visible="true"><tag k="addr:housenumber" v="7017"/><tag k="addr:postcode" v="97213"/><tag k="addr:city" v="Portland"/><tag k="addr:street" v="Northeast Glisan Street"/></node>
<node id="-98" lat="45.5267081" lon="-122.590825472" visible="true"><tag k="addr:housenumber" v="7025"/><tag k="addr:postcode" v="97213"/><tag k="addr:city" v="Portland"/><tag k="addr:street" v="Northeast Glisan Street"/></node>
<node id="-99" lat="45.526711993" lon="-122.59082404" visible="true"><tag k="addr:housenumber" v="7027"/><tag k="addr:postcode" v="97213"/><tag k="addr:city" v="Portland"/><tag k="addr:street" v="Northeast Glisan Street"/></node>
<node id="-100" lat="45.52671005" lon="-122.590628891" visible="true"><tag k="addr:housenumber" v="7033"/><tag k="addr:postcode" v="97213"/><tag k="addr:city" v="Portland"/><tag k="addr:street" v="Northeast Glisan Street"/></node>
<node id="-101" lat="45.526707857" lon="-122.590630065" visible="true"><tag k="addr:housenumber" v="7035"/><tag k="addr:postcode" v="97213"/><tag k="addr:city" v="Portland"/><tag k="addr:street" v="Northeast Glisan Street"/></node>
<node id="-102" lat="45.533442535" lon="-122.59953898" visible="true"><tag k="addr:housenumber" v="6224"/><tag k="addr:postcode" v="97213"/><tag k="addr:city" v="Portland"/><tag k="addr:street" v="Northeast Halsey Street"/></node>
<node id="-103" lat="45.53344139" lon="-122.599544851" visible="true"><tag k="addr:housenumber" v="6226"/><tag k="addr:postcode" v="97213"/><tag k="addr:city" v="Portland"/><tag k="addr:street" v="Northeast Halsey Street"/></node>
<node id="-104" lat="45.533442335" lon="-122.599539897" visible="true"><tag k="addr:housenumber" v="6236"/><tag k="addr:postcode" v="97213"/><tag k="addr:city" v="Portland"/><tag k="addr:street" v="Northeast Halsey Street"/></node>
<node id="-105" lat="45.533544313" lon="-122.598621927" visible="true"><tag k="addr:housenumber" v="6306"/><tag k="addr:postcode" v="97213"/><tag k="addr:city" v="Portland"/><tag k="addr:street" v="Northeast Halsey Street"/></node>
<node id="-106" lat="45.533547111" lon="-122.598628021" visible="true"><tag k="addr:housenumber" v="6316"/><tag k="addr:postcode" v="97213"/><tag k="addr:city" v="Portland"/><tag k="addr:street" v="Northeast Halsey Street"/></node>
<node id="-107" lat="45.533452743" lon="-122.589506138" visible="true"><tag k="addr:housenumber" v="7134"/><tag k="addr:postcode" v="97213"/><tag k="addr:city" v="Portland"/><tag k="addr:street" v="Northeast Halsey Street"/></node>
<node id="-108" lat="45.52697622" lon="-122.598405281" visible="true"><tag k="addr:housenumber" v="6304"/><tag k="addr:postcode" v="97213"/><tag k="addr:city" v="Portland"/><tag k="addr:street" v="Northeast Hoyt Street"/></node>
<node id="-109" lat="45.526980366" lon="-122.598410485" visible="true"><tag k="addr:housenumber" v="6306"/><tag k="addr:postcode" v="97213"/><tag k="addr:city" v="Portland"/><tag k="addr:street" v="Northeast Hoyt Street"/></node>
<node id="-110" lat="45.526976457" lon="-122.598411241" visible="true"><tag k="addr:housenumber" v="6310"/><tag k="addr:postcode" v="97213"/><tag k="addr:city" v="Portland"/><tag k="addr:street" v="Northeast Hoyt Street"/></node>
<node id="-111" lat="45.526982818" lon="-122.598410096" visible="true"><tag k="addr:housenumber" v="6312"/><tag k="addr:postcode" v="97213"/><tag k="addr:city" v="Portland"/><tag k="addr:street" v="Northeast Hoyt Street"/></node>
<node id="-112" lat="45.527047051" lon="-122.598182649" visible="true"><tag k="addr:housenumber" v="6316"/><tag k="addr:postcode" v="97213"/><tag k="addr:city" v="Portland"/><tag k="addr:street" v="Northeast Hoyt Street"/></node>
<node id="-113" lat="45.527047143" lon="-122.59818261" visible="true"><tag k="addr:housenumber" v="6320"/><tag k="addr:postcode" v="97213"/><tag k="addr:city" v="Portland"/><tag k="addr:street" v="Northeast Hoyt Street"/></node>
<node id="-114" lat="45.527034346" lon="-122.597981012" visible="true"><tag k="addr:housenumber" v="6330"/><tag k="addr:postcode" v="97213"/><tag k="addr:city" v="Portland"/><tag k="addr:street" v="Northeast Hoyt Street"/></node>
<node id="-115" lat="45.527036556" lon="-122.597981679" visible="true"><tag k="addr:housenumber" v="6336"/><tag k="addr:postcode" v="97213"/><tag k="addr:city" v="Portland"/><tag k="addr:street" v="Northeast Hoyt Street"/></node>
<node id="-116" lat="45.526984827" lon="-122.59048321" visible="true"><tag k="addr:housenumber" v="7042"/><tag k="addr:postcode" v="97213"/><tag k="addr:city" v="Portland"/><tag k="addr:street" v="Northeast Hoyt Street"/></node>
<node id="-117" lat="45.526983439" lon="-122.59048605" visible="true"><tag k="addr:housenumber" v="7044"/><tag k="addr:postcode" v="97213"/><tag k="addr:city" v="Portland"/><tag k="addr:street" v="Northeast Hoyt Street"/></node>
<node id="-118" lat="45.531449772" lon="-122.589517338" visible="true"><tag k="addr:housenumber" v="7110"/><tag k="addr:postcode" v="97213"/><tag k="addr:city" v="Portland"/><tag k="addr:street" v="Northeast Multnomah Street"/></node>
<node id="-119" lat="45.531447908" lon="-122.589516674" visible="true"><tag k="addr:housenumber" v="7112"/><tag k="addr:postcode" v="97213"/><tag k="addr:city" v="Portland"/><tag k="addr:street" v="Northeast Multnomah Street"/></node>
<node id="-120" lat="45.528506124" lon="-122.598433179" visible="true"><tag k="addr:housenumber" v="6305"/><tag k="addr:postcode" v="97213"/><tag k="addr:city" v="Portland"/><tag k="addr:street" v="Northeast Oregon Street"/></node>
<node id="-121" lat="45.528451035" lon="-122.598388008" visible="true"><tag k="addr:housenumber" v="6309"/><tag k="addr:postcode" v="97213"/><tag k="addr:city" v="Portland"/><tag k="addr:street" v="Northeast Oregon Street"/></node>
<node id="-122" lat="45.528070733" lon="-122.594152268" visible="true"><tag k="addr:housenumber" v="6702"/><tag k="addr:postcode" v="97213"/><tag k="addr:city" v="Portland"/><tag k="addr:street" v="Northeast Oregon Street"/></node>
<node id="-123" lat="45.528074839" lon="-122.594144564" visible="true"><tag k="addr:housenumber" v="6706"/><tag k="addr:postcode" v="97213"/><tag k="addr:city" v="Portland"/><tag k="addr:street" v="Northeast Oregon Street"/></node>
<node id="-124" lat="45.528076127" lon="-122.594145518" visible="true"><tag k="addr:housenumber" v="6710"/><tag k="addr:postcode" v="97213"/><tag k="addr:city" v="Portland"/><tag k="addr:street" v="Northeast Oregon Street"/></node>
<node id="-125" lat="45.528069706" lon="-122.594151484" visible="true"><tag k="addr:housenumber" v="6714"/><tag k="addr:postcode" v="97213"/><tag k="addr:city" v="Portland"/><tag k="addr:street" v="Northeast Oregon Street"/></node>
<node id="-126" lat="45.528072748" lon="-122.594152506" visible="true"><tag k="addr:housenumber" v="6718"/><tag k="addr:postcode" v="97213"/><tag k="addr:city" v="Portland"/><tag k="addr:street" v="Northeast Oregon Street"/></node>
<node id="-127" lat="45.528383706" lon="-122.593748864" visible="true"><tag k="addr:housenumber" v="6731"/><tag k="addr:postcode" v="97213"/><tag k="addr:city" v="Portland"/><tag k="addr:street" v="Northeast Oregon Street"/></node>
<node id="-128" lat="45.528913974" lon="-122.597252152" visible="true"><tag k="addr:housenumber" v="6416"/><tag k="addr:postcode" v="97213"/><tag k="addr:city" v="Portland"/><tag k="addr:street" v="Northeast Pacific Street"/></node>
<node id="-129" lat="45.528907626" lon="-122.597253045" visible="true"><tag k="addr:housenumber" v="6418"/><tag k="addr:postcode" v="97213"/><tag k="addr:city" v="Portland"/><tag k="addr:street" v="Northeast Pacific Street"/></node>
<node id="-130" lat="45.528915642" lon="-122.597062718" visible="true"><tag k="addr:housenumber" v="6426"/><tag k="addr:postcode" v="97213"/><tag k="addr:city" v="Portland"/><tag k="addr:street" v="Northeast Pacific Street"/></node>
<node id="-131" lat="45.528910416" lon="-122.597061764" visible="true"><tag k="addr:housenumber" v="6428"/><tag k="addr:postcode" v="97213"/><tag k="addr:city" v="Portland"/><tag k="addr:street" v="Northeast Pacific Street"/></node>
<node id="-132" lat="45.528960632" lon="-122.596699287" visible="true"><tag k="addr:housenumber" v="6446"/><tag k="addr:postcode" v="97213"/><tag k="addr:city" v="Portland"/><tag k="addr:street" v="Northeast Pacific Street"/></node>
<node id="-133" lat="45.528965476" lon="-122.596700551" visible="true"><tag k="addr:housenumber" v="6448"/><tag k="addr:postcode" v="97213"/><tag k="addr:city" v="Portland"/><tag k="addr:street" v="Northeast Pacific Street"/></node>
<node id="-134" lat="45.529405712" lon="-122.599569779" visible="true"><tag k="addr:housenumber" v="6191"/><tag k="addr:postcode" v="97213"/><tag k="addr:city" v="Portland"/><tag k="addr:street" v="Northeast Vera Street"/></node>
<node id="-135" lat="45.529413447" lon="-122.599566441" visible="true"><tag k="addr:housenumber" v="6193"/><tag k="addr:postcode" v="97213"/><tag k="addr:city" v="Portland"/><tag k="addr:street" v="Northeast Vera Street"/></node>
<node id="-136" lat="45.530538714" lon="-122.597883076" visible="true"><tag k="addr:housenumber" v="6342"/><tag k="addr:postcode" v="97213"/><tag k="addr:city" v="Portland"/><tag k="addr:street" v="Northeast Willow Street"/></node>
<node id="-137" lat="45.53053682" lon="-122.597877762" visible="true"><tag k="addr:housenumber" v="6344"/><tag k="addr:postcode" v="97213"/><tag k="addr:city" v="Portland"/><tag k="addr:street" v="Northeast Willow Street"/></node>
<node id="-138" lat="45.530535572" lon="-122.597883884" visible="true"><tag k="addr:housenumber" v="6346"/><tag k="addr:postcode" v="97213"/><tag k="addr:city" v="Portland"/><tag k="addr:street" v="Northeast Willow Street"/></node>
<node id="-139" lat="45.530536904" lon="-122.597878318" visible="true"><tag k="addr:housenumber" v="6348"/><tag k="addr:postcode" v="97213"/><tag k="addr:city" v="Portland"/><tag k="addr:street" v="Northeast Willow Street"/></node>
</osm>