<?xml version="1.0"?>
<osm version="0.6" upload="false" generator="uvmogr2osm">
<node id="-1" lat="45.533149973" lon="-122.610357005" visible="true"><tag k="addr:housenumber" v="1405"/><tag k="addr:postcode" v="97213"/><tag k="addr:city" v="Portland"/><tag k="addr:street" v="Northeast 52nd Avenue"/></node>
<node id="-2" lat="45.529485165" lon="-122.610389409" visible="true"><tag k="addr:housenumber" v="825"/><tag k="addr:postcode" v="97213"/><tag k="addr:city" v="Portland"/><tag k="addr:street" v="Northeast 52nd Avenue"/></node>
<node id="-3" lat="45.529480906" lon="-122.610387602" visible="true"><tag k="addr:housenumber" v="827"/><tag k="addr:postcode" v="97213"/><tag k="addr:city" v="Portland"/><tag k="addr:street" v="Northeast 52nd Avenue"/></node>
<node id="-4" lat="45.533144322" lon="-122.610355432" visible="true"><tag k="addr:housenumber" v="5147"/><tag k="addr:postcode" v="97213"/><tag k="addr:city" v="Portland"/><tag k="addr:street" v="Northeast Clackamas Street"/></node>
<node id="-5" lat="45.530548998" lon="-122.617594052" visible="true"><tag k="addr:housenumber" v="4358"/><tag k="addr:postcode" v="97213"/><tag k="addr:city" v="Portland"/><tag k="addr:street" v="Northeast Hazelfern Place"/></node>
<node id="-6" lat="45.530545622" lon="-122.617596732" visible="true"><tag k="addr:housenumber" v="4360"/><tag k="addr:postcode" v="97213"/><tag k="addr:city" v="Portland"/><tag k="addr:street" v="Northeast Hazelfern Place"/></node>
<node id="-7" lat="45.530545479" lon="-122.617599535" visible="true"><tag k="addr:housenumber" v="4362"/><tag k="addr:postcode" v="97213"/><tag k="addr:city" v="Portland"/><tag k="addr:street" v="Northeast Hazelfern Place"/></node>
<node id="-8" lat="45.527738555" lon="-122.615244967" visible="true"><tag k="addr:housenumber" v="4614"/><tag k="addr:postcode" v="97213"/><tag k="addr:city" v="Portland"/><tag k="addr:street" v="Northeast Irving Street"/></node>
<node id="-9" lat="45.527744358" lon="-122.615243874" visible="true"><tag k="addr:housenumber" v="4616"/><tag k="addr:postcode" v="97213"/><tag k="addr:city" v="Portland"/><tag k="addr:street" v="Northeast Irving Street"/></node>
<node id="-10" lat="45.53089597" lon="-122.614284688" visible="true"><tag k="addr:housenumber" v="4720"/><tag k="addr:postcode" v="97213"/><tag k="addr:city" v="Portland"/><tag k="addr:street" v="Northeast Multnomah Street"/></node>
<node id="-11" lat="45.530892748" lon="-122.614290241" visible="true"><tag k="addr:housenumber" v="4722"/><tag k="addr:postcode" v="97213"/><tag k="addr:city" v="Portland"/><tag k="addr:street" v="Northeast Multnomah Street"/></node>
<node id="-12" lat="45.530892669" lon="-122.614285728" visible="true"><tag k="addr:housenumber" v="4724"/><tag k="addr:postcode" v="97213"/><tag k="addr:city" v="Portland"/><tag k="addr:street" v="Northeast Multnomah Street"/></node>
<node id="-13" lat="45.52921715" lon="-122.611762863" visible="true"><tag k="addr:housenumber" v="5010"/><tag k="addr:postcode" v="97213"/><tag k="addr:city" v="Portland"/><tag k="addr:street" v="Northeast Oregon Street"/></node>
<node id="-14" lat="45.529213128" lon="-122.611760082" visible="true"><tag k="addr:housenumber" v="5012"/><tag k="addr:postcode" v="97213"/><tag k="addr:city" v="Portland"/><tag k="addr:street" v="Northeast Oregon Street"/></node>
</osm>