<?xml version="1.0"?>
<osm version="0.6" upload="false" generator="uvmogr2osm">
<node id="-1" lat="45.558435569" lon="-122.877788415" visible="true"><tag k="addr:housenumber" v="5350"/><tag k="addr:postcode" v="97229"/><tag k="addr:city" v="Portland"/><tag k="addr:street" v="Northwest 196th Place"/></node>
<node id="-2" lat="45.558437985" lon="-122.877792162" visible="true"><tag k="addr:housenumber" v="5360"/><tag k="addr:postcode" v="97229"/><tag k="addr:city" v="Portland"/><tag k="addr:street" v="Northwest 196th Place"/></node>
<node id="-3" lat="45.558657381" lon="-122.877786912" visible="true"><tag k="addr:housenumber" v="5380"/><tag k="addr:postcode" v="97229"/><tag k="addr:city" v="Portland"/><tag k="addr:street" v="Northwest 196th Place"/></node>
<node id="-4" lat="45.558657874" lon="-122.877790842" visible="true"><tag k="addr:housenumber" v="5390"/><tag k="addr:postcode" v="97229"/><tag k="addr:city" v="Portland"/><tag k="addr:street" v="Northwest 196th Place"/></node>
<node id="-5" lat="45.559067735" lon="-122.878251765" visible="true"><tag k="addr:housenumber" v="5425"/><tag k="addr:postcode" v="97229"/><tag k="addr:city" v="Portland"/><tag k="addr:street" v="Northwest 196th Place"/></node>
<node id="-6" lat="45.559063836" lon="-122.878242979" visible="true"><tag k="addr:housenumber" v="5435"/><tag k="addr:postcode" v="97229"/><tag k="addr:city" v="Portland"/><tag k="addr:street" v="Northwest 196th Place"/></node>
<node id="-7" lat="45.545368121" lon="-122.881043556" visible="true"><tag k="addr:housenumber" v="3401"/><tag k="addr:postcode" v="97124"/><tag k="addr:city" v="Hillsboro"/><tag k="addr:street" v="Northwest John Olsen Place"/></node>
<node id="-8" lat="45.545363162" lon="-122.881042091" visible="true"><tag k="addr:housenumber" v="3423"/><tag k="addr:postcode" v="97124"/><tag k="addr:city" v="Hillsboro"/><tag k="addr:street" v="Northwest John Olsen Place"/></node>
<node id="-9" lat="45.546051649" lon="-122.880410795" visible="true"><tag k="addr:housenumber" v="3601"/><tag k="addr:postcode" v="97124"/><tag k="addr:city" v="Hillsboro"/><tag k="addr:street" v="Northwest John Olsen Place"/></node>
<node id="-10" lat="45.546050641" lon="-122.880409349" visible="true"><tag k="addr:housenumber" v="3623"/><tag k="addr:postcode" v="97124"/><tag k="addr:city" v="Hillsboro"/><tag k="addr:street" v="Northwest John Olsen Place"/></node>
<node id="-11" lat="45.555513761" lon="-122.888018299" visible="true"><tag k="addr:housenumber" v="20647"/><tag k="addr:postcode" v="97229"/><tag k="addr:city" v="Portland"/><tag k="addr:street" v="Northwest Lapine Way"/></node>
<node id="-12" lat="45.555521818" lon="-122.888019536" visible="true"><tag k="addr:housenumber" v="20649"/><tag k="addr:postcode" v="97229"/><tag k="addr:city" v="Portland"/><tag k="addr:street" v="Northwest Lapine Way"/></node>
<node id="-13" lat="45.555738623" lon="-122.887970976" visible="true"><tag k="addr:housenumber" v="20661"/><tag k="addr:postcode" v="97229"/><tag k="addr:city" v="Portland"/><tag k="addr:street" v="Northwest Lapine Way"/></node>
<node id="-14" lat="45.555731231" lon="-122.887978596" visible="true"><tag k="addr:housenumber" v="20663"/><tag k="addr:postcode" v="97229"/><tag k="addr:city" v="Portland"/><tag k="addr:street" v="Northwest Lapine Way"/></node>
<node id="-15" lat="45.556162393" lon="-122.887922754" visible="true"><tag k="addr:housenumber" v="20689"/><tag k="addr:postcode" v="97229"/><tag k="addr:city" v="Portland"/><tag k="addr:street" v="Northwest Lapine Way"/></node>
<node id="-16" lat="45.556163308" lon="-122.887920951" visible="true"><tag k="addr:housenumber" v="20691"/><tag k="addr:postcode" v="97229"/><tag k="addr:city" v="Portland"/><tag k="addr:street" v="Northwest Lapine Way"/></node>
<node id="-17" lat="45.558413241" lon="-122.878766762" visible="true"><tag k="addr:housenumber" v="5360"/><tag k="addr:postcode" v="97229"/><tag k="addr:city" v="Portland"/><tag k="addr:street" v="Northwest Neakahnie Avenue"/></node>
<node id="-18" lat="45.558409319" lon="-122.878761175" visible="true"><tag k="addr:housenumber" v="5370"/><tag k="addr:postcode" v="97229"/><tag k="addr:city" v="Portland"/><tag k="addr:street" v="Northwest Neakahnie Avenue"/></node>
<node id="-19" lat="45.558851991" lon="-122.878722697" visible="true"><tag k="addr:housenumber" v="5420"/><tag k="addr:postcode" v="97229"/><tag k="addr:city" v="Portland"/><tag k="addr:street" v="Northwest Neakahnie Avenue"/></node>
<node id="-20" lat="45.558855737" lon="-122.878724014" visible="true"><tag k="addr:housenumber" v="5430"/><tag k="addr:postcode" v="97229"/><tag k="addr:city" v="Portland"/><tag k="addr:street" v="Northwest Neakahnie Avenue"/></node>
<node id="-21" lat="45.559315881" lon="-122.878496872" visible="true"><tag k="addr:housenumber" v="5480"/><tag k="addr:postcode" v="97229"/><tag k="addr:city" v="Portland"/><tag k="addr:street" v="Northwest Neakahnie Avenue"/></node>
<node id="-22" lat="45.559318863" lon="-122.878499417" visible="true"><tag k="addr:housenumber" v="5490"/><tag k="addr:postcode" v="97229"/><tag k="addr:city" v="Portland"/><tag k="addr:street" v="Northwest Neakahnie Avenue"/></node>
<node id="-23" lat="45.55931671" lon="-122.878504159" visible="true"><tag k="addr:housenumber" v="5500"/><tag k="addr:postcode" v="97229"/><tag k="addr:city" v="Portland"/><tag k="addr:street" v="Northwest Neakahnie Avenue"/></node>
<node id="-24" lat="45.558192994" lon="-122.877882714" visible="true"><tag k="addr:housenumber" v="19575"/><tag k="addr:postcode" v="97229"/><tag k="addr:city" v="Portland"/><tag k="addr:street" v="Northwest Pondosa Court"/></node>
<node id="-25" lat="45.557805242" lon="-122.87792931" visible="true"><tag k="addr:housenumber" v="19580"/><tag k="addr:postcode" v="97229"/><tag k="addr:city" v="Portland"/><tag k="addr:street" v="Northwest Pondosa Court"/></node>
<node id="-26" lat="45.558194636" lon="-122.877888981" visible="true"><tag k="addr:housenumber" v="19585"/><tag k="addr:postcode" v="97229"/><tag k="addr:city" v="Portland"/><tag k="addr:street" v="Northwest Pondosa Court"/></node>
<node id="-27" lat="45.557806008" lon="-122.877933555" visible="true"><tag k="addr:housenumber" v="19590"/><tag k="addr:postcode" v="97229"/><tag k="addr:city" v="Portland"/><tag k="addr:street" v="Northwest Pondosa Court"/></node>
<node id="-28" lat="45.557808242" lon="-122.878247355" visible="true"><tag k="addr:housenumber" v="19620"/><tag k="addr:postcode" v="97229"/><tag k="addr:city" v="Portland"/><tag k="addr:street" v="Northwest Pondosa Court"/></node>
<node id="-29" lat="45.55780551" lon="-122.878254124" visible="true"><tag k="addr:housenumber" v="19630"/><tag k="addr:postcode" v="97229"/><tag k="addr:city" v="Portland"/><tag k="addr:street" v="Northwest Pondosa Court"/></node>
<node id="-30" lat="45.558197103" lon="-122.878439746" visible="true"><tag k="addr:housenumber" v="19655"/><tag k="addr:postcode" v="97229"/><tag k="addr:city" v="Portland"/><tag k="addr:street" v="Northwest Pondosa Court"/></node>
<node id="-31" lat="45.557813376" lon="-122.878572315" visible="true"><tag k="addr:housenumber" v="19660"/><tag k="addr:postcode" v="97229"/><tag k="addr:city" v="Portland"/><tag k="addr:street" v="Northwest Pondosa Court"/></node>
<node id="-32" lat="45.558191644" lon="-122.878442015" visible="true"><tag k="addr:housenumber" v="19665"/><tag k="addr:postcode" v="97229"/><tag k="addr:city" v="Portland"/><tag k="addr:street" v="Northwest Pondosa Court"/></node>
<node id="-33" lat="45.557815663" lon="-122.878568323" visible="true"><tag k="addr:housenumber" v="19670"/><tag k="addr:postcode" v="97229"/><tag k="addr:city" v="Portland"/><tag k="addr:street" v="Northwest Pondosa Court"/></node>
<node id="-34" lat="45.55820117" lon="-122.878831237" visible="true"><tag k="addr:housenumber" v="19675"/><tag k="addr:postcode" v="97229"/><tag k="addr:city" v="Portland"/><tag k="addr:street" v="Northwest Pondosa Court"/></node>
<node id="-35" lat="45.557815755" lon="-122.878882645" visible="true"><tag k="addr:housenumber" v="19680"/><tag k="addr:postcode" v="97229"/><tag k="addr:city" v="Portland"/><tag k="addr:street" v="Northwest Pondosa Court"/></node>
<node id="-36" lat="45.557808828" lon="-122.878889775" visible="true"><tag k="addr:housenumber" v="19682"/><tag k="addr:postcode" v="97229"/><tag k="addr:city" v="Portland"/><tag k="addr:street" v="Northwest Pondosa Court"/></node>
<node id="-37" lat="45.55820128" lon="-122.878831484" visible="true"><tag k="addr:housenumber" v="19685"/><tag k="addr:postcode" v="97229"/><tag k="addr:city" v="Portland"/><tag k="addr:street" v="Northwest Pondosa Court"/></node>
<node id="-38" lat="45.545453809" lon="-122.884505887" visible="true"><tag k="addr:housenumber" v="20004"/><tag k="addr:postcode" v="97124"/><tag k="addr:city" v="Hillsboro"/><tag k="addr:street" v="Northwest Tanasbourne Drive"/></node>
<node id="-39" lat="45.545673889" lon="-122.884416672" visible="true"><tag k="addr:housenumber" v="20010"/><tag k="addr:postcode" v="97124"/><tag k="addr:city" v="Hillsboro"/><tag k="addr:street" v="Northwest Tanasbourne Drive"/></node>
</osm>