<?xml version="1.0"?>
<osm version="0.6" upload="false" generator="uvmogr2osm">
<node id="-1" lat="45.545112476" lon="-122.971719844" visible="true"><tag k="addr:housenumber" v="1031"/><tag k="addr:postcode" v="97124"/><tag k="addr:city" v="Hillsboro"/><tag k="addr:street" v="Northeast Creeksedge Drive"/></node>
<node id="-2" lat="45.545112435" lon="-122.971717472" visible="true"><tag k="addr:housenumber" v="1033"/><tag k="addr:postcode" v="97124"/><tag k="addr:city" v="Hillsboro"/><tag k="addr:street" v="Northeast Creeksedge Drive"/></node>
<node id="-3" lat="45.54859051" lon="-122.977618659" visible="true"><tag k="addr:housenumber" v="3402"/><tag k="addr:postcode" v="97124"/><tag k="addr:city" v="Hillsboro"/><tag k="addr:street" v="Northeast Dunbar Court"/></node>
<node id="-4" lat="45.54860871" lon="-122.977561051" visible="true"><tag k="addr:housenumber" v="3408"/><tag k="addr:postcode" v="97124"/><tag k="addr:city" v="Hillsboro"/><tag k="addr:street" v="Northeast Dunbar Court"/></node>
</osm>