<?xml version="1.0"?>
<osm version="0.6" upload="false" generator="uvmogr2osm">
<node id="-1" lat="45.53211344" lon="-122.916298672" visible="true"><tag k="addr:housenumber" v="1095"/><tag k="addr:postcode" v="97124"/><tag k="addr:city" v="Hillsboro"/><tag k="addr:street" v="Northeast 63rd Way"/></node>
<node id="-2" lat="45.532117542" lon="-122.916304787" visible="true"><tag k="addr:housenumber" v="1251"/><tag k="addr:postcode" v="97124"/><tag k="addr:city" v="Hillsboro"/><tag k="addr:street" v="Northeast 63rd Way"/></node>
<node id="-3" lat="45.532116512" lon="-122.91629983" visible="true"><tag k="addr:housenumber" v="6210"/><tag k="addr:postcode" v="97124"/><tag k="addr:city" v="Hillsboro"/><tag k="addr:street" v="Northeast Carillion Drive"/></node>
<node id="-4" lat="45.532116567" lon="-122.91629881" visible="true"><tag k="addr:housenumber" v="6226"/><tag k="addr:postcode" v="97124"/><tag k="addr:city" v="Hillsboro"/><tag k="addr:street" v="Northeast Carillion Drive"/></node>
<node id="-5" lat="45.532113657" lon="-122.91630333" visible="true"><tag k="addr:housenumber" v="6242"/><tag k="addr:postcode" v="97124"/><tag k="addr:city" v="Hillsboro"/><tag k="addr:street" v="Northeast Carillion Drive"/></node>
<node id="-6" lat="45.532115317" lon="-122.916300301" visible="true"><tag k="addr:housenumber" v="6258"/><tag k="addr:postcode" v="97124"/><tag k="addr:city" v="Hillsboro"/><tag k="addr:street" v="Northeast Carillion Drive"/></node>
<node id="-7" lat="45.532114752" lon="-122.916302131" visible="true"><tag k="addr:housenumber" v="6274"/><tag k="addr:postcode" v="97124"/><tag k="addr:city" v="Hillsboro"/><tag k="addr:street" v="Northeast Carillion Drive"/></node>
<node id="-8" lat="45.532118753" lon="-122.916303153" visible="true"><tag k="addr:housenumber" v="6290"/><tag k="addr:postcode" v="97124"/><tag k="addr:city" v="Hillsboro"/><tag k="addr:street" v="Northeast Carillion Drive"/></node>
<node id="-9" lat="45.532115663" lon="-122.916296043" visible="true"><tag k="addr:housenumber" v="6298"/><tag k="addr:postcode" v="97124"/><tag k="addr:city" v="Hillsboro"/><tag k="addr:street" v="Northeast Carillion Drive"/></node>
<node id="-10" lat="45.532117285" lon="-122.916302921" visible="true"><tag k="addr:housenumber" v="6217"/><tag k="addr:postcode" v="97124"/><tag k="addr:city" v="Hillsboro"/><tag k="addr:street" v="Northeast Cherry Drive"/></node>
<node id="-11" lat="45.532114892" lon="-122.916302294" visible="true"><tag k="addr:housenumber" v="6231"/><tag k="addr:postcode" v="97124"/><tag k="addr:city" v="Hillsboro"/><tag k="addr:street" v="Northeast Cherry Drive"/></node>
<node id="-12" lat="45.532115173" lon="-122.916298797" visible="true"><tag k="addr:housenumber" v="6249"/><tag k="addr:postcode" v="97124"/><tag k="addr:city" v="Hillsboro"/><tag k="addr:street" v="Northeast Cherry Drive"/></node>
<node id="-13" lat="45.532115487" lon="-122.916303726" visible="true"><tag k="addr:housenumber" v="6265"/><tag k="addr:postcode" v="97124"/><tag k="addr:city" v="Hillsboro"/><tag k="addr:street" v="Northeast Cherry Drive"/></node>
<node id="-14" lat="45.532116467" lon="-122.916301864" visible="true"><tag k="addr:housenumber" v="6281"/><tag k="addr:postcode" v="97124"/><tag k="addr:city" v="Hillsboro"/><tag k="addr:street" v="Northeast Cherry Drive"/></node>
<node id="-15" lat="45.532112634" lon="-122.9163055" visible="true"><tag k="addr:housenumber" v="6297"/><tag k="addr:postcode" v="97124"/><tag k="addr:city" v="Hillsboro"/><tag k="addr:street" v="Northeast Cherry Drive"/></node>
<node id="-16" lat="45.53211439" lon="-122.916302644" visible="true"><tag k="addr:housenumber" v="6301"/><tag k="addr:postcode" v="97124"/><tag k="addr:city" v="Hillsboro"/><tag k="addr:street" v="Northeast Cherry Drive"/></node>
<node id="-17" lat="45.534402734" lon="-122.914731481" visible="true"><tag k="addr:housenumber" v="6355"/><tag k="addr:postcode" v="97124"/><tag k="addr:city" v="Hillsboro"/><tag k="addr:street" v="Northeast Cornell Road"/></node>
<node id="-18" lat="45.534407062" lon="-122.914730337" visible="true"><tag k="addr:housenumber" v="6359"/><tag k="addr:postcode" v="97124"/><tag k="addr:city" v="Hillsboro"/><tag k="addr:street" v="Northeast Cornell Road"/></node>
<node id="-19" lat="45.532112293" lon="-122.916303689" visible="true"><tag k="addr:housenumber" v="1002"/><tag k="addr:postcode" v="97124"/><tag k="addr:city" v="Hillsboro"/><tag k="addr:street" v="Northeast Orenco Station Parkway"/></node>
<node id="-20" lat="45.532117714" lon="-122.916303471" visible="true"><tag k="addr:housenumber" v="1018"/><tag k="addr:postcode" v="97124"/><tag k="addr:city" v="Hillsboro"/><tag k="addr:street" v="Northeast Orenco Station Parkway"/></node>
<node id="-21" lat="45.532116198" lon="-122.916296874" visible="true"><tag k="addr:housenumber" v="1030"/><tag k="addr:postcode" v="97124"/><tag k="addr:city" v="Hillsboro"/><tag k="addr:street" v="Northeast Orenco Station Parkway"/></node>
<node id="-22" lat="45.532118062" lon="-122.916297547" visible="true"><tag k="addr:housenumber" v="1046"/><tag k="addr:postcode" v="97124"/><tag k="addr:city" v="Hillsboro"/><tag k="addr:street" v="Northeast Orenco Station Parkway"/></node>
<node id="-23" lat="45.532109944" lon="-122.916296866" visible="true"><tag k="addr:housenumber" v="1080"/><tag k="addr:postcode" v="97124"/><tag k="addr:city" v="Hillsboro"/><tag k="addr:street" v="Northeast Orenco Station Parkway"/></node>
<node id="-24" lat="45.53211229" lon="-122.916297909" visible="true"><tag k="addr:housenumber" v="1096"/><tag k="addr:postcode" v="97124"/><tag k="addr:city" v="Hillsboro"/><tag k="addr:street" v="Northeast Orenco Station Parkway"/></node>
<node id="-25" lat="45.532109393" lon="-122.9162983" visible="true"><tag k="addr:housenumber" v="1102"/><tag k="addr:postcode" v="97124"/><tag k="addr:city" v="Hillsboro"/><tag k="addr:street" v="Northeast Orenco Station Parkway"/></node>
<node id="-26" lat="45.532112732" lon="-122.916298649" visible="true"><tag k="addr:housenumber" v="1106"/><tag k="addr:postcode" v="97124"/><tag k="addr:city" v="Hillsboro"/><tag k="addr:street" v="Northeast Orenco Station Parkway"/></node>
<node id="-27" lat="45.532117083" lon="-122.916303596" visible="true"><tag k="addr:housenumber" v="1114"/><tag k="addr:postcode" v="97124"/><tag k="addr:city" v="Hillsboro"/><tag k="addr:street" v="Northeast Orenco Station Parkway"/></node>
<node id="-28" lat="45.532118569" lon="-122.916296793" visible="true"><tag k="addr:housenumber" v="1126"/><tag k="addr:postcode" v="97124"/><tag k="addr:city" v="Hillsboro"/><tag k="addr:street" v="Northeast Orenco Station Parkway"/></node>
<node id="-29" lat="45.532116523" lon="-122.916304147" visible="true"><tag k="addr:housenumber" v="1138"/><tag k="addr:postcode" v="97124"/><tag k="addr:city" v="Hillsboro"/><tag k="addr:street" v="Northeast Orenco Station Parkway"/></node>
<node id="-30" lat="45.532116502" lon="-122.916300411" visible="true"><tag k="addr:housenumber" v="1150"/><tag k="addr:postcode" v="97124"/><tag k="addr:city" v="Hillsboro"/><tag k="addr:street" v="Northeast Orenco Station Parkway"/></node>
<node id="-31" lat="45.532114612" lon="-122.916305104" visible="true"><tag k="addr:housenumber" v="1162"/><tag k="addr:postcode" v="97124"/><tag k="addr:city" v="Hillsboro"/><tag k="addr:street" v="Northeast Orenco Station Parkway"/></node>
<node id="-32" lat="45.532113253" lon="-122.916297978" visible="true"><tag k="addr:housenumber" v="1194"/><tag k="addr:postcode" v="97124"/><tag k="addr:city" v="Hillsboro"/><tag k="addr:street" v="Northeast Orenco Station Parkway"/></node>
<node id="-33" lat="45.532112499" lon="-122.916300992" visible="true"><tag k="addr:housenumber" v="1198"/><tag k="addr:postcode" v="97124"/><tag k="addr:city" v="Hillsboro"/><tag k="addr:street" v="Northeast Orenco Station Parkway"/></node>
<node id="-34" lat="45.534436767" lon="-122.91655534" visible="true"><tag k="addr:housenumber" v="1322"/><tag k="addr:postcode" v="97124"/><tag k="addr:city" v="Hillsboro"/><tag k="addr:street" v="Northeast Orenco Station Parkway"/></node>
<node id="-35" lat="45.534438417" lon="-122.916552437" visible="true"><tag k="addr:housenumber" v="1330"/><tag k="addr:postcode" v="97124"/><tag k="addr:city" v="Hillsboro"/><tag k="addr:street" v="Northeast Orenco Station Parkway"/></node>
<node id="-36" lat="45.534428588" lon="-122.917057275" visible="true"><tag k="addr:housenumber" v="1331"/><tag k="addr:postcode" v="97124"/><tag k="addr:city" v="Hillsboro"/><tag k="addr:street" v="Northeast Orenco Station Parkway"/></node>
<node id="-37" lat="45.534426341" lon="-122.917057342" visible="true"><tag k="addr:housenumber" v="1333"/><tag k="addr:postcode" v="97124"/><tag k="addr:city" v="Hillsboro"/><tag k="addr:street" v="Northeast Orenco Station Parkway"/></node>
<node id="-38" lat="45.534422378" lon="-122.91705187" visible="true"><tag k="addr:housenumber" v="1335"/><tag k="addr:postcode" v="97124"/><tag k="addr:city" v="Hillsboro"/><tag k="addr:street" v="Northeast Orenco Station Parkway"/></node>
<node id="-39" lat="45.534440886" lon="-122.916551205" visible="true"><tag k="addr:housenumber" v="1336"/><tag k="addr:postcode" v="97124"/><tag k="addr:city" v="Hillsboro"/><tag k="addr:street" v="Northeast Orenco Station Parkway"/></node>
<node id="-40" lat="45.534434696" lon="-122.916560132" visible="true"><tag k="addr:housenumber" v="1340"/><tag k="addr:postcode" v="97124"/><tag k="addr:city" v="Hillsboro"/><tag k="addr:street" v="Northeast Orenco Station Parkway"/></node>
<node id="-41" lat="45.534423711" lon="-122.917051797" visible="true"><tag k="addr:housenumber" v="1341"/><tag k="addr:postcode" v="97124"/><tag k="addr:city" v="Hillsboro"/><tag k="addr:street" v="Northeast Orenco Station Parkway"/></node>
<node id="-42" lat="45.534421252" lon="-122.917054519" visible="true"><tag k="addr:housenumber" v="1371"/><tag k="addr:postcode" v="97124"/><tag k="addr:city" v="Hillsboro"/><tag k="addr:street" v="Northeast Orenco Station Parkway"/></node>
<node id="-43" lat="45.529118568" lon="-122.909185505" visible="true"><tag k="addr:housenumber" v="1249"/><tag k="addr:postcode" v="97124"/><tag k="addr:city" v="Hillsboro"/><tag k="addr:street" v="Northwest Alder Street"/></node>
<node id="-44" lat="45.529161146" lon="-122.909187032" visible="true"><tag k="addr:housenumber" v="1251"/><tag k="addr:postcode" v="97124"/><tag k="addr:city" v="Hillsboro"/><tag k="addr:street" v="Northwest Alder Street"/></node>
<node id="-45" lat="45.529313489" lon="-122.909259163" visible="true"><tag k="addr:housenumber" v="1273"/><tag k="addr:postcode" v="97124"/><tag k="addr:city" v="Hillsboro"/><tag k="addr:street" v="Northwest Alder Street"/></node>
<node id="-46" lat="45.529355076" lon="-122.908722133" visible="true"><tag k="addr:housenumber" v="1274"/><tag k="addr:postcode" v="97124"/><tag k="addr:city" v="Hillsboro"/><tag k="addr:street" v="Northwest Alder Street"/></node>
<node id="-47" lat="45.529346524" lon="-122.90925946" visible="true"><tag k="addr:housenumber" v="1275"/><tag k="addr:postcode" v="97124"/><tag k="addr:city" v="Hillsboro"/><tag k="addr:street" v="Northwest Alder Street"/></node>
<node id="-48" lat="45.529351189" lon="-122.908626623" visible="true"><tag k="addr:housenumber" v="1276"/><tag k="addr:postcode" v="97124"/><tag k="addr:city" v="Hillsboro"/><tag k="addr:street" v="Northwest Alder Street"/></node>
<node id="-49" lat="45.53633111" lon="-122.892170586" visible="true"><tag k="addr:housenumber" v="20900"/><tag k="addr:postcode" v="97006"/><tag k="addr:city" v="Hillsboro"/><tag k="addr:street" v="Northwest Amberwood Drive"/></node>
<node id="-50" lat="45.536324263" lon="-122.892174941" visible="true"><tag k="addr:housenumber" v="20910"/><tag k="addr:postcode" v="97006"/><tag k="addr:city" v="Hillsboro"/><tag k="addr:street" v="Northwest Amberwood Drive"/></node>
<node id="-51" lat="45.538015041" lon="-122.897499078" visible="true"><tag k="addr:housenumber" v="21547"/><tag k="addr:postcode" v="97124"/><tag k="addr:city" v="Hillsboro"/><tag k="addr:street" v="Northwest Amberwood Drive"/></node>
<node id="-52" lat="45.53800849" lon="-122.897496878" visible="true"><tag k="addr:housenumber" v="21555"/><tag k="addr:postcode" v="97006"/><tag k="addr:city" v="Hillsboro"/><tag k="addr:street" v="Northwest Amberwood Drive"/></node>
<node id="-53" lat="45.527229162" lon="-122.904735564" visible="true"><tag k="addr:housenumber" v="22200"/><tag k="addr:postcode" v="97124"/><tag k="addr:city" v="Hillsboro"/><tag k="addr:street" v="Northwest Birch Street"/></node>
<node id="-54" lat="45.527231898" lon="-122.90474078" visible="true"><tag k="addr:housenumber" v="22210"/><tag k="addr:postcode" v="97124"/><tag k="addr:city" v="Hillsboro"/><tag k="addr:street" v="Northwest Birch Street"/></node>
<node id="-55" lat="45.533153137" lon="-122.901231739" visible="true"><tag k="addr:housenumber" v="2037"/><tag k="addr:postcode" v="97124"/><tag k="addr:city" v="Hillsboro"/><tag k="addr:street" v="Northwest Cornelius Pass Road"/></node>
<node id="-56" lat="45.533153256" lon="-122.901225756" visible="true"><tag k="addr:housenumber" v="2045"/><tag k="addr:postcode" v="97124"/><tag k="addr:city" v="Hillsboro"/><tag k="addr:street" v="Northwest Cornelius Pass Road"/></node>
<node id="-57" lat="45.533158569" lon="-122.901227814" visible="true"><tag k="addr:housenumber" v="2055"/><tag k="addr:postcode" v="97124"/><tag k="addr:city" v="Hillsboro"/><tag k="addr:street" v="Northwest Cornelius Pass Road"/></node>
<node id="-58" lat="45.533157196" lon="-122.901233415" visible="true"><tag k="addr:housenumber" v="2065"/><tag k="addr:postcode" v="97124"/><tag k="addr:city" v="Hillsboro"/><tag k="addr:street" v="Northwest Cornelius Pass Road"/></node>
<node id="-59" lat="45.533160341" lon="-122.9012298" visible="true"><tag k="addr:housenumber" v="2075"/><tag k="addr:postcode" v="97124"/><tag k="addr:city" v="Hillsboro"/><tag k="addr:street" v="Northwest Cornelius Pass Road"/></node>
<node id="-60" lat="45.533154494" lon="-122.901229157" visible="true"><tag k="addr:housenumber" v="2085"/><tag k="addr:postcode" v="97124"/><tag k="addr:city" v="Hillsboro"/><tag k="addr:street" v="Northwest Cornelius Pass Road"/></node>
<node id="-61" lat="45.535065204" lon="-122.889856857" visible="true"><tag k="addr:housenumber" v="2113"/><tag k="addr:postcode" v="97006"/><tag k="addr:city" v="Beaverton"/><tag k="addr:street" v="Northwest Redelfs Way"/></node>
<node id="-62" lat="45.535065576" lon="-122.889862474" visible="true"><tag k="addr:housenumber" v="2192"/><tag k="addr:postcode" v="97006"/><tag k="addr:city" v="Beaverton"/><tag k="addr:street" v="Northwest Sheffield Avenue"/></node>
</osm>