<?xml version="1.0"?>
<osm version="0.6" upload="false" generator="uvmogr2osm">
<node id="-1" lat="45.519730077" lon="-122.938759733" visible="true"><tag k="addr:housenumber" v="4266"/><tag k="addr:postcode" v="97123"/><tag k="addr:city" v="Hillsboro"/><tag k="addr:street" v="East Main Street"/></node>
<node id="-2" lat="45.519718781" lon="-122.938174059" visible="true"><tag k="addr:housenumber" v="4310"/><tag k="addr:postcode" v="97123"/><tag k="addr:city" v="Hillsboro"/><tag k="addr:street" v="East Main Street"/></node>
<node id="-3" lat="45.521329566" lon="-122.937813614" visible="true"><tag k="addr:housenumber" v="174"/><tag k="addr:postcode" v="97124"/><tag k="addr:city" v="Hillsboro"/><tag k="addr:street" v="Northeast 43rd Avenue"/></node>
<node id="-4" lat="45.521393513" lon="-122.937820194" visible="true"><tag k="addr:housenumber" v="176"/><tag k="addr:postcode" v="97124"/><tag k="addr:city" v="Hillsboro"/><tag k="addr:street" v="Northeast 43rd Avenue"/></node>
<node id="-5" lat="45.521481507" lon="-122.937797763" visible="true"><tag k="addr:housenumber" v="182"/><tag k="addr:postcode" v="97124"/><tag k="addr:city" v="Hillsboro"/><tag k="addr:street" v="Northeast 43rd Avenue"/></node>
<node id="-6" lat="45.521555385" lon="-122.937797117" visible="true"><tag k="addr:housenumber" v="184"/><tag k="addr:postcode" v="97124"/><tag k="addr:city" v="Hillsboro"/><tag k="addr:street" v="Northeast 43rd Avenue"/></node>
<node id="-7" lat="45.521677932" lon="-122.937838201" visible="true"><tag k="addr:housenumber" v="204"/><tag k="addr:postcode" v="97124"/><tag k="addr:city" v="Hillsboro"/><tag k="addr:street" v="Northeast 43rd Avenue"/></node>
<node id="-8" lat="45.521772921" lon="-122.93783536" visible="true"><tag k="addr:housenumber" v="206"/><tag k="addr:postcode" v="97124"/><tag k="addr:city" v="Hillsboro"/><tag k="addr:street" v="Northeast 43rd Avenue"/></node>
<node id="-9" lat="45.521857494" lon="-122.937820232" visible="true"><tag k="addr:housenumber" v="212"/><tag k="addr:postcode" v="97124"/><tag k="addr:city" v="Hillsboro"/><tag k="addr:street" v="Northeast 43rd Avenue"/></node>
<node id="-10" lat="45.521986779" lon="-122.937821063" visible="true"><tag k="addr:housenumber" v="214"/><tag k="addr:postcode" v="97124"/><tag k="addr:city" v="Hillsboro"/><tag k="addr:street" v="Northeast 43rd Avenue"/></node>
<node id="-11" lat="45.526804584" lon="-122.935172008" visible="true"><tag k="addr:housenumber" v="945"/><tag k="addr:postcode" v="97124"/><tag k="addr:city" v="Hillsboro"/><tag k="addr:street" v="Northeast 47th Avenue"/></node>
<node id="-12" lat="45.526804755" lon="-122.935171997" visible="true"><tag k="addr:housenumber" v="947"/><tag k="addr:postcode" v="97124"/><tag k="addr:city" v="Hillsboro"/><tag k="addr:street" v="Northeast 47th Avenue"/></node>
<node id="-13" lat="45.522736262" lon="-122.934466289" visible="true"><tag k="addr:housenumber" v="284"/><tag k="addr:postcode" v="97124"/><tag k="addr:city" v="Hillsboro"/><tag k="addr:street" v="Northeast 47th Place"/></node>
<node id="-14" lat="45.521432068" lon="-122.939336163" visible="true"><tag k="addr:housenumber" v="4176"/><tag k="addr:postcode" v="97124"/><tag k="addr:city" v="Hillsboro"/><tag k="addr:street" v="Northeast Beaumead Street"/></node>
<node id="-15" lat="45.521424111" lon="-122.939196972" visible="true"><tag k="addr:housenumber" v="4178"/><tag k="addr:postcode" v="97124"/><tag k="addr:city" v="Hillsboro"/><tag k="addr:street" v="Northeast Beaumead Street"/></node>
<node id="-16" lat="45.521505052" lon="-122.939042565" visible="true"><tag k="addr:housenumber" v="4226"/><tag k="addr:postcode" v="97124"/><tag k="addr:city" v="Hillsboro"/><tag k="addr:street" v="Northeast Beaumead Street"/></node>
<node id="-17" lat="45.521511087" lon="-122.938914976" visible="true"><tag k="addr:housenumber" v="4228"/><tag k="addr:postcode" v="97124"/><tag k="addr:city" v="Hillsboro"/><tag k="addr:street" v="Northeast Beaumead Street"/></node>
<node id="-18" lat="45.52143826" lon="-122.938746464" visible="true"><tag k="addr:housenumber" v="4250"/><tag k="addr:postcode" v="97124"/><tag k="addr:city" v="Hillsboro"/><tag k="addr:street" v="Northeast Beaumead Street"/></node>
<node id="-19" lat="45.52143701" lon="-122.938616168" visible="true"><tag k="addr:housenumber" v="4252"/><tag k="addr:postcode" v="97124"/><tag k="addr:city" v="Hillsboro"/><tag k="addr:street" v="Northeast Beaumead Street"/></node>
<node id="-20" lat="45.521508873" lon="-122.938392402" visible="true"><tag k="addr:housenumber" v="4272"/><tag k="addr:postcode" v="97124"/><tag k="addr:city" v="Hillsboro"/><tag k="addr:street" v="Northeast Beaumead Street"/></node>
<node id="-21" lat="45.521421463" lon="-122.938394256" visible="true"><tag k="addr:housenumber" v="4274"/><tag k="addr:postcode" v="97124"/><tag k="addr:city" v="Hillsboro"/><tag k="addr:street" v="Northeast Beaumead Street"/></node>
<node id="-22" lat="45.525430001" lon="-122.938463202" visible="true"><tag k="addr:housenumber" v="4257"/><tag k="addr:postcode" v="97124"/><tag k="addr:city" v="Hillsboro"/><tag k="addr:street" v="Northeast Jackson Street"/></node>
<node id="-23" lat="45.525478584" lon="-122.938348916" visible="true"><tag k="addr:housenumber" v="4261"/><tag k="addr:postcode" v="97124"/><tag k="addr:city" v="Hillsboro"/><tag k="addr:street" v="Northeast Jackson Street"/></node>
<node id="-24" lat="45.52123406" lon="-122.9394725" visible="true"><tag k="addr:housenumber" v="4169"/><tag k="addr:postcode" v="97124"/><tag k="addr:city" v="Hillsboro"/><tag k="addr:street" v="Northeast Lincoln Street"/></node>
<node id="-25" lat="45.521234782" lon="-122.939319899" visible="true"><tag k="addr:housenumber" v="4171"/><tag k="addr:postcode" v="97124"/><tag k="addr:city" v="Hillsboro"/><tag k="addr:street" v="Northeast Lincoln Street"/></node>
<node id="-26" lat="45.520785054" lon="-122.939214509" visible="true"><tag k="addr:housenumber" v="4228"/><tag k="addr:postcode" v="97124"/><tag k="addr:city" v="Hillsboro"/><tag k="addr:street" v="Northeast Lincoln Street"/></node>
<node id="-27" lat="45.52078739" lon="-122.93905841" visible="true"><tag k="addr:housenumber" v="4230"/><tag k="addr:postcode" v="97124"/><tag k="addr:city" v="Hillsboro"/><tag k="addr:street" v="Northeast Lincoln Street"/></node>
<node id="-28" lat="45.521165631" lon="-122.939155722" visible="true"><tag k="addr:housenumber" v="4233"/><tag k="addr:postcode" v="97124"/><tag k="addr:city" v="Hillsboro"/><tag k="addr:street" v="Northeast Lincoln Street"/></node>
<node id="-29" lat="45.521169064" lon="-122.939017249" visible="true"><tag k="addr:housenumber" v="4235"/><tag k="addr:postcode" v="97124"/><tag k="addr:city" v="Hillsboro"/><tag k="addr:street" v="Northeast Lincoln Street"/></node>
<node id="-30" lat="45.520785322" lon="-122.938880596" visible="true"><tag k="addr:housenumber" v="4244"/><tag k="addr:postcode" v="97124"/><tag k="addr:city" v="Hillsboro"/><tag k="addr:street" v="Northeast Lincoln Street"/></node>
<node id="-31" lat="45.520791061" lon="-122.938719487" visible="true"><tag k="addr:housenumber" v="4246"/><tag k="addr:postcode" v="97124"/><tag k="addr:city" v="Hillsboro"/><tag k="addr:street" v="Northeast Lincoln Street"/></node>
<node id="-32" lat="45.521227052" lon="-122.938853263" visible="true"><tag k="addr:housenumber" v="4257"/><tag k="addr:postcode" v="97124"/><tag k="addr:city" v="Hillsboro"/><tag k="addr:street" v="Northeast Lincoln Street"/></node>
<node id="-33" lat="45.521225706" lon="-122.938696519" visible="true"><tag k="addr:housenumber" v="4259"/><tag k="addr:postcode" v="97124"/><tag k="addr:city" v="Hillsboro"/><tag k="addr:street" v="Northeast Lincoln Street"/></node>
<node id="-34" lat="45.520844374" lon="-122.938529184" visible="true"><tag k="addr:housenumber" v="4272"/><tag k="addr:postcode" v="97124"/><tag k="addr:city" v="Hillsboro"/><tag k="addr:street" v="Northeast Lincoln Street"/></node>
<node id="-35" lat="45.520845828" lon="-122.938399365" visible="true"><tag k="addr:housenumber" v="4274"/><tag k="addr:postcode" v="97124"/><tag k="addr:city" v="Hillsboro"/><tag k="addr:street" v="Northeast Lincoln Street"/></node>
<node id="-36" lat="45.522741007" lon="-122.934461105" visible="true"><tag k="addr:housenumber" v="380"/><tag k="addr:postcode" v="97124"/><tag k="addr:city" v="Hillsboro"/><tag k="addr:street" v="Northwest Brookwood Avenue"/></node>
<node id="-37" lat="45.519727506" lon="-122.938181479" visible="true"><tag k="addr:housenumber" v="105"/><tag k="addr:postcode" v="97123"/><tag k="addr:city" v="Hillsboro"/><tag k="addr:street" v="Southeast 43rd Avenue"/></node>
<node id="-38" lat="45.517954589" lon="-122.938364312" visible="true"><tag k="addr:housenumber" v="335"/><tag k="addr:postcode" v="97123"/><tag k="addr:city" v="Hillsboro"/><tag k="addr:street" v="Southeast 43rd Avenue"/></node>
<node id="-39" lat="45.517903435" lon="-122.938341238" visible="true"><tag k="addr:housenumber" v="337"/><tag k="addr:postcode" v="97123"/><tag k="addr:city" v="Hillsboro"/><tag k="addr:street" v="Southeast 43rd Avenue"/></node>
<node id="-40" lat="45.517845948" lon="-122.938355987" visible="true"><tag k="addr:housenumber" v="339"/><tag k="addr:postcode" v="97123"/><tag k="addr:city" v="Hillsboro"/><tag k="addr:street" v="Southeast 43rd Avenue"/></node>
<node id="-41" lat="45.51785391" lon="-122.937734588" visible="true"><tag k="addr:housenumber" v="342"/><tag k="addr:postcode" v="97123"/><tag k="addr:city" v="Hillsboro"/><tag k="addr:street" v="Southeast 43rd Avenue"/></node>
<node id="-42" lat="45.517901284" lon="-122.937686216" visible="true"><tag k="addr:housenumber" v="344"/><tag k="addr:postcode" v="97123"/><tag k="addr:city" v="Hillsboro"/><tag k="addr:street" v="Southeast 43rd Avenue"/></node>
<node id="-43" lat="45.517847061" lon="-122.937669057" visible="true"><tag k="addr:housenumber" v="346"/><tag k="addr:postcode" v="97123"/><tag k="addr:city" v="Hillsboro"/><tag k="addr:street" v="Southeast 43rd Avenue"/></node>
<node id="-44" lat="45.517782491" lon="-122.937683969" visible="true"><tag k="addr:housenumber" v="348"/><tag k="addr:postcode" v="97123"/><tag k="addr:city" v="Hillsboro"/><tag k="addr:street" v="Southeast 43rd Avenue"/></node>
<node id="-45" lat="45.517762875" lon="-122.938365546" visible="true"><tag k="addr:housenumber" v="353"/><tag k="addr:postcode" v="97123"/><tag k="addr:city" v="Hillsboro"/><tag k="addr:street" v="Southeast 43rd Avenue"/></node>
<node id="-46" lat="45.517696103" lon="-122.938351544" visible="true"><tag k="addr:housenumber" v="355"/><tag k="addr:postcode" v="97123"/><tag k="addr:city" v="Hillsboro"/><tag k="addr:street" v="Southeast 43rd Avenue"/></node>
<node id="-47" lat="45.517631399" lon="-122.938365971" visible="true"><tag k="addr:housenumber" v="357"/><tag k="addr:postcode" v="97123"/><tag k="addr:city" v="Hillsboro"/><tag k="addr:street" v="Southeast 43rd Avenue"/></node>
<node id="-48" lat="45.517596401" lon="-122.937746709" visible="true"><tag k="addr:housenumber" v="362"/><tag k="addr:postcode" v="97123"/><tag k="addr:city" v="Hillsboro"/><tag k="addr:street" v="Southeast 43rd Avenue"/></node>
<node id="-49" lat="45.517643647" lon="-122.937690691" visible="true"><tag k="addr:housenumber" v="364"/><tag k="addr:postcode" v="97123"/><tag k="addr:city" v="Hillsboro"/><tag k="addr:street" v="Southeast 43rd Avenue"/></node>
<node id="-50" lat="45.517578537" lon="-122.937679829" visible="true"><tag k="addr:housenumber" v="366"/><tag k="addr:postcode" v="97123"/><tag k="addr:city" v="Hillsboro"/><tag k="addr:street" v="Southeast 43rd Avenue"/></node>
<node id="-51" lat="45.517522599" lon="-122.937693429" visible="true"><tag k="addr:housenumber" v="368"/><tag k="addr:postcode" v="97123"/><tag k="addr:city" v="Hillsboro"/><tag k="addr:street" v="Southeast 43rd Avenue"/></node>
<node id="-52" lat="45.519261873" lon="-122.931358113" visible="true"><tag k="addr:housenumber" v="163"/><tag k="addr:postcode" v="97123"/><tag k="addr:city" v="Hillsboro"/><tag k="addr:street" v="Southeast 50th Avenue"/></node>
<node id="-53" lat="45.519002083" lon="-122.931040275" visible="true"><tag k="addr:housenumber" v="195"/><tag k="addr:postcode" v="97123"/><tag k="addr:city" v="Hillsboro"/><tag k="addr:street" v="Southeast 50th Avenue"/></node>
<node id="-54" lat="45.518900295" lon="-122.931032891" visible="true"><tag k="addr:housenumber" v="197"/><tag k="addr:postcode" v="97123"/><tag k="addr:city" v="Hillsboro"/><tag k="addr:street" v="Southeast 50th Avenue"/></node>
<node id="-55" lat="45.516517133" lon="-122.937015127" visible="true"><tag k="addr:housenumber" v="493"/><tag k="addr:postcode" v="97123"/><tag k="addr:city" v="Hillsboro"/><tag k="addr:street" v="Southeast Brookwood Avenue"/></node>
<node id="-56" lat="45.516435795" lon="-122.937008014" visible="true"><tag k="addr:housenumber" v="495"/><tag k="addr:postcode" v="97123"/><tag k="addr:city" v="Hillsboro"/><tag k="addr:street" v="Southeast Brookwood Avenue"/></node>
<node id="-57" lat="45.514353512" lon="-122.936301942" visible="true"><tag k="addr:housenumber" v="766"/><tag k="addr:postcode" v="97123"/><tag k="addr:city" v="Hillsboro"/><tag k="addr:street" v="Southeast Brookwood Avenue"/></node>
<node id="-58" lat="45.516267839" lon="-122.938863551" visible="true"><tag k="addr:housenumber" v="4279"/><tag k="addr:postcode" v="97123"/><tag k="addr:city" v="Hillsboro"/><tag k="addr:street" v="Southeast Cedar Street"/></node>
<node id="-59" lat="45.516262764" lon="-122.938725065" visible="true"><tag k="addr:housenumber" v="4281"/><tag k="addr:postcode" v="97123"/><tag k="addr:city" v="Hillsboro"/><tag k="addr:street" v="Southeast Cedar Street"/></node>
<node id="-60" lat="45.519703387" lon="-122.938793838" visible="true"><tag k="addr:housenumber" v="4189"/><tag k="addr:postcode" v="97123"/><tag k="addr:city" v="Hillsboro"/><tag k="addr:street" v="Southeast Maya Court"/></node>
<node id="-61" lat="45.517708535" lon="-122.938820964" visible="true"><tag k="addr:housenumber" v="4195"/><tag k="addr:postcode" v="97123"/><tag k="addr:city" v="Hillsboro"/><tag k="addr:street" v="Southeast Oak Street"/></node>
<node id="-62" lat="45.517712678" lon="-122.938816159" visible="true"><tag k="addr:housenumber" v="4197"/><tag k="addr:postcode" v="97123"/><tag k="addr:city" v="Hillsboro"/><tag k="addr:street" v="Southeast Oak Street"/></node>
<node id="-63" lat="45.517711048" lon="-122.938818122" visible="true"><tag k="addr:housenumber" v="4199"/><tag k="addr:postcode" v="97123"/><tag k="addr:city" v="Hillsboro"/><tag k="addr:street" v="Southeast Oak Street"/></node>
<node id="-64" lat="45.517898226" lon="-122.93882804" visible="true"><tag k="addr:housenumber" v="4221"/><tag k="addr:postcode" v="97123"/><tag k="addr:city" v="Hillsboro"/><tag k="addr:street" v="Southeast Oak Street"/></node>
<node id="-65" lat="45.517895128" lon="-122.938819642" visible="true"><tag k="addr:housenumber" v="4223"/><tag k="addr:postcode" v="97123"/><tag k="addr:city" v="Hillsboro"/><tag k="addr:street" v="Southeast Oak Street"/></node>
<node id="-66" lat="45.517897232" lon="-122.938823735" visible="true"><tag k="addr:housenumber" v="4225"/><tag k="addr:postcode" v="97123"/><tag k="addr:city" v="Hillsboro"/><tag k="addr:street" v="Southeast Oak Street"/></node>
<node id="-67" lat="45.513557442" lon="-122.93903363" visible="true"><tag k="addr:housenumber" v="4190"/><tag k="addr:postcode" v="97123"/><tag k="addr:city" v="Hillsboro"/><tag k="addr:street" v="Southeast Spring Street"/></node>
<node id="-68" lat="45.513559865" lon="-122.93921525" visible="true"><tag k="addr:housenumber" v="4192"/><tag k="addr:postcode" v="97123"/><tag k="addr:city" v="Hillsboro"/><tag k="addr:street" v="Southeast Spring Street"/></node>
<node id="-69" lat="45.518503614" lon="-122.935998293" visible="true"><tag k="addr:housenumber" v="4453"/><tag k="addr:postcode" v="97123"/><tag k="addr:city" v="Hillsboro"/><tag k="addr:street" v="Southeast Sycamore Street"/></node>
<node id="-70" lat="45.51265353" lon="-122.936390912" visible="true"><tag k="addr:housenumber" v="1000"/><tag k="addr:postcode" v="97123"/><tag k="addr:city" v="Hillsboro"/><tag k="addr:street" v="Southwest Brookwood Avenue"/></node>
<node id="-71" lat="45.518476848" lon="-122.936004055" visible="true"><tag k="addr:housenumber" v="210"/><tag k="addr:postcode" v="97123"/><tag k="addr:city" v="Hillsboro"/><tag k="addr:street" v="Southwest Brookwood Avenue"/></node>
<node id="-72" lat="45.516736711" lon="-122.937351278" visible="true"><tag k="addr:housenumber" v="465"/><tag k="addr:postcode" v="97123"/><tag k="addr:city" v="Hillsboro"/><tag k="addr:street" v="Southwest Brookwood Avenue"/></node>
<node id="-73" lat="45.516682109" lon="-122.937351312" visible="true"><tag k="addr:housenumber" v="467"/><tag k="addr:postcode" v="97123"/><tag k="addr:city" v="Hillsboro"/><tag k="addr:street" v="Southwest Brookwood Avenue"/></node>
<node id="-74" lat="45.514350719" lon="-122.93629672" visible="true"><tag k="addr:housenumber" v="760"/><tag k="addr:postcode" v="97123"/><tag k="addr:city" v="Hillsboro"/><tag k="addr:street" v="Southwest Brookwood Avenue"/></node>
<node id="-75" lat="45.512692064" lon="-122.936296572" visible="true"><tag k="addr:housenumber" v="4614"/><tag k="addr:postcode" v="97123"/><tag k="addr:city" v="Hillsboro"/><tag k="addr:street" v="Southwest Ozark Lane"/></node>
<node id="-76" lat="45.519257095" lon="-122.93134968" visible="true"><tag k="addr:housenumber" v="24600"/><tag k="addr:postcode" v="97123"/><tag k="addr:city" v="Hillsboro"/><tag k="addr:street" v="West Baseline Road"/></node>
</osm>