<?xml version="1.0"?>
<osm version="0.6" upload="false" generator="uvmogr2osm">
<node id="-1" lat="45.522271008" lon="-122.927795688" visible="true"><tag k="addr:housenumber" v="150"/><tag k="addr:postcode" v="97124"/><tag k="addr:city" v="Hillsboro"/><tag k="addr:street" v="Northeast 53rd Avenue"/></node>
<node id="-2" lat="45.522266861" lon="-122.927797171" visible="true"><tag k="addr:housenumber" v="250"/><tag k="addr:postcode" v="97124"/><tag k="addr:city" v="Hillsboro"/><tag k="addr:street" v="Northeast 53rd Avenue"/></node>
<node id="-3" lat="45.522267026" lon="-122.927794334" visible="true"><tag k="addr:housenumber" v="300"/><tag k="addr:postcode" v="97124"/><tag k="addr:city" v="Hillsboro"/><tag k="addr:street" v="Northeast 53rd Avenue"/></node>
<node id="-4" lat="45.524978208" lon="-122.926669582" visible="true"><tag k="addr:housenumber" v="450"/><tag k="addr:postcode" v="97124"/><tag k="addr:city" v="Hillsboro"/><tag k="addr:street" v="Northeast 53rd Avenue"/></node>
<node id="-5" lat="45.522627881" lon="-122.91891298" visible="true"><tag k="addr:housenumber" v="212"/><tag k="addr:postcode" v="97124"/><tag k="addr:city" v="Hillsboro"/><tag k="addr:street" v="Northeast 61st Place"/></node>
<node id="-6" lat="45.522812926" lon="-122.918843449" visible="true"><tag k="addr:housenumber" v="220"/><tag k="addr:postcode" v="97124"/><tag k="addr:city" v="Hillsboro"/><tag k="addr:street" v="Northeast 61st Place"/></node>
<node id="-7" lat="45.522694949" lon="-122.918852899" visible="true"><tag k="addr:housenumber" v="227"/><tag k="addr:postcode" v="97124"/><tag k="addr:city" v="Hillsboro"/><tag k="addr:street" v="Northeast 61st Place"/></node>
<node id="-8" lat="45.522963804" lon="-122.91883176" visible="true"><tag k="addr:housenumber" v="228"/><tag k="addr:postcode" v="97124"/><tag k="addr:city" v="Hillsboro"/><tag k="addr:street" v="Northeast 61st Place"/></node>
<node id="-9" lat="45.522816074" lon="-122.918837155" visible="true"><tag k="addr:housenumber" v="235"/><tag k="addr:postcode" v="97124"/><tag k="addr:city" v="Hillsboro"/><tag k="addr:street" v="Northeast 61st Place"/></node>
<node id="-10" lat="45.522960798" lon="-122.91883135" visible="true"><tag k="addr:housenumber" v="243"/><tag k="addr:postcode" v="97124"/><tag k="addr:city" v="Hillsboro"/><tag k="addr:street" v="Northeast 61st Place"/></node>
<node id="-11" lat="45.521620455" lon="-122.918894886" visible="true"><tag k="addr:housenumber" v="155"/><tag k="addr:postcode" v="97124"/><tag k="addr:city" v="Hillsboro"/><tag k="addr:street" v="Northeast 61st Terrace"/></node>
<node id="-12" lat="45.521898663" lon="-122.918836884" visible="true"><tag k="addr:housenumber" v="163"/><tag k="addr:postcode" v="97124"/><tag k="addr:city" v="Hillsboro"/><tag k="addr:street" v="Northeast 61st Terrace"/></node>
<node id="-13" lat="45.521656329" lon="-122.918848045" visible="true"><tag k="addr:housenumber" v="167"/><tag k="addr:postcode" v="97124"/><tag k="addr:city" v="Hillsboro"/><tag k="addr:street" v="Northeast 61st Terrace"/></node>
<node id="-14" lat="45.522018" lon="-122.918834854" visible="true"><tag k="addr:housenumber" v="171"/><tag k="addr:postcode" v="97124"/><tag k="addr:city" v="Hillsboro"/><tag k="addr:street" v="Northeast 61st Terrace"/></node>
<node id="-15" lat="45.522152963" lon="-122.918828952" visible="true"><tag k="addr:housenumber" v="179"/><tag k="addr:postcode" v="97124"/><tag k="addr:city" v="Hillsboro"/><tag k="addr:street" v="Northeast 61st Terrace"/></node>
<node id="-16" lat="45.521943796" lon="-122.918850623" visible="true"><tag k="addr:housenumber" v="181"/><tag k="addr:postcode" v="97124"/><tag k="addr:city" v="Hillsboro"/><tag k="addr:street" v="Northeast 61st Terrace"/></node>
<node id="-17" lat="45.522271977" lon="-122.918838919" visible="true"><tag k="addr:housenumber" v="187"/><tag k="addr:postcode" v="97124"/><tag k="addr:city" v="Hillsboro"/><tag k="addr:street" v="Northeast 61st Terrace"/></node>
<node id="-18" lat="45.522071187" lon="-122.918850065" visible="true"><tag k="addr:housenumber" v="189"/><tag k="addr:postcode" v="97124"/><tag k="addr:city" v="Hillsboro"/><tag k="addr:street" v="Northeast 61st Terrace"/></node>
<node id="-19" lat="45.522386157" lon="-122.918888597" visible="true"><tag k="addr:housenumber" v="195"/><tag k="addr:postcode" v="97124"/><tag k="addr:city" v="Hillsboro"/><tag k="addr:street" v="Northeast 61st Terrace"/></node>
<node id="-20" lat="45.522185088" lon="-122.918844771" visible="true"><tag k="addr:housenumber" v="197"/><tag k="addr:postcode" v="97124"/><tag k="addr:city" v="Hillsboro"/><tag k="addr:street" v="Northeast 61st Terrace"/></node>
<node id="-21" lat="45.522311466" lon="-122.918848895" visible="true"><tag k="addr:housenumber" v="203"/><tag k="addr:postcode" v="97124"/><tag k="addr:city" v="Hillsboro"/><tag k="addr:street" v="Northeast 61st Terrace"/></node>
<node id="-22" lat="45.522432721" lon="-122.918860582" visible="true"><tag k="addr:housenumber" v="215"/><tag k="addr:postcode" v="97124"/><tag k="addr:city" v="Hillsboro"/><tag k="addr:street" v="Northeast 61st Terrace"/></node>
<node id="-23" lat="45.520204165" lon="-122.926222393" visible="true"><tag k="addr:housenumber" v="102"/><tag k="addr:postcode" v="97124"/><tag k="addr:city" v="Hillsboro"/><tag k="addr:street" v="Northeast Atlantic Place"/></node>
<node id="-24" lat="45.524975754" lon="-122.926673194" visible="true"><tag k="addr:housenumber" v="5353"/><tag k="addr:postcode" v="97124"/><tag k="addr:city" v="Hillsboro"/><tag k="addr:street" v="Northeast Hidden Creek Drive"/></node>
<node id="-25" lat="45.521948272" lon="-122.925702674" visible="true"><tag k="addr:housenumber" v="191"/><tag k="addr:postcode" v="97124"/><tag k="addr:city" v="Hillsboro"/><tag k="addr:street" v="Northeast Iberian Lane"/></node>
<node id="-26" lat="45.522691119" lon="-122.919140422" visible="true"><tag k="addr:housenumber" v="230"/><tag k="addr:postcode" v="97124"/><tag k="addr:city" v="Hillsboro"/><tag k="addr:street" v="Northeast Ironcreek Place"/></node>
<node id="-27" lat="45.522832947" lon="-122.919123564" visible="true"><tag k="addr:housenumber" v="238"/><tag k="addr:postcode" v="97124"/><tag k="addr:city" v="Hillsboro"/><tag k="addr:street" v="Northeast Ironcreek Place"/></node>
<node id="-28" lat="45.522854357" lon="-122.919578523" visible="true"><tag k="addr:housenumber" v="239"/><tag k="addr:postcode" v="97124"/><tag k="addr:city" v="Hillsboro"/><tag k="addr:street" v="Northeast Ironcreek Place"/></node>
<node id="-29" lat="45.522970889" lon="-122.919147106" visible="true"><tag k="addr:housenumber" v="246"/><tag k="addr:postcode" v="97124"/><tag k="addr:city" v="Hillsboro"/><tag k="addr:street" v="Northeast Ironcreek Place"/></node>
<node id="-30" lat="45.522969124" lon="-122.919565422" visible="true"><tag k="addr:housenumber" v="247"/><tag k="addr:postcode" v="97124"/><tag k="addr:city" v="Hillsboro"/><tag k="addr:street" v="Northeast Ironcreek Place"/></node>
<node id="-31" lat="45.521634001" lon="-122.919111398" visible="true"><tag k="addr:housenumber" v="168"/><tag k="addr:postcode" v="97124"/><tag k="addr:city" v="Hillsboro"/><tag k="addr:street" v="Northeast Ironcreek Terrace"/></node>
<node id="-32" lat="45.521625573" lon="-122.919552184" visible="true"><tag k="addr:housenumber" v="169"/><tag k="addr:postcode" v="97124"/><tag k="addr:city" v="Hillsboro"/><tag k="addr:street" v="Northeast Ironcreek Terrace"/></node>
<node id="-33" lat="45.521752429" lon="-122.919113184" visible="true"><tag k="addr:housenumber" v="176"/><tag k="addr:postcode" v="97124"/><tag k="addr:city" v="Hillsboro"/><tag k="addr:street" v="Northeast Ironcreek Terrace"/></node>
<node id="-34" lat="45.521756459" lon="-122.919542199" visible="true"><tag k="addr:housenumber" v="177"/><tag k="addr:postcode" v="97124"/><tag k="addr:city" v="Hillsboro"/><tag k="addr:street" v="Northeast Ironcreek Terrace"/></node>
<node id="-35" lat="45.521885601" lon="-122.919121079" visible="true"><tag k="addr:housenumber" v="182"/><tag k="addr:postcode" v="97124"/><tag k="addr:city" v="Hillsboro"/><tag k="addr:street" v="Northeast Ironcreek Terrace"/></node>
<node id="-36" lat="45.522021622" lon="-122.919549722" visible="true"><tag k="addr:housenumber" v="191"/><tag k="addr:postcode" v="97124"/><tag k="addr:city" v="Hillsboro"/><tag k="addr:street" v="Northeast Ironcreek Terrace"/></node>
<node id="-37" lat="45.522179627" lon="-122.919095176" visible="true"><tag k="addr:housenumber" v="198"/><tag k="addr:postcode" v="97124"/><tag k="addr:city" v="Hillsboro"/><tag k="addr:street" v="Northeast Ironcreek Terrace"/></node>
<node id="-38" lat="45.52215369" lon="-122.919552331" visible="true"><tag k="addr:housenumber" v="199"/><tag k="addr:postcode" v="97124"/><tag k="addr:city" v="Hillsboro"/><tag k="addr:street" v="Northeast Ironcreek Terrace"/></node>
<node id="-39" lat="45.522307675" lon="-122.919091387" visible="true"><tag k="addr:housenumber" v="204"/><tag k="addr:postcode" v="97124"/><tag k="addr:city" v="Hillsboro"/><tag k="addr:street" v="Northeast Ironcreek Terrace"/></node>
<node id="-40" lat="45.522290537" lon="-122.919570177" visible="true"><tag k="addr:housenumber" v="205"/><tag k="addr:postcode" v="97124"/><tag k="addr:city" v="Hillsboro"/><tag k="addr:street" v="Northeast Ironcreek Terrace"/></node>
<node id="-41" lat="45.522415086" lon="-122.919568936" visible="true"><tag k="addr:housenumber" v="213"/><tag k="addr:postcode" v="97124"/><tag k="addr:city" v="Hillsboro"/><tag k="addr:street" v="Northeast Ironcreek Terrace"/></node>
<node id="-42" lat="45.522413155" lon="-122.919128766" visible="true"><tag k="addr:housenumber" v="216"/><tag k="addr:postcode" v="97124"/><tag k="addr:city" v="Hillsboro"/><tag k="addr:street" v="Northeast Ironcreek Terrace"/></node>
<node id="-43" lat="45.52013661" lon="-122.925457706" visible="true"><tag k="addr:housenumber" v="5550"/><tag k="addr:postcode" v="97124"/><tag k="addr:city" v="Hillsboro"/><tag k="addr:street" v="Northeast Lagos Court"/></node>
<node id="-44" lat="45.521627951" lon="-122.919114048" visible="true"><tag k="addr:housenumber" v="151"/><tag k="addr:postcode" v="97124"/><tag k="addr:city" v="Hillsboro"/><tag k="addr:street" v="Northeast Leonard Terrace"/></node>
<node id="-45" lat="45.521626011" lon="-122.919549294" visible="true"><tag k="addr:housenumber" v="154"/><tag k="addr:postcode" v="97124"/><tag k="addr:city" v="Hillsboro"/><tag k="addr:street" v="Northeast Leonard Terrace"/></node>
<node id="-46" lat="45.521754476" lon="-122.919112699" visible="true"><tag k="addr:housenumber" v="159"/><tag k="addr:postcode" v="97124"/><tag k="addr:city" v="Hillsboro"/><tag k="addr:street" v="Northeast Leonard Terrace"/></node>
<node id="-47" lat="45.521752358" lon="-122.919541976" visible="true"><tag k="addr:housenumber" v="162"/><tag k="addr:postcode" v="97124"/><tag k="addr:city" v="Hillsboro"/><tag k="addr:street" v="Northeast Leonard Terrace"/></node>
<node id="-48" lat="45.521883653" lon="-122.919128568" visible="true"><tag k="addr:housenumber" v="167"/><tag k="addr:postcode" v="97124"/><tag k="addr:city" v="Hillsboro"/><tag k="addr:street" v="Northeast Leonard Terrace"/></node>
<node id="-49" lat="45.521970953" lon="-122.919605544" visible="true"><tag k="addr:housenumber" v="170"/><tag k="addr:postcode" v="97124"/><tag k="addr:city" v="Hillsboro"/><tag k="addr:street" v="Northeast Leonard Terrace"/></node>
<node id="-50" lat="45.522115708" lon="-122.919147974" visible="true"><tag k="addr:housenumber" v="175"/><tag k="addr:postcode" v="97124"/><tag k="addr:city" v="Hillsboro"/><tag k="addr:street" v="Northeast Leonard Terrace"/></node>
<node id="-51" lat="45.52211633" lon="-122.919609498" visible="true"><tag k="addr:housenumber" v="178"/><tag k="addr:postcode" v="97124"/><tag k="addr:city" v="Hillsboro"/><tag k="addr:street" v="Northeast Leonard Terrace"/></node>
<node id="-52" lat="45.522251557" lon="-122.919142666" visible="true"><tag k="addr:housenumber" v="183"/><tag k="addr:postcode" v="97124"/><tag k="addr:city" v="Hillsboro"/><tag k="addr:street" v="Northeast Leonard Terrace"/></node>
<node id="-53" lat="45.522232172" lon="-122.919578479" visible="true"><tag k="addr:housenumber" v="186"/><tag k="addr:postcode" v="97124"/><tag k="addr:city" v="Hillsboro"/><tag k="addr:street" v="Northeast Leonard Terrace"/></node>
<node id="-54" lat="45.52240343" lon="-122.919124118" visible="true"><tag k="addr:housenumber" v="191"/><tag k="addr:postcode" v="97124"/><tag k="addr:city" v="Hillsboro"/><tag k="addr:street" v="Northeast Leonard Terrace"/></node>
<node id="-55" lat="45.522381301" lon="-122.919560865" visible="true"><tag k="addr:housenumber" v="194"/><tag k="addr:postcode" v="97124"/><tag k="addr:city" v="Hillsboro"/><tag k="addr:street" v="Northeast Leonard Terrace"/></node>
<node id="-56" lat="45.522926024" lon="-122.919533667" visible="true"><tag k="addr:housenumber" v="199"/><tag k="addr:postcode" v="97124"/><tag k="addr:city" v="Hillsboro"/><tag k="addr:street" v="Northeast Leonard Terrace"/></node>
<node id="-57" lat="45.522638652" lon="-122.919160118" visible="true"><tag k="addr:housenumber" v="210"/><tag k="addr:postcode" v="97124"/><tag k="addr:city" v="Hillsboro"/><tag k="addr:street" v="Northeast Leonard Terrace"/></node>
<node id="-58" lat="45.522798984" lon="-122.919505675" visible="true"><tag k="addr:housenumber" v="215"/><tag k="addr:postcode" v="97124"/><tag k="addr:city" v="Hillsboro"/><tag k="addr:street" v="Northeast Leonard Terrace"/></node>
<node id="-59" lat="45.522782347" lon="-122.919079552" visible="true"><tag k="addr:housenumber" v="218"/><tag k="addr:postcode" v="97124"/><tag k="addr:city" v="Hillsboro"/><tag k="addr:street" v="Northeast Leonard Terrace"/></node>
<node id="-60" lat="45.522934112" lon="-122.919498933" visible="true"><tag k="addr:housenumber" v="223"/><tag k="addr:postcode" v="97124"/><tag k="addr:city" v="Hillsboro"/><tag k="addr:street" v="Northeast Leonard Terrace"/></node>
<node id="-61" lat="45.522901655" lon="-122.919120202" visible="true"><tag k="addr:housenumber" v="226"/><tag k="addr:postcode" v="97124"/><tag k="addr:city" v="Hillsboro"/><tag k="addr:street" v="Northeast Leonard Terrace"/></node>
<node id="-62" lat="45.521362183" lon="-122.926265318" visible="true"><tag k="addr:housenumber" v="144"/><tag k="addr:postcode" v="97124"/><tag k="addr:city" v="Hillsboro"/><tag k="addr:street" v="Northeast Ocean Loop"/></node>
<node id="-63" lat="45.521388057" lon="-122.919627099" visible="true"><tag k="addr:housenumber" v="6020"/><tag k="addr:postcode" v="97124"/><tag k="addr:city" v="Hillsboro"/><tag k="addr:street" v="Northeast Ostrum Drive"/></node>
<node id="-64" lat="45.521399775" lon="-122.919453715" visible="true"><tag k="addr:housenumber" v="6038"/><tag k="addr:postcode" v="97124"/><tag k="addr:city" v="Hillsboro"/><tag k="addr:street" v="Northeast Ostrum Drive"/></node>
<node id="-65" lat="45.521397745" lon="-122.91925872" visible="true"><tag k="addr:housenumber" v="6056"/><tag k="addr:postcode" v="97124"/><tag k="addr:city" v="Hillsboro"/><tag k="addr:street" v="Northeast Ostrum Drive"/></node>
<node id="-66" lat="45.521387946" lon="-122.919079545" visible="true"><tag k="addr:housenumber" v="6074"/><tag k="addr:postcode" v="97124"/><tag k="addr:city" v="Hillsboro"/><tag k="addr:street" v="Northeast Ostrum Drive"/></node>
<node id="-67" lat="45.521392055" lon="-122.918875613" visible="true"><tag k="addr:housenumber" v="6092"/><tag k="addr:postcode" v="97124"/><tag k="addr:city" v="Hillsboro"/><tag k="addr:street" v="Northeast Ostrum Drive"/></node>
<node id="-68" lat="45.520302038" lon="-122.925185706" visible="true"><tag k="addr:housenumber" v="106"/><tag k="addr:postcode" v="97124"/><tag k="addr:city" v="Hillsboro"/><tag k="addr:street" v="Northeast Porto Way"/></node>
<node id="-69" lat="45.521234776" lon="-122.925756918" visible="true"><tag k="addr:housenumber" v="153"/><tag k="addr:postcode" v="97124"/><tag k="addr:city" v="Hillsboro"/><tag k="addr:street" v="Northeast Porto Way"/></node>
<node id="-70" lat="45.521394231" lon="-122.919628387" visible="true"><tag k="addr:housenumber" v="6010"/><tag k="addr:postcode" v="97124"/><tag k="addr:city" v="Hillsboro"/><tag k="addr:street" v="Northeast Whitewood Drive"/></node>
<node id="-71" lat="45.521395365" lon="-122.919457102" visible="true"><tag k="addr:housenumber" v="6026"/><tag k="addr:postcode" v="97124"/><tag k="addr:city" v="Hillsboro"/><tag k="addr:street" v="Northeast Whitewood Drive"/></node>
<node id="-72" lat="45.521399347" lon="-122.919259181" visible="true"><tag k="addr:housenumber" v="6042"/><tag k="addr:postcode" v="97124"/><tag k="addr:city" v="Hillsboro"/><tag k="addr:street" v="Northeast Whitewood Drive"/></node>
<node id="-73" lat="45.521391909" lon="-122.919085896" visible="true"><tag k="addr:housenumber" v="6058"/><tag k="addr:postcode" v="97124"/><tag k="addr:city" v="Hillsboro"/><tag k="addr:street" v="Northeast Whitewood Drive"/></node>
<node id="-74" lat="45.52139208" lon="-122.918873598" visible="true"><tag k="addr:housenumber" v="6074"/><tag k="addr:postcode" v="97124"/><tag k="addr:city" v="Hillsboro"/><tag k="addr:street" v="Northeast Whitewood Drive"/></node>
<node id="-75" lat="45.521277989" lon="-122.925606234" visible="true"><tag k="addr:housenumber" v="180"/><tag k="addr:postcode" v="97124"/><tag k="addr:city" v="Hillsboro"/><tag k="addr:street" v="Northwest 242nd Avenue"/></node>
<node id="-76" lat="45.521419566" lon="-122.926365023" visible="true"><tag k="addr:housenumber" v="215"/><tag k="addr:postcode" v="97124"/><tag k="addr:city" v="Hillsboro"/><tag k="addr:street" v="Northwest 242nd Avenue"/></node>
<node id="-77" lat="45.521948396" lon="-122.92569563" visible="true"><tag k="addr:housenumber" v="280"/><tag k="addr:postcode" v="97124"/><tag k="addr:city" v="Hillsboro"/><tag k="addr:street" v="Northwest 242nd Avenue"/></node>
<node id="-78" lat="45.520293078" lon="-122.925179249" visible="true"><tag k="addr:housenumber" v="24145"/><tag k="addr:postcode" v="97123"/><tag k="addr:city" v="Hillsboro"/><tag k="addr:street" v="West Baseline Road"/></node>
<node id="-79" lat="45.520205021" lon="-122.926222839" visible="true"><tag k="addr:housenumber" v="24245"/><tag k="addr:postcode" v="97123"/><tag k="addr:city" v="Hillsboro"/><tag k="addr:street" v="West Baseline Road"/></node>
<node id="-80" lat="45.520138713" lon="-122.925460569" visible="true"><tag k="addr:housenumber" v="5545"/><tag k="addr:postcode" v="97123"/><tag k="addr:city" v="Hillsboro"/><tag k="addr:street" v="West Baseline Road"/></node>
</osm>