<?xml version="1.0"?>
<osm version="0.6" upload="false" generator="uvmogr2osm">
<node id="-1" lat="45.540951002" lon="-122.385882216" visible="true"><tag k="addr:housenumber" v="343"/><tag k="addr:postcode" v="97060"/><tag k="addr:city" v="Troutdale"/><tag k="addr:street" v="East Historic Columbia River Highway"/></node>
<node id="-2" lat="45.540949656" lon="-122.385881104" visible="true"><tag k="addr:housenumber" v="345"/><tag k="addr:postcode" v="97060"/><tag k="addr:city" v="Troutdale"/><tag k="addr:street" v="East Historic Columbia River Highway"/></node>
<node id="-3" lat="45.54095665" lon="-122.385884836" visible="true"><tag k="addr:housenumber" v="347"/><tag k="addr:postcode" v="97060"/><tag k="addr:city" v="Troutdale"/><tag k="addr:street" v="East Historic Columbia River Highway"/></node>
<node id="-4" lat="45.539463683" lon="-122.388830447" visible="true"><tag k="addr:housenumber" v="223"/><tag k="addr:postcode" v="97060"/><tag k="addr:city" v="Troutdale"/><tag k="addr:street" v="South Buxton Road"/></node>
<node id="-5" lat="45.53958755" lon="-122.385663066" visible="true"><tag k="addr:housenumber" v="354"/><tag k="addr:postcode" v="97060"/><tag k="addr:city" v="Troutdale"/><tag k="addr:street" v="Southeast 2nd Street"/></node>
<node id="-6" lat="45.53958874" lon="-122.385432442" visible="true"><tag k="addr:housenumber" v="366"/><tag k="addr:postcode" v="97060"/><tag k="addr:city" v="Troutdale"/><tag k="addr:street" v="Southeast 2nd Street"/></node>
<node id="-7" lat="45.539468744" lon="-122.385259959" visible="true"><tag k="addr:housenumber" v="378"/><tag k="addr:postcode" v="97060"/><tag k="addr:city" v="Troutdale"/><tag k="addr:street" v="Southeast 2nd Street"/></node>
<node id="-8" lat="45.539466114" lon="-122.385148047" visible="true"><tag k="addr:housenumber" v="390"/><tag k="addr:postcode" v="97060"/><tag k="addr:city" v="Troutdale"/><tag k="addr:street" v="Southeast 2nd Street"/></node>
<node id="-9" lat="45.539537091" lon="-122.385015897" visible="true"><tag k="addr:housenumber" v="402"/><tag k="addr:postcode" v="97060"/><tag k="addr:city" v="Troutdale"/><tag k="addr:street" v="Southeast 2nd Street"/></node>
<node id="-10" lat="45.540205959" lon="-122.384897848" visible="true"><tag k="addr:housenumber" v="403"/><tag k="addr:postcode" v="97060"/><tag k="addr:city" v="Troutdale"/><tag k="addr:street" v="Southeast 2nd Street"/></node>
<node id="-11" lat="45.539541157" lon="-122.385020682" visible="true"><tag k="addr:housenumber" v="414"/><tag k="addr:postcode" v="97060"/><tag k="addr:city" v="Troutdale"/><tag k="addr:street" v="Southeast 2nd Street"/></node>
<node id="-12" lat="45.539556915" lon="-122.384843926" visible="true"><tag k="addr:housenumber" v="426"/><tag k="addr:postcode" v="97060"/><tag k="addr:city" v="Troutdale"/><tag k="addr:street" v="Southeast 2nd Street"/></node>
<node id="-13" lat="45.53955874" lon="-122.384839752" visible="true"><tag k="addr:housenumber" v="438"/><tag k="addr:postcode" v="97060"/><tag k="addr:city" v="Troutdale"/><tag k="addr:street" v="Southeast 2nd Street"/></node>
<node id="-14" lat="45.540213729" lon="-122.384626356" visible="true"><tag k="addr:housenumber" v="443"/><tag k="addr:postcode" v="97060"/><tag k="addr:city" v="Troutdale"/><tag k="addr:street" v="Southeast 2nd Street"/></node>
<node id="-15" lat="45.539796128" lon="-122.384569175" visible="true"><tag k="addr:housenumber" v="444"/><tag k="addr:postcode" v="97060"/><tag k="addr:city" v="Troutdale"/><tag k="addr:street" v="Southeast 2nd Street"/></node>
<node id="-16" lat="45.539796074" lon="-122.384566629" visible="true"><tag k="addr:housenumber" v="446"/><tag k="addr:postcode" v="97060"/><tag k="addr:city" v="Troutdale"/><tag k="addr:street" v="Southeast 2nd Street"/></node>
<node id="-17" lat="45.539154536" lon="-122.387544472" visible="true"><tag k="addr:housenumber" v="114"/><tag k="addr:postcode" v="97060"/><tag k="addr:city" v="Troutdale"/><tag k="addr:street" v="Southeast 3rd Street"/></node>
<node id="-18" lat="45.53915345" lon="-122.387753807" visible="true"><tag k="addr:housenumber" v="116"/><tag k="addr:postcode" v="97060"/><tag k="addr:city" v="Troutdale"/><tag k="addr:street" v="Southeast 3rd Street"/></node>
<node id="-19" lat="45.539162364" lon="-122.386668982" visible="true"><tag k="addr:housenumber" v="210"/><tag k="addr:postcode" v="97060"/><tag k="addr:city" v="Troutdale"/><tag k="addr:street" v="Southeast 3rd Street"/></node>
<node id="-20" lat="45.539162587" lon="-122.386670986" visible="true"><tag k="addr:housenumber" v="212"/><tag k="addr:postcode" v="97060"/><tag k="addr:city" v="Troutdale"/><tag k="addr:street" v="Southeast 3rd Street"/></node>
<node id="-21" lat="45.539060923" lon="-122.385410917" visible="true"><tag k="addr:housenumber" v="350"/><tag k="addr:postcode" v="97060"/><tag k="addr:city" v="Troutdale"/><tag k="addr:street" v="Southeast 3rd Street"/></node>
<node id="-22" lat="45.539069924" lon="-122.385494296" visible="true"><tag k="addr:housenumber" v="360"/><tag k="addr:postcode" v="97060"/><tag k="addr:city" v="Troutdale"/><tag k="addr:street" v="Southeast 3rd Street"/></node>
<node id="-23" lat="45.539459401" lon="-122.384641879" visible="true"><tag k="addr:housenumber" v="443"/><tag k="addr:postcode" v="97060"/><tag k="addr:city" v="Troutdale"/><tag k="addr:street" v="Southeast 3rd Street"/></node>
<node id="-24" lat="45.5394565" lon="-122.384468609" visible="true"><tag k="addr:housenumber" v="445"/><tag k="addr:postcode" v="97060"/><tag k="addr:city" v="Troutdale"/><tag k="addr:street" v="Southeast 3rd Street"/></node>
<node id="-25" lat="45.538728095" lon="-122.386543664" visible="true"><tag k="addr:housenumber" v="247"/><tag k="addr:postcode" v="97060"/><tag k="addr:city" v="Troutdale"/><tag k="addr:street" v="Southeast 4th Street"/></node>
<node id="-26" lat="45.538799266" lon="-122.386549756" visible="true"><tag k="addr:housenumber" v="342"/><tag k="addr:postcode" v="97060"/><tag k="addr:city" v="Troutdale"/><tag k="addr:street" v="Southeast 4th Street"/></node>
<node id="-27" lat="45.539127342" lon="-122.384637524" visible="true"><tag k="addr:housenumber" v="435"/><tag k="addr:postcode" v="97060"/><tag k="addr:city" v="Troutdale"/><tag k="addr:street" v="Southeast 4th Street"/></node>
<node id="-28" lat="45.539129223" lon="-122.384638172" visible="true"><tag k="addr:housenumber" v="436"/><tag k="addr:postcode" v="97060"/><tag k="addr:city" v="Troutdale"/><tag k="addr:street" v="Southeast 4th Street"/></node>
<node id="-29" lat="45.539124322" lon="-122.384638569" visible="true"><tag k="addr:housenumber" v="438"/><tag k="addr:postcode" v="97060"/><tag k="addr:city" v="Troutdale"/><tag k="addr:street" v="Southeast 4th Street"/></node>
<node id="-30" lat="45.538956125" lon="-122.384637433" visible="true"><tag k="addr:housenumber" v="442"/><tag k="addr:postcode" v="97060"/><tag k="addr:city" v="Troutdale"/><tag k="addr:street" v="Southeast 4th Street"/></node>
<node id="-31" lat="45.538955589" lon="-122.384637341" visible="true"><tag k="addr:housenumber" v="444"/><tag k="addr:postcode" v="97060"/><tag k="addr:city" v="Troutdale"/><tag k="addr:street" v="Southeast 4th Street"/></node>
<node id="-32" lat="45.538772542" lon="-122.384614985" visible="true"><tag k="addr:housenumber" v="448"/><tag k="addr:postcode" v="97060"/><tag k="addr:city" v="Troutdale"/><tag k="addr:street" v="Southeast 4th Street"/></node>
<node id="-33" lat="45.538775485" lon="-122.384612066" visible="true"><tag k="addr:housenumber" v="450"/><tag k="addr:postcode" v="97060"/><tag k="addr:city" v="Troutdale"/><tag k="addr:street" v="Southeast 4th Street"/></node>
<node id="-34" lat="45.539583445" lon="-122.386108952" visible="true"><tag k="addr:housenumber" v="234"/><tag k="addr:postcode" v="97060"/><tag k="addr:city" v="Troutdale"/><tag k="addr:street" v="Southeast Harlow Avenue"/></node>
<node id="-35" lat="45.539586033" lon="-122.385963629" visible="true"><tag k="addr:housenumber" v="236"/><tag k="addr:postcode" v="97060"/><tag k="addr:city" v="Troutdale"/><tag k="addr:street" v="Southeast Harlow Avenue"/></node>
<node id="-36" lat="45.540613796" lon="-122.399866722" visible="true"><tag k="addr:housenumber" v="143"/><tag k="addr:postcode" v="97060"/><tag k="addr:city" v="Troutdale"/><tag k="addr:street" v="Southwest Edgefield Court"/></node>
<node id="-37" lat="45.540540944" lon="-122.399899927" visible="true"><tag k="addr:housenumber" v="145"/><tag k="addr:postcode" v="97060"/><tag k="addr:city" v="Troutdale"/><tag k="addr:street" v="Southwest Edgefield Court"/></node>
<node id="-38" lat="45.54048828" lon="-122.399271703" visible="true"><tag k="addr:housenumber" v="146"/><tag k="addr:postcode" v="97060"/><tag k="addr:city" v="Troutdale"/><tag k="addr:street" v="Southwest Edgefield Court"/></node>
<node id="-39" lat="45.540404314" lon="-122.399229904" visible="true"><tag k="addr:housenumber" v="148"/><tag k="addr:postcode" v="97060"/><tag k="addr:city" v="Troutdale"/><tag k="addr:street" v="Southwest Edgefield Court"/></node>
<node id="-40" lat="45.540288197" lon="-122.399269389" visible="true"><tag k="addr:housenumber" v="162"/><tag k="addr:postcode" v="97060"/><tag k="addr:city" v="Troutdale"/><tag k="addr:street" v="Southwest Edgefield Court"/></node>
<node id="-41" lat="45.54021521" lon="-122.399422359" visible="true"><tag k="addr:housenumber" v="164"/><tag k="addr:postcode" v="97060"/><tag k="addr:city" v="Troutdale"/><tag k="addr:street" v="Southwest Edgefield Court"/></node>
<node id="-42" lat="45.540412709" lon="-122.399853861" visible="true"><tag k="addr:housenumber" v="167"/><tag k="addr:postcode" v="97060"/><tag k="addr:city" v="Troutdale"/><tag k="addr:street" v="Southwest Edgefield Court"/></node>
<node id="-43" lat="45.540308849" lon="-122.399929066" visible="true"><tag k="addr:housenumber" v="169"/><tag k="addr:postcode" v="97060"/><tag k="addr:city" v="Troutdale"/><tag k="addr:street" v="Southwest Edgefield Court"/></node>
<node id="-44" lat="45.540224966" lon="-122.399993069" visible="true"><tag k="addr:housenumber" v="181"/><tag k="addr:postcode" v="97060"/><tag k="addr:city" v="Troutdale"/><tag k="addr:street" v="Southwest Edgefield Court"/></node>
<node id="-45" lat="45.540112875" lon="-122.400009767" visible="true"><tag k="addr:housenumber" v="183"/><tag k="addr:postcode" v="97060"/><tag k="addr:city" v="Troutdale"/><tag k="addr:street" v="Southwest Edgefield Court"/></node>
<node id="-46" lat="45.54007261" lon="-122.3993009" visible="true"><tag k="addr:housenumber" v="204"/><tag k="addr:postcode" v="97060"/><tag k="addr:city" v="Troutdale"/><tag k="addr:street" v="Southwest Edgefield Court"/></node>
<node id="-47" lat="45.540028039" lon="-122.399497344" visible="true"><tag k="addr:housenumber" v="206"/><tag k="addr:postcode" v="97060"/><tag k="addr:city" v="Troutdale"/><tag k="addr:street" v="Southwest Edgefield Court"/></node>
<node id="-48" lat="45.539916137" lon="-122.399570194" visible="true"><tag k="addr:housenumber" v="216"/><tag k="addr:postcode" v="97060"/><tag k="addr:city" v="Troutdale"/><tag k="addr:street" v="Southwest Edgefield Court"/></node>
<node id="-49" lat="45.539999369" lon="-122.40008248" visible="true"><tag k="addr:housenumber" v="217"/><tag k="addr:postcode" v="97060"/><tag k="addr:city" v="Troutdale"/><tag k="addr:street" v="Southwest Edgefield Court"/></node>
<node id="-50" lat="45.539849001" lon="-122.39937409" visible="true"><tag k="addr:housenumber" v="218"/><tag k="addr:postcode" v="97060"/><tag k="addr:city" v="Troutdale"/><tag k="addr:street" v="Southwest Edgefield Court"/></node>
<node id="-51" lat="45.539915663" lon="-122.400133107" visible="true"><tag k="addr:housenumber" v="219"/><tag k="addr:postcode" v="97060"/><tag k="addr:city" v="Troutdale"/><tag k="addr:street" v="Southwest Edgefield Court"/></node>
<node id="-52" lat="45.539806696" lon="-122.400150905" visible="true"><tag k="addr:housenumber" v="223"/><tag k="addr:postcode" v="97060"/><tag k="addr:city" v="Troutdale"/><tag k="addr:street" v="Southwest Edgefield Court"/></node>
<node id="-53" lat="45.539734527" lon="-122.400186116" visible="true"><tag k="addr:housenumber" v="225"/><tag k="addr:postcode" v="97060"/><tag k="addr:city" v="Troutdale"/><tag k="addr:street" v="Southwest Edgefield Court"/></node>
<node id="-54" lat="45.539404915" lon="-122.399449347" visible="true"><tag k="addr:housenumber" v="236"/><tag k="addr:postcode" v="97060"/><tag k="addr:city" v="Troutdale"/><tag k="addr:street" v="Southwest Edgefield Court"/></node>
<node id="-55" lat="45.539518926" lon="-122.400163243" visible="true"><tag k="addr:housenumber" v="237"/><tag k="addr:postcode" v="97060"/><tag k="addr:city" v="Troutdale"/><tag k="addr:street" v="Southwest Edgefield Court"/></node>
<node id="-56" lat="45.539301835" lon="-122.399482682" visible="true"><tag k="addr:housenumber" v="238"/><tag k="addr:postcode" v="97060"/><tag k="addr:city" v="Troutdale"/><tag k="addr:street" v="Southwest Edgefield Court"/></node>
<node id="-57" lat="45.539512722" lon="-122.400370488" visible="true"><tag k="addr:housenumber" v="239"/><tag k="addr:postcode" v="97060"/><tag k="addr:city" v="Troutdale"/><tag k="addr:street" v="Southwest Edgefield Court"/></node>
<node id="-58" lat="45.539383823" lon="-122.399679369" visible="true"><tag k="addr:housenumber" v="240"/><tag k="addr:postcode" v="97060"/><tag k="addr:city" v="Troutdale"/><tag k="addr:street" v="Southwest Edgefield Court"/></node>
<node id="-59" lat="45.539627419" lon="-122.400322035" visible="true"><tag k="addr:housenumber" v="241"/><tag k="addr:postcode" v="97060"/><tag k="addr:city" v="Troutdale"/><tag k="addr:street" v="Southwest Edgefield Court"/></node>
<node id="-60" lat="45.539288567" lon="-122.399963787" visible="true"><tag k="addr:housenumber" v="251"/><tag k="addr:postcode" v="97060"/><tag k="addr:city" v="Troutdale"/><tag k="addr:street" v="Southwest Edgefield Court"/></node>
<node id="-61" lat="45.539390385" lon="-122.400039118" visible="true"><tag k="addr:housenumber" v="253"/><tag k="addr:postcode" v="97060"/><tag k="addr:city" v="Troutdale"/><tag k="addr:street" v="Southwest Edgefield Court"/></node>
<node id="-62" lat="45.538800103" lon="-122.398255862" visible="true"><tag k="addr:housenumber" v="1026"/><tag k="addr:postcode" v="97060"/><tag k="addr:city" v="Troutdale"/><tag k="addr:street" v="Southwest Halsey Street"/></node>
<node id="-63" lat="45.538798064" lon="-122.398261418" visible="true"><tag k="addr:housenumber" v="1028"/><tag k="addr:postcode" v="97060"/><tag k="addr:city" v="Troutdale"/><tag k="addr:street" v="Southwest Halsey Street"/></node>
<node id="-64" lat="45.538497848" lon="-122.398310895" visible="true"><tag k="addr:housenumber" v="1030"/><tag k="addr:postcode" v="97060"/><tag k="addr:city" v="Troutdale"/><tag k="addr:street" v="Southwest Halsey Street"/></node>
<node id="-65" lat="45.538421057" lon="-122.398316296" visible="true"><tag k="addr:housenumber" v="1032"/><tag k="addr:postcode" v="97060"/><tag k="addr:city" v="Troutdale"/><tag k="addr:street" v="Southwest Halsey Street"/></node>
<node id="-66" lat="45.539279293" lon="-122.397783369" visible="true"><tag k="addr:housenumber" v="1085"/><tag k="addr:postcode" v="97060"/><tag k="addr:city" v="Troutdale"/><tag k="addr:street" v="Southwest Halsey Street"/></node>
<node id="-67" lat="45.539279732" lon="-122.397624208" visible="true"><tag k="addr:housenumber" v="1089"/><tag k="addr:postcode" v="97060"/><tag k="addr:city" v="Troutdale"/><tag k="addr:street" v="Southwest Halsey Street"/></node>
<node id="-68" lat="45.539256393" lon="-122.398177716" visible="true"><tag k="addr:housenumber" v="1093"/><tag k="addr:postcode" v="97060"/><tag k="addr:city" v="Troutdale"/><tag k="addr:street" v="Southwest Halsey Street"/></node>
<node id="-69" lat="45.539247458" lon="-122.398302813" visible="true"><tag k="addr:housenumber" v="1097"/><tag k="addr:postcode" v="97060"/><tag k="addr:city" v="Troutdale"/><tag k="addr:street" v="Southwest Halsey Street"/></node>
<node id="-70" lat="45.539468435" lon="-122.388831887" visible="true"><tag k="addr:housenumber" v="234"/><tag k="addr:postcode" v="97060"/><tag k="addr:city" v="Troutdale"/><tag k="addr:street" v="Southwest Kendall Court"/></node>
<node id="-71" lat="45.5409421" lon="-122.388490398" visible="true"><tag k="addr:housenumber" v="105"/><tag k="addr:postcode" v="97060"/><tag k="addr:city" v="Troutdale"/><tag k="addr:street" v="West Historic Columbia River Highway"/></node>
<node id="-72" lat="45.540935733" lon="-122.388492724" visible="true"><tag k="addr:housenumber" v="109"/><tag k="addr:postcode" v="97060"/><tag k="addr:city" v="Troutdale"/><tag k="addr:street" v="West Historic Columbia River Highway"/></node>
<node id="-73" lat="45.540939871" lon="-122.388488386" visible="true"><tag k="addr:housenumber" v="111"/><tag k="addr:postcode" v="97060"/><tag k="addr:city" v="Troutdale"/><tag k="addr:street" v="West Historic Columbia River Highway"/></node>
<node id="-74" lat="45.540942698" lon="-122.388491213" visible="true"><tag k="addr:housenumber" v="113"/><tag k="addr:postcode" v="97060"/><tag k="addr:city" v="Troutdale"/><tag k="addr:street" v="West Historic Columbia River Highway"/></node>
<node id="-75" lat="45.541067518" lon="-122.389311189" visible="true"><tag k="addr:housenumber" v="183"/><tag k="addr:postcode" v="97060"/><tag k="addr:city" v="Troutdale"/><tag k="addr:street" v="West Historic Columbia River Highway"/></node>
<node id="-76" lat="45.541089667" lon="-122.389681451" visible="true"><tag k="addr:housenumber" v="201"/><tag k="addr:postcode" v="97060"/><tag k="addr:city" v="Troutdale"/><tag k="addr:street" v="West Historic Columbia River Highway"/></node>
</osm>