<?xml version="1.0"?>
<osm version="0.6" upload="false" generator="uvmogr2osm">
<node id="-1" lat="45.533661779" lon="-122.451470346" visible="true"><tag k="addr:housenumber" v="1502"/><tag k="addr:postcode" v="97024"/><tag k="addr:city" v="Fairview"/><tag k="addr:street" v="Northeast 205th Avenue"/></node>
<node id="-2" lat="45.533670411" lon="-122.451469106" visible="true"><tag k="addr:housenumber" v="1506"/><tag k="addr:postcode" v="97024"/><tag k="addr:city" v="Fairview"/><tag k="addr:street" v="Northeast 205th Avenue"/></node>
<node id="-3" lat="45.536751026" lon="-122.452333831" visible="true"><tag k="addr:housenumber" v="1927"/><tag k="addr:postcode" v="97024"/><tag k="addr:city" v="Fairview"/><tag k="addr:street" v="Northeast 205th Avenue"/></node>
<node id="-4" lat="45.534349298" lon="-122.449766179" visible="true"><tag k="addr:housenumber" v="1603"/><tag k="addr:postcode" v="97024"/><tag k="addr:city" v="Fairview"/><tag k="addr:street" v="Northeast 207th Place"/></node>
<node id="-5" lat="45.534498744" lon="-122.449217154" visible="true"><tag k="addr:housenumber" v="1620"/><tag k="addr:postcode" v="97024"/><tag k="addr:city" v="Fairview"/><tag k="addr:street" v="Northeast 207th Place"/></node>
<node id="-6" lat="45.534521073" lon="-122.449764634" visible="true"><tag k="addr:housenumber" v="1621"/><tag k="addr:postcode" v="97024"/><tag k="addr:city" v="Fairview"/><tag k="addr:street" v="Northeast 207th Place"/></node>
<node id="-7" lat="45.534654922" lon="-122.449220507" visible="true"><tag k="addr:housenumber" v="1652"/><tag k="addr:postcode" v="97024"/><tag k="addr:city" v="Fairview"/><tag k="addr:street" v="Northeast 207th Place"/></node>
<node id="-8" lat="45.534682571" lon="-122.449765072" visible="true"><tag k="addr:housenumber" v="1657"/><tag k="addr:postcode" v="97024"/><tag k="addr:city" v="Fairview"/><tag k="addr:street" v="Northeast 207th Place"/></node>
<node id="-9" lat="45.534864895" lon="-122.44976043" visible="true"><tag k="addr:housenumber" v="1673"/><tag k="addr:postcode" v="97024"/><tag k="addr:city" v="Fairview"/><tag k="addr:street" v="Northeast 207th Place"/></node>
<node id="-10" lat="45.534243585" lon="-122.448429963" visible="true"><tag k="addr:housenumber" v="1580"/><tag k="addr:postcode" v="97024"/><tag k="addr:city" v="Fairview"/><tag k="addr:street" v="Northeast 208th Place"/></node>
<node id="-11" lat="45.534631537" lon="-122.448377742" visible="true"><tag k="addr:housenumber" v="1646"/><tag k="addr:postcode" v="97024"/><tag k="addr:city" v="Fairview"/><tag k="addr:street" v="Northeast 208th Place"/></node>
<node id="-12" lat="45.53487279" lon="-122.448812324" visible="true"><tag k="addr:housenumber" v="1677"/><tag k="addr:postcode" v="97024"/><tag k="addr:city" v="Fairview"/><tag k="addr:street" v="Northeast 208th Place"/></node>
<node id="-13" lat="45.534871323" lon="-122.448378775" visible="true"><tag k="addr:housenumber" v="1680"/><tag k="addr:postcode" v="97024"/><tag k="addr:city" v="Fairview"/><tag k="addr:street" v="Northeast 208th Place"/></node>
<node id="-14" lat="45.534866062" lon="-122.449762451" visible="true"><tag k="addr:housenumber" v="20717"/><tag k="addr:postcode" v="97024"/><tag k="addr:city" v="Fairview"/><tag k="addr:street" v="Northeast Caden Street"/></node>
<node id="-15" lat="45.534860812" lon="-122.449271194" visible="true"><tag k="addr:housenumber" v="20762"/><tag k="addr:postcode" v="97024"/><tag k="addr:city" v="Fairview"/><tag k="addr:street" v="Northeast Caden Street"/></node>
<node id="-16" lat="45.534866519" lon="-122.448814424" visible="true"><tag k="addr:housenumber" v="20796"/><tag k="addr:postcode" v="97024"/><tag k="addr:city" v="Fairview"/><tag k="addr:street" v="Northeast Caden Street"/></node>
<node id="-17" lat="45.534878293" lon="-122.448378366" visible="true"><tag k="addr:housenumber" v="20830"/><tag k="addr:postcode" v="97024"/><tag k="addr:city" v="Fairview"/><tag k="addr:street" v="Northeast Caden Street"/></node>
<node id="-18" lat="45.534350261" lon="-122.449759031" visible="true"><tag k="addr:housenumber" v="1603"/><tag k="addr:postcode" v="97024"/><tag k="addr:city" v="Fairview"/><tag k="addr:street" v="Northeast Fairview Parkway"/></node>
<node id="-19" lat="45.534493012" lon="-122.449218161" visible="true"><tag k="addr:housenumber" v="1620"/><tag k="addr:postcode" v="97024"/><tag k="addr:city" v="Fairview"/><tag k="addr:street" v="Northeast Fairview Parkway"/></node>
<node id="-20" lat="45.534518542" lon="-122.44975838" visible="true"><tag k="addr:housenumber" v="1621"/><tag k="addr:postcode" v="97024"/><tag k="addr:city" v="Fairview"/><tag k="addr:street" v="Northeast Fairview Parkway"/></node>
<node id="-21" lat="45.534661142" lon="-122.449217717" visible="true"><tag k="addr:housenumber" v="1652"/><tag k="addr:postcode" v="97024"/><tag k="addr:city" v="Fairview"/><tag k="addr:street" v="Northeast Fairview Parkway"/></node>
<node id="-22" lat="45.534687655" lon="-122.449761826" visible="true"><tag k="addr:housenumber" v="1657"/><tag k="addr:postcode" v="97024"/><tag k="addr:city" v="Fairview"/><tag k="addr:street" v="Northeast Fairview Parkway"/></node>
<node id="-23" lat="45.534860283" lon="-122.449757664" visible="true"><tag k="addr:housenumber" v="1673"/><tag k="addr:postcode" v="97024"/><tag k="addr:city" v="Fairview"/><tag k="addr:street" v="Northeast Fairview Parkway"/></node>
<node id="-24" lat="45.534867216" lon="-122.449271356" visible="true"><tag k="addr:housenumber" v="1676"/><tag k="addr:postcode" v="97024"/><tag k="addr:city" v="Fairview"/><tag k="addr:street" v="Northeast Fairview Parkway"/></node>
<node id="-25" lat="45.533919883" lon="-122.454916688" visible="true"><tag k="addr:housenumber" v="20147"/><tag k="addr:postcode" v="97024"/><tag k="addr:city" v="Fairview"/><tag k="addr:street" v="Northeast Halsey Street"/></node>
<node id="-26" lat="45.53391891" lon="-122.454915144" visible="true"><tag k="addr:housenumber" v="20197"/><tag k="addr:postcode" v="97060"/><tag k="addr:city" v="Fairview"/><tag k="addr:street" v="Northeast Halsey Street"/></node>
<node id="-27" lat="45.534353684" lon="-122.449768026" visible="true"><tag k="addr:housenumber" v="20715"/><tag k="addr:postcode" v="97024"/><tag k="addr:city" v="Fairview"/><tag k="addr:street" v="Northeast Jesse Street"/></node>
<node id="-28" lat="45.534234205" lon="-122.448426294" visible="true"><tag k="addr:housenumber" v="20810"/><tag k="addr:postcode" v="97024"/><tag k="addr:city" v="Fairview"/><tag k="addr:street" v="Northeast Kyle Court"/></node>
<node id="-29" lat="45.534626888" lon="-122.448377363" visible="true"><tag k="addr:housenumber" v="20829"/><tag k="addr:postcode" v="97024"/><tag k="addr:city" v="Fairview"/><tag k="addr:street" v="Northeast Kyle Court"/></node>
<node id="-30" lat="45.528115993" lon="-122.45035352" visible="true"><tag k="addr:housenumber" v="710"/><tag k="addr:postcode" v="97024"/><tag k="addr:city" v="Fairview"/><tag k="addr:street" v="Northeast West Pond Drive"/></node>
<node id="-31" lat="45.528110498" lon="-122.450594961" visible="true"><tag k="addr:housenumber" v="720"/><tag k="addr:postcode" v="97024"/><tag k="addr:city" v="Fairview"/><tag k="addr:street" v="Northeast West Pond Drive"/></node>
<node id="-32" lat="45.528227076" lon="-122.450711812" visible="true"><tag k="addr:housenumber" v="730"/><tag k="addr:postcode" v="97024"/><tag k="addr:city" v="Fairview"/><tag k="addr:street" v="Northeast West Pond Drive"/></node>
<node id="-33" lat="45.528330194" lon="-122.450787354" visible="true"><tag k="addr:housenumber" v="740"/><tag k="addr:postcode" v="97024"/><tag k="addr:city" v="Fairview"/><tag k="addr:street" v="Northeast West Pond Drive"/></node>
<node id="-34" lat="45.528457135" lon="-122.450865308" visible="true"><tag k="addr:housenumber" v="750"/><tag k="addr:postcode" v="97024"/><tag k="addr:city" v="Fairview"/><tag k="addr:street" v="Northeast West Pond Drive"/></node>
<node id="-35" lat="45.528573547" lon="-122.450927467" visible="true"><tag k="addr:housenumber" v="760"/><tag k="addr:postcode" v="97024"/><tag k="addr:city" v="Fairview"/><tag k="addr:street" v="Northeast West Pond Drive"/></node>
<node id="-36" lat="45.528685424" lon="-122.450985211" visible="true"><tag k="addr:housenumber" v="770"/><tag k="addr:postcode" v="97024"/><tag k="addr:city" v="Fairview"/><tag k="addr:street" v="Northeast West Pond Drive"/></node>
<node id="-37" lat="45.528841187" lon="-122.451117021" visible="true"><tag k="addr:housenumber" v="780"/><tag k="addr:postcode" v="97024"/><tag k="addr:city" v="Fairview"/><tag k="addr:street" v="Northeast West Pond Drive"/></node>
<node id="-38" lat="45.528957173" lon="-122.45113778" visible="true"><tag k="addr:housenumber" v="790"/><tag k="addr:postcode" v="97024"/><tag k="addr:city" v="Fairview"/><tag k="addr:street" v="Northeast West Pond Drive"/></node>
<node id="-39" lat="45.529097965" lon="-122.451150372" visible="true"><tag k="addr:housenumber" v="800"/><tag k="addr:postcode" v="97024"/><tag k="addr:city" v="Fairview"/><tag k="addr:street" v="Northeast West Pond Drive"/></node>
<node id="-40" lat="45.536748944" lon="-122.452328213" visible="true"><tag k="addr:housenumber" v="20449"/><tag k="addr:postcode" v="97024"/><tag k="addr:city" v="Fairview"/><tag k="addr:street" v="Northeast Wistful Vista Drive"/></node>
<node id="-41" lat="45.520844143" lon="-122.451727767" visible="true"><tag k="addr:housenumber" v="217"/><tag k="addr:postcode" v="97030"/><tag k="addr:city" v="Gresham"/><tag k="addr:street" v="Southeast 205th Place"/></node>
<node id="-42" lat="45.52084125" lon="-122.451730281" visible="true"><tag k="addr:housenumber" v="219"/><tag k="addr:postcode" v="97030"/><tag k="addr:city" v="Gresham"/><tag k="addr:street" v="Southeast 205th Place"/></node>
<node id="-43" lat="45.520788912" lon="-122.451263384" visible="true"><tag k="addr:housenumber" v="222"/><tag k="addr:postcode" v="97030"/><tag k="addr:city" v="Gresham"/><tag k="addr:street" v="Southeast 205th Place"/></node>
<node id="-44" lat="45.520794757" lon="-122.451269324" visible="true"><tag k="addr:housenumber" v="224"/><tag k="addr:postcode" v="97030"/><tag k="addr:city" v="Gresham"/><tag k="addr:street" v="Southeast 205th Place"/></node>
<node id="-45" lat="45.520630783" lon="-122.451272982" visible="true"><tag k="addr:housenumber" v="306"/><tag k="addr:postcode" v="97030"/><tag k="addr:city" v="Gresham"/><tag k="addr:street" v="Southeast 205th Place"/></node>
<node id="-46" lat="45.520621371" lon="-122.451265341" visible="true"><tag k="addr:housenumber" v="308"/><tag k="addr:postcode" v="97030"/><tag k="addr:city" v="Gresham"/><tag k="addr:street" v="Southeast 205th Place"/></node>
<node id="-47" lat="45.52044704" lon="-122.451745702" visible="true"><tag k="addr:housenumber" v="309"/><tag k="addr:postcode" v="97030"/><tag k="addr:city" v="Gresham"/><tag k="addr:street" v="Southeast 205th Place"/></node>
<node id="-48" lat="45.520449942" lon="-122.45174709" visible="true"><tag k="addr:housenumber" v="311"/><tag k="addr:postcode" v="97030"/><tag k="addr:city" v="Gresham"/><tag k="addr:street" v="Southeast 205th Place"/></node>
<node id="-49" lat="45.520459422" lon="-122.451195259" visible="true"><tag k="addr:housenumber" v="312"/><tag k="addr:postcode" v="97030"/><tag k="addr:city" v="Gresham"/><tag k="addr:street" v="Southeast 205th Place"/></node>
<node id="-50" lat="45.520458919" lon="-122.451197806" visible="true"><tag k="addr:housenumber" v="314"/><tag k="addr:postcode" v="97030"/><tag k="addr:city" v="Gresham"/><tag k="addr:street" v="Southeast 205th Place"/></node>
<node id="-51" lat="45.520283057" lon="-122.451176211" visible="true"><tag k="addr:housenumber" v="320"/><tag k="addr:postcode" v="97030"/><tag k="addr:city" v="Gresham"/><tag k="addr:street" v="Southeast 205th Place"/></node>
<node id="-52" lat="45.520227729" lon="-122.451718386" visible="true"><tag k="addr:housenumber" v="321"/><tag k="addr:postcode" v="97030"/><tag k="addr:city" v="Gresham"/><tag k="addr:street" v="Southeast 205th Place"/></node>
<node id="-53" lat="45.520282559" lon="-122.451177221" visible="true"><tag k="addr:housenumber" v="322"/><tag k="addr:postcode" v="97030"/><tag k="addr:city" v="Gresham"/><tag k="addr:street" v="Southeast 205th Place"/></node>
<node id="-54" lat="45.520229124" lon="-122.45172407" visible="true"><tag k="addr:housenumber" v="323"/><tag k="addr:postcode" v="97030"/><tag k="addr:city" v="Gresham"/><tag k="addr:street" v="Southeast 205th Place"/></node>
<node id="-55" lat="45.520044716" lon="-122.451749132" visible="true"><tag k="addr:housenumber" v="333"/><tag k="addr:postcode" v="97030"/><tag k="addr:city" v="Gresham"/><tag k="addr:street" v="Southeast 205th Place"/></node>
<node id="-56" lat="45.520101264" lon="-122.4511493" visible="true"><tag k="addr:housenumber" v="334"/><tag k="addr:postcode" v="97030"/><tag k="addr:city" v="Gresham"/><tag k="addr:street" v="Southeast 205th Place"/></node>
<node id="-57" lat="45.520098769" lon="-122.451146899" visible="true"><tag k="addr:housenumber" v="336"/><tag k="addr:postcode" v="97030"/><tag k="addr:city" v="Gresham"/><tag k="addr:street" v="Southeast 205th Place"/></node>
<node id="-58" lat="45.520048694" lon="-122.451754274" visible="true"><tag k="addr:housenumber" v="339"/><tag k="addr:postcode" v="97030"/><tag k="addr:city" v="Gresham"/><tag k="addr:street" v="Southeast 205th Place"/></node>
<node id="-59" lat="45.519831179" lon="-122.451674113" visible="true"><tag k="addr:housenumber" v="401"/><tag k="addr:postcode" v="97030"/><tag k="addr:city" v="Gresham"/><tag k="addr:street" v="Southeast 205th Place"/></node>
<node id="-60" lat="45.519916241" lon="-122.451096343" visible="true"><tag k="addr:housenumber" v="404"/><tag k="addr:postcode" v="97030"/><tag k="addr:city" v="Gresham"/><tag k="addr:street" v="Southeast 205th Place"/></node>
<node id="-61" lat="45.519832233" lon="-122.451672864" visible="true"><tag k="addr:housenumber" v="405"/><tag k="addr:postcode" v="97030"/><tag k="addr:city" v="Gresham"/><tag k="addr:street" v="Southeast 205th Place"/></node>
<node id="-62" lat="45.519913887" lon="-122.451098398" visible="true"><tag k="addr:housenumber" v="406"/><tag k="addr:postcode" v="97030"/><tag k="addr:city" v="Gresham"/><tag k="addr:street" v="Southeast 205th Place"/></node>
<node id="-63" lat="45.519576638" lon="-122.450995995" visible="true"><tag k="addr:housenumber" v="410"/><tag k="addr:postcode" v="97030"/><tag k="addr:city" v="Gresham"/><tag k="addr:street" v="Southeast 205th Place"/></node>
<node id="-64" lat="45.519580204" lon="-122.451000021" visible="true"><tag k="addr:housenumber" v="412"/><tag k="addr:postcode" v="97030"/><tag k="addr:city" v="Gresham"/><tag k="addr:street" v="Southeast 205th Place"/></node>
<node id="-65" lat="45.51935097" lon="-122.451495217" visible="true"><tag k="addr:housenumber" v="421"/><tag k="addr:postcode" v="97030"/><tag k="addr:city" v="Gresham"/><tag k="addr:street" v="Southeast 205th Place"/></node>
<node id="-66" lat="45.519352618" lon="-122.45149741" visible="true"><tag k="addr:housenumber" v="425"/><tag k="addr:postcode" v="97030"/><tag k="addr:city" v="Gresham"/><tag k="addr:street" v="Southeast 205th Place"/></node>
<node id="-67" lat="45.519350308" lon="-122.451737107" visible="true"><tag k="addr:housenumber" v="20481"/><tag k="addr:postcode" v="97030"/><tag k="addr:city" v="Gresham"/><tag k="addr:street" v="Southeast Stark Street"/></node>
<node id="-68" lat="45.519354699" lon="-122.451734766" visible="true"><tag k="addr:housenumber" v="20491"/><tag k="addr:postcode" v="97030"/><tag k="addr:city" v="Gresham"/><tag k="addr:street" v="Southeast Stark Street"/></node>
<node id="-69" lat="45.528116206" lon="-122.450351837" visible="true"><tag k="addr:housenumber" v="710"/><tag k="addr:postcode" v="97024"/><tag k="addr:city" v="Fairview"/><tag k="addr:street" v="West Pond Drive"/></node>
<node id="-70" lat="45.528104535" lon="-122.450596682" visible="true"><tag k="addr:housenumber" v="720"/><tag k="addr:postcode" v="97024"/><tag k="addr:city" v="Fairview"/><tag k="addr:street" v="West Pond Drive"/></node>
<node id="-71" lat="45.528231871" lon="-122.450713395" visible="true"><tag k="addr:housenumber" v="730"/><tag k="addr:postcode" v="97024"/><tag k="addr:city" v="Fairview"/><tag k="addr:street" v="West Pond Drive"/></node>
<node id="-72" lat="45.528327797" lon="-122.4507824" visible="true"><tag k="addr:housenumber" v="740"/><tag k="addr:postcode" v="97024"/><tag k="addr:city" v="Fairview"/><tag k="addr:street" v="West Pond Drive"/></node>
<node id="-73" lat="45.528462129" lon="-122.450861396" visible="true"><tag k="addr:housenumber" v="750"/><tag k="addr:postcode" v="97024"/><tag k="addr:city" v="Fairview"/><tag k="addr:street" v="West Pond Drive"/></node>
<node id="-74" lat="45.528574093" lon="-122.450925419" visible="true"><tag k="addr:housenumber" v="760"/><tag k="addr:postcode" v="97024"/><tag k="addr:city" v="Fairview"/><tag k="addr:street" v="West Pond Drive"/></node>
<node id="-75" lat="45.528690542" lon="-122.450982791" visible="true"><tag k="addr:housenumber" v="770"/><tag k="addr:postcode" v="97024"/><tag k="addr:city" v="Fairview"/><tag k="addr:street" v="West Pond Drive"/></node>
<node id="-76" lat="45.528839807" lon="-122.451125165" visible="true"><tag k="addr:housenumber" v="780"/><tag k="addr:postcode" v="97024"/><tag k="addr:city" v="Fairview"/><tag k="addr:street" v="West Pond Drive"/></node>
<node id="-77" lat="45.528960518" lon="-122.451138876" visible="true"><tag k="addr:housenumber" v="790"/><tag k="addr:postcode" v="97024"/><tag k="addr:city" v="Fairview"/><tag k="addr:street" v="West Pond Drive"/></node>
<node id="-78" lat="45.529092376" lon="-122.451148438" visible="true"><tag k="addr:housenumber" v="800"/><tag k="addr:postcode" v="97024"/><tag k="addr:city" v="Fairview"/><tag k="addr:street" v="West Pond Drive"/></node>
</osm>