<?xml version="1.0"?>
<osm version="0.6" upload="false" generator="uvmogr2osm">
<node id="-1" lat="45.522325246" lon="-122.485721696" visible="true"><tag k="addr:housenumber" v="17245"/><tag k="addr:postcode" v="97233"/><tag k="addr:city" v="Portland"/><tag k="addr:street" v="East Burnside Street"/></node>
<node id="-2" lat="45.522324912" lon="-122.48571833" visible="true"><tag k="addr:housenumber" v="17257"/><tag k="addr:postcode" v="97233"/><tag k="addr:city" v="Portland"/><tag k="addr:street" v="East Burnside Street"/></node>
<node id="-3" lat="45.521572006" lon="-122.484984613" visible="true"><tag k="addr:housenumber" v="17312"/><tag k="addr:postcode" v="97233"/><tag k="addr:city" v="Portland"/><tag k="addr:street" v="East Burnside Street"/></node>
<node id="-4" lat="45.521574934" lon="-122.484986483" visible="true"><tag k="addr:housenumber" v="17314"/><tag k="addr:postcode" v="97233"/><tag k="addr:city" v="Portland"/><tag k="addr:street" v="East Burnside Street"/></node>
<node id="-5" lat="45.522447212" lon="-122.480781522" visible="true"><tag k="addr:housenumber" v="17711"/><tag k="addr:postcode" v="97233"/><tag k="addr:city" v="Portland"/><tag k="addr:street" v="East Burnside Street"/></node>
<node id="-6" lat="45.522448458" lon="-122.480775843" visible="true"><tag k="addr:housenumber" v="17713"/><tag k="addr:postcode" v="97233"/><tag k="addr:city" v="Portland"/><tag k="addr:street" v="East Burnside Street"/></node>
<node id="-7" lat="45.522444451" lon="-122.480776701" visible="true"><tag k="addr:housenumber" v="17715"/><tag k="addr:postcode" v="97233"/><tag k="addr:city" v="Portland"/><tag k="addr:street" v="East Burnside Street"/></node>
<node id="-8" lat="45.522443737" lon="-122.480781875" visible="true"><tag k="addr:housenumber" v="17717"/><tag k="addr:postcode" v="97233"/><tag k="addr:city" v="Portland"/><tag k="addr:street" v="East Burnside Street"/></node>
<node id="-9" lat="45.521367469" lon="-122.478691687" visible="true"><tag k="addr:housenumber" v="17900"/><tag k="addr:postcode" v="97233"/><tag k="addr:city" v="Portland"/><tag k="addr:street" v="East Burnside Street"/></node>
<node id="-10" lat="45.521366305" lon="-122.478688852" visible="true"><tag k="addr:housenumber" v="17922"/><tag k="addr:postcode" v="97233"/><tag k="addr:city" v="Portland"/><tag k="addr:street" v="East Burnside Street"/></node>
<node id="-11" lat="45.525611749" lon="-122.482059358" visible="true"><tag k="addr:housenumber" v="430"/><tag k="addr:postcode" v="97230"/><tag k="addr:city" v="Portland"/><tag k="addr:street" v="Northeast 176th Avenue"/></node>
<node id="-12" lat="45.525612975" lon="-122.482056244" visible="true"><tag k="addr:housenumber" v="434"/><tag k="addr:postcode" v="97230"/><tag k="addr:city" v="Portland"/><tag k="addr:street" v="Northeast 176th Avenue"/></node>
<node id="-13" lat="45.525877056" lon="-122.482054752" visible="true"><tag k="addr:housenumber" v="462"/><tag k="addr:postcode" v="97230"/><tag k="addr:city" v="Portland"/><tag k="addr:street" v="Northeast 176th Avenue"/></node>
<node id="-14" lat="45.525878285" lon="-122.482056402" visible="true"><tag k="addr:housenumber" v="464"/><tag k="addr:postcode" v="97230"/><tag k="addr:city" v="Portland"/><tag k="addr:street" v="Northeast 176th Avenue"/></node>
<node id="-15" lat="45.525884931" lon="-122.482053816" visible="true"><tag k="addr:housenumber" v="466"/><tag k="addr:postcode" v="97230"/><tag k="addr:city" v="Portland"/><tag k="addr:street" v="Northeast 176th Avenue"/></node>
<node id="-16" lat="45.525884026" lon="-122.482055801" visible="true"><tag k="addr:housenumber" v="468"/><tag k="addr:postcode" v="97230"/><tag k="addr:city" v="Portland"/><tag k="addr:street" v="Northeast 176th Avenue"/></node>
<node id="-17" lat="45.526186404" lon="-122.482086169" visible="true"><tag k="addr:housenumber" v="472"/><tag k="addr:postcode" v="97230"/><tag k="addr:city" v="Portland"/><tag k="addr:street" v="Northeast 176th Avenue"/></node>
<node id="-18" lat="45.526185092" lon="-122.482091629" visible="true"><tag k="addr:housenumber" v="474"/><tag k="addr:postcode" v="97230"/><tag k="addr:city" v="Portland"/><tag k="addr:street" v="Northeast 176th Avenue"/></node>
<node id="-19" lat="45.526187963" lon="-122.482089069" visible="true"><tag k="addr:housenumber" v="476"/><tag k="addr:postcode" v="97230"/><tag k="addr:city" v="Portland"/><tag k="addr:street" v="Northeast 176th Avenue"/></node>
<node id="-20" lat="45.526185075" lon="-122.482084014" visible="true"><tag k="addr:housenumber" v="478"/><tag k="addr:postcode" v="97230"/><tag k="addr:city" v="Portland"/><tag k="addr:street" v="Northeast 176th Avenue"/></node>
<node id="-21" lat="45.522230716" lon="-122.478958515" visible="true"><tag k="addr:housenumber" v="19"/><tag k="addr:postcode" v="97230"/><tag k="addr:city" v="Portland"/><tag k="addr:street" v="Northeast 179th Avenue"/></node>
<node id="-22" lat="45.522238876" lon="-122.478952638" visible="true"><tag k="addr:housenumber" v="21"/><tag k="addr:postcode" v="97230"/><tag k="addr:city" v="Portland"/><tag k="addr:street" v="Northeast 179th Avenue"/></node>
<node id="-23" lat="45.522342664" lon="-122.47895574" visible="true"><tag k="addr:housenumber" v="25"/><tag k="addr:postcode" v="97230"/><tag k="addr:city" v="Portland"/><tag k="addr:street" v="Northeast 179th Avenue"/></node>
<node id="-24" lat="45.522346484" lon="-122.478946435" visible="true"><tag k="addr:housenumber" v="27"/><tag k="addr:postcode" v="97230"/><tag k="addr:city" v="Portland"/><tag k="addr:street" v="Northeast 179th Avenue"/></node>
<node id="-25" lat="45.522889742" lon="-122.478953693" visible="true"><tag k="addr:housenumber" v="75"/><tag k="addr:postcode" v="97230"/><tag k="addr:city" v="Portland"/><tag k="addr:street" v="Northeast 179th Avenue"/></node>
<node id="-26" lat="45.5228911" lon="-122.478952948" visible="true"><tag k="addr:housenumber" v="77"/><tag k="addr:postcode" v="97230"/><tag k="addr:city" v="Portland"/><tag k="addr:street" v="Northeast 179th Avenue"/></node>
<node id="-27" lat="45.522487334" lon="-122.477751506" visible="true"><tag k="addr:housenumber" v="1"/><tag k="addr:postcode" v="97230"/><tag k="addr:city" v="Portland"/><tag k="addr:street" v="Northeast 181st Avenue"/></node>
<node id="-28" lat="45.522485664" lon="-122.477754287" visible="true"><tag k="addr:housenumber" v="11"/><tag k="addr:postcode" v="97230"/><tag k="addr:city" v="Portland"/><tag k="addr:street" v="Northeast 181st Avenue"/></node>
<node id="-29" lat="45.52249062" lon="-122.477758751" visible="true"><tag k="addr:housenumber" v="15"/><tag k="addr:postcode" v="97230"/><tag k="addr:city" v="Portland"/><tag k="addr:street" v="Northeast 181st Avenue"/></node>
<node id="-30" lat="45.523570701" lon="-122.477470708" visible="true"><tag k="addr:housenumber" v="155"/><tag k="addr:postcode" v="97230"/><tag k="addr:city" v="Portland"/><tag k="addr:street" v="Northeast 181st Avenue"/></node>
<node id="-31" lat="45.523566166" lon="-122.47747578" visible="true"><tag k="addr:housenumber" v="165"/><tag k="addr:postcode" v="97230"/><tag k="addr:city" v="Portland"/><tag k="addr:street" v="Northeast 181st Avenue"/></node>
<node id="-32" lat="45.522490768" lon="-122.477757149" visible="true"><tag k="addr:housenumber" v="3"/><tag k="addr:postcode" v="97230"/><tag k="addr:city" v="Portland"/><tag k="addr:street" v="Northeast 181st Avenue"/></node>
<node id="-33" lat="45.525379925" lon="-122.476790764" visible="true"><tag k="addr:housenumber" v="338"/><tag k="addr:postcode" v="97230"/><tag k="addr:city" v="Portland"/><tag k="addr:street" v="Northeast 181st Avenue"/></node>
<node id="-34" lat="45.525496332" lon="-122.476780102" visible="true"><tag k="addr:housenumber" v="352"/><tag k="addr:postcode" v="97230"/><tag k="addr:city" v="Portland"/><tag k="addr:street" v="Northeast 181st Avenue"/></node>
<node id="-35" lat="45.52249006" lon="-122.477757353" visible="true"><tag k="addr:housenumber" v="5"/><tag k="addr:postcode" v="97230"/><tag k="addr:city" v="Portland"/><tag k="addr:street" v="Northeast 181st Avenue"/></node>
<node id="-36" lat="45.522486414" lon="-122.477759166" visible="true"><tag k="addr:housenumber" v="7"/><tag k="addr:postcode" v="97230"/><tag k="addr:city" v="Portland"/><tag k="addr:street" v="Northeast 181st Avenue"/></node>
<node id="-37" lat="45.527953959" lon="-122.476478696" visible="true"><tag k="addr:housenumber" v="720"/><tag k="addr:postcode" v="97230"/><tag k="addr:city" v="Portland"/><tag k="addr:street" v="Northeast 181st Avenue"/></node>
<node id="-38" lat="45.527953221" lon="-122.476478744" visible="true"><tag k="addr:housenumber" v="726"/><tag k="addr:postcode" v="97230"/><tag k="addr:city" v="Portland"/><tag k="addr:street" v="Northeast 181st Avenue"/></node>
<node id="-39" lat="45.52795444" lon="-122.476476543" visible="true"><tag k="addr:housenumber" v="730"/><tag k="addr:postcode" v="97230"/><tag k="addr:city" v="Portland"/><tag k="addr:street" v="Northeast 181st Avenue"/></node>
<node id="-40" lat="45.527952021" lon="-122.476485484" visible="true"><tag k="addr:housenumber" v="732"/><tag k="addr:postcode" v="97230"/><tag k="addr:city" v="Portland"/><tag k="addr:street" v="Northeast 181st Avenue"/></node>
<node id="-41" lat="45.527955594" lon="-122.476484699" visible="true"><tag k="addr:housenumber" v="742"/><tag k="addr:postcode" v="97230"/><tag k="addr:city" v="Portland"/><tag k="addr:street" v="Northeast 181st Avenue"/></node>
<node id="-42" lat="45.5279584" lon="-122.476478715" visible="true"><tag k="addr:housenumber" v="746"/><tag k="addr:postcode" v="97230"/><tag k="addr:city" v="Portland"/><tag k="addr:street" v="Northeast 181st Avenue"/></node>
<node id="-43" lat="45.527954239" lon="-122.476484234" visible="true"><tag k="addr:housenumber" v="750"/><tag k="addr:postcode" v="97230"/><tag k="addr:city" v="Portland"/><tag k="addr:street" v="Northeast 181st Avenue"/></node>
<node id="-44" lat="45.522485225" lon="-122.477759032" visible="true"><tag k="addr:housenumber" v="9"/><tag k="addr:postcode" v="97230"/><tag k="addr:city" v="Portland"/><tag k="addr:street" v="Northeast 181st Avenue"/></node>
<node id="-45" lat="45.523301886" lon="-122.478942725" visible="true"><tag k="addr:housenumber" v="17835"/><tag k="addr:postcode" v="97230"/><tag k="addr:city" v="Portland"/><tag k="addr:street" v="Northeast Couch Street"/></node>
<node id="-46" lat="45.523301801" lon="-122.478942947" visible="true"><tag k="addr:housenumber" v="17841"/><tag k="addr:postcode" v="97230"/><tag k="addr:city" v="Portland"/><tag k="addr:street" v="Northeast Couch Street"/></node>
<node id="-47" lat="45.523296328" lon="-122.478943846" visible="true"><tag k="addr:housenumber" v="17847"/><tag k="addr:postcode" v="97230"/><tag k="addr:city" v="Portland"/><tag k="addr:street" v="Northeast Couch Street"/></node>
<node id="-48" lat="45.523564758" lon="-122.477476227" visible="true"><tag k="addr:housenumber" v="18016"/><tag k="addr:postcode" v="97230"/><tag k="addr:city" v="Portland"/><tag k="addr:street" v="Northeast Davis Street"/></node>
<node id="-49" lat="45.523565615" lon="-122.477474757" visible="true"><tag k="addr:housenumber" v="18020"/><tag k="addr:postcode" v="97230"/><tag k="addr:city" v="Portland"/><tag k="addr:street" v="Northeast Davis Street"/></node>
<node id="-50" lat="45.523569031" lon="-122.477470437" visible="true"><tag k="addr:housenumber" v="18028"/><tag k="addr:postcode" v="97230"/><tag k="addr:city" v="Portland"/><tag k="addr:street" v="Northeast Davis Street"/></node>
<node id="-51" lat="45.523972296" lon="-122.476237084" visible="true"><tag k="addr:housenumber" v="18136"/><tag k="addr:postcode" v="97230"/><tag k="addr:city" v="Portland"/><tag k="addr:street" v="Northeast Everett Court"/></node>
<node id="-52" lat="45.523971101" lon="-122.476233873" visible="true"><tag k="addr:housenumber" v="18138"/><tag k="addr:postcode" v="97230"/><tag k="addr:city" v="Portland"/><tag k="addr:street" v="Northeast Everett Court"/></node>
<node id="-53" lat="45.523977211" lon="-122.475972068" visible="true"><tag k="addr:housenumber" v="18146"/><tag k="addr:postcode" v="97230"/><tag k="addr:city" v="Portland"/><tag k="addr:street" v="Northeast Everett Court"/></node>
<node id="-54" lat="45.523971366" lon="-122.475967749" visible="true"><tag k="addr:housenumber" v="18148"/><tag k="addr:postcode" v="97230"/><tag k="addr:city" v="Portland"/><tag k="addr:street" v="Northeast Everett Court"/></node>
<node id="-55" lat="45.52459719" lon="-122.47782142" visible="true"><tag k="addr:housenumber" v="17972"/><tag k="addr:postcode" v="97230"/><tag k="addr:city" v="Portland"/><tag k="addr:street" v="Northeast Everett Street"/></node>
<node id="-56" lat="45.524596407" lon="-122.477819958" visible="true"><tag k="addr:housenumber" v="17978"/><tag k="addr:postcode" v="97230"/><tag k="addr:city" v="Portland"/><tag k="addr:street" v="Northeast Everett Street"/></node>
<node id="-57" lat="45.524801325" lon="-122.477866837" visible="true"><tag k="addr:housenumber" v="17986"/><tag k="addr:postcode" v="97230"/><tag k="addr:city" v="Portland"/><tag k="addr:street" v="Northeast Everett Street"/></node>
<node id="-58" lat="45.524791692" lon="-122.477864311" visible="true"><tag k="addr:housenumber" v="17996"/><tag k="addr:postcode" v="97230"/><tag k="addr:city" v="Portland"/><tag k="addr:street" v="Northeast Everett Street"/></node>
<node id="-59" lat="45.526642849" lon="-122.485709894" visible="true"><tag k="addr:housenumber" v="17205"/><tag k="addr:postcode" v="97230"/><tag k="addr:city" v="Portland"/><tag k="addr:street" v="Northeast Glisan Street"/></node>
<node id="-60" lat="45.526639663" lon="-122.485714253" visible="true"><tag k="addr:housenumber" v="17215"/><tag k="addr:postcode" v="97230"/><tag k="addr:city" v="Portland"/><tag k="addr:street" v="Northeast Glisan Street"/></node>
<node id="-61" lat="45.526644131" lon="-122.485710976" visible="true"><tag k="addr:housenumber" v="17225"/><tag k="addr:postcode" v="97230"/><tag k="addr:city" v="Portland"/><tag k="addr:street" v="Northeast Glisan Street"/></node>
<node id="-62" lat="45.526092155" lon="-122.484854022" visible="true"><tag k="addr:housenumber" v="17320"/><tag k="addr:postcode" v="97230"/><tag k="addr:city" v="Portland"/><tag k="addr:street" v="Northeast Glisan Street"/></node>
<node id="-63" lat="45.526091365" lon="-122.484852809" visible="true"><tag k="addr:housenumber" v="17326"/><tag k="addr:postcode" v="97230"/><tag k="addr:city" v="Portland"/><tag k="addr:street" v="Northeast Glisan Street"/></node>
<node id="-64" lat="45.525259518" lon="-122.478273479" visible="true"><tag k="addr:housenumber" v="17988"/><tag k="addr:postcode" v="97230"/><tag k="addr:city" v="Portland"/><tag k="addr:street" v="Northeast Glisan Street"/></node>
<node id="-65" lat="45.525255016" lon="-122.478268984" visible="true"><tag k="addr:housenumber" v="17990"/><tag k="addr:postcode" v="97230"/><tag k="addr:city" v="Portland"/><tag k="addr:street" v="Northeast Glisan Street"/></node>
<node id="-66" lat="45.525253073" lon="-122.478269326" visible="true"><tag k="addr:housenumber" v="18000"/><tag k="addr:postcode" v="97230"/><tag k="addr:city" v="Portland"/><tag k="addr:street" v="Northeast Glisan Street"/></node>
<node id="-67" lat="45.52525748" lon="-122.478274447" visible="true"><tag k="addr:housenumber" v="18010"/><tag k="addr:postcode" v="97230"/><tag k="addr:city" v="Portland"/><tag k="addr:street" v="Northeast Glisan Street"/></node>
<node id="-68" lat="45.532441697" lon="-122.479115002" visible="true"><tag k="addr:housenumber" v="17826"/><tag k="addr:postcode" v="97230"/><tag k="addr:city" v="Portland"/><tag k="addr:street" v="Northeast Multnomah Drive"/></node>
<node id="-69" lat="45.532439239" lon="-122.479119987" visible="true"><tag k="addr:housenumber" v="17828"/><tag k="addr:postcode" v="97230"/><tag k="addr:city" v="Portland"/><tag k="addr:street" v="Northeast Multnomah Drive"/></node>
<node id="-70" lat="45.53235917" lon="-122.478858917" visible="true"><tag k="addr:housenumber" v="17867"/><tag k="addr:postcode" v="97230"/><tag k="addr:city" v="Portland"/><tag k="addr:street" v="Northeast Wasco Street"/></node>
<node id="-71" lat="45.53235616" lon="-122.478858684" visible="true"><tag k="addr:housenumber" v="17869"/><tag k="addr:postcode" v="97230"/><tag k="addr:city" v="Portland"/><tag k="addr:street" v="Northeast Wasco Street"/></node>
<node id="-72" lat="45.532267199" lon="-122.478606408" visible="true"><tag k="addr:housenumber" v="17901"/><tag k="addr:postcode" v="97230"/><tag k="addr:city" v="Portland"/><tag k="addr:street" v="Northeast Wasco Street"/></node>
<node id="-73" lat="45.532269146" lon="-122.478600677" visible="true"><tag k="addr:housenumber" v="17903"/><tag k="addr:postcode" v="97230"/><tag k="addr:city" v="Portland"/><tag k="addr:street" v="Northeast Wasco Street"/></node>
<node id="-74" lat="45.532175105" lon="-122.478347375" visible="true"><tag k="addr:housenumber" v="17917"/><tag k="addr:postcode" v="97230"/><tag k="addr:city" v="Portland"/><tag k="addr:street" v="Northeast Wasco Street"/></node>
<node id="-75" lat="45.532177515" lon="-122.478352322" visible="true"><tag k="addr:housenumber" v="17919"/><tag k="addr:postcode" v="97230"/><tag k="addr:city" v="Portland"/><tag k="addr:street" v="Northeast Wasco Street"/></node>
<node id="-76" lat="45.531748772" lon="-122.478418138" visible="true"><tag k="addr:housenumber" v="17930"/><tag k="addr:postcode" v="97230"/><tag k="addr:city" v="Portland"/><tag k="addr:street" v="Northeast Wasco Street"/></node>
<node id="-77" lat="45.531749566" lon="-122.478418602" visible="true"><tag k="addr:housenumber" v="17932"/><tag k="addr:postcode" v="97230"/><tag k="addr:city" v="Portland"/><tag k="addr:street" v="Northeast Wasco Street"/></node>
<node id="-78" lat="45.521075193" lon="-122.484958236" visible="true"><tag k="addr:housenumber" v="210"/><tag k="addr:postcode" v="97233"/><tag k="addr:city" v="Portland"/><tag k="addr:street" v="Southeast 172nd Avenue"/></node>
<node id="-79" lat="45.521076627" lon="-122.484961201" visible="true"><tag k="addr:housenumber" v="212"/><tag k="addr:postcode" v="97233"/><tag k="addr:city" v="Portland"/><tag k="addr:street" v="Southeast 172nd Avenue"/></node>
<node id="-80" lat="45.521067598" lon="-122.484957737" visible="true"><tag k="addr:housenumber" v="214"/><tag k="addr:postcode" v="97233"/><tag k="addr:city" v="Portland"/><tag k="addr:street" v="Southeast 172nd Avenue"/></node>
<node id="-81" lat="45.521430332" lon="-122.481605881" visible="true"><tag k="addr:housenumber" v="126"/><tag k="addr:postcode" v="97233"/><tag k="addr:city" v="Portland"/><tag k="addr:street" v="Southeast 176th Place"/></node>
<node id="-82" lat="45.521427764" lon="-122.481600192" visible="true"><tag k="addr:housenumber" v="128"/><tag k="addr:postcode" v="97233"/><tag k="addr:city" v="Portland"/><tag k="addr:street" v="Southeast 176th Place"/></node>
<node id="-83" lat="45.521428562" lon="-122.481607262" visible="true"><tag k="addr:housenumber" v="130"/><tag k="addr:postcode" v="97233"/><tag k="addr:city" v="Portland"/><tag k="addr:street" v="Southeast 176th Place"/></node>
<node id="-84" lat="45.521070571" lon="-122.482163902" visible="true"><tag k="addr:housenumber" v="201"/><tag k="addr:postcode" v="97233"/><tag k="addr:city" v="Portland"/><tag k="addr:street" v="Southeast 176th Place"/></node>
<node id="-85" lat="45.521069819" lon="-122.482162448" visible="true"><tag k="addr:housenumber" v="203"/><tag k="addr:postcode" v="97233"/><tag k="addr:city" v="Portland"/><tag k="addr:street" v="Southeast 176th Place"/></node>
<node id="-86" lat="45.521026836" lon="-122.481467709" visible="true"><tag k="addr:housenumber" v="204"/><tag k="addr:postcode" v="97233"/><tag k="addr:city" v="Portland"/><tag k="addr:street" v="Southeast 176th Place"/></node>
<node id="-87" lat="45.521071718" lon="-122.482162633" visible="true"><tag k="addr:housenumber" v="205"/><tag k="addr:postcode" v="97233"/><tag k="addr:city" v="Portland"/><tag k="addr:street" v="Southeast 176th Place"/></node>
<node id="-88" lat="45.521029423" lon="-122.481473116" visible="true"><tag k="addr:housenumber" v="208"/><tag k="addr:postcode" v="97233"/><tag k="addr:city" v="Portland"/><tag k="addr:street" v="Southeast 176th Place"/></node>
<node id="-89" lat="45.520803714" lon="-122.481476778" visible="true"><tag k="addr:housenumber" v="300"/><tag k="addr:postcode" v="97233"/><tag k="addr:city" v="Portland"/><tag k="addr:street" v="Southeast 176th Place"/></node>
<node id="-90" lat="45.521348245" lon="-122.476588066" visible="true"><tag k="addr:housenumber" v="114"/><tag k="addr:postcode" v="97233"/><tag k="addr:city" v="Portland"/><tag k="addr:street" v="Southeast 181st Avenue"/></node>
<node id="-91" lat="45.521348688" lon="-122.476596062" visible="true"><tag k="addr:housenumber" v="116"/><tag k="addr:postcode" v="97233"/><tag k="addr:city" v="Portland"/><tag k="addr:street" v="Southeast 181st Avenue"/></node>
<node id="-92" lat="45.520786602" lon="-122.477478185" visible="true"><tag k="addr:housenumber" v="229"/><tag k="addr:postcode" v="97233"/><tag k="addr:city" v="Portland"/><tag k="addr:street" v="Southeast 181st Avenue"/></node>
<node id="-93" lat="45.520783322" lon="-122.477477557" visible="true"><tag k="addr:housenumber" v="235"/><tag k="addr:postcode" v="97233"/><tag k="addr:city" v="Portland"/><tag k="addr:street" v="Southeast 181st Avenue"/></node>
<node id="-94" lat="45.520072028" lon="-122.475968985" visible="true"><tag k="addr:housenumber" v="18155"/><tag k="addr:postcode" v="97233"/><tag k="addr:city" v="Portland"/><tag k="addr:street" v="Southeast Oak Street"/></node>
<node id="-95" lat="45.52006413" lon="-122.475961749" visible="true"><tag k="addr:housenumber" v="18165"/><tag k="addr:postcode" v="97233"/><tag k="addr:city" v="Portland"/><tag k="addr:street" v="Southeast Oak Street"/></node>
<node id="-96" lat="45.520068921" lon="-122.475960345" visible="true"><tag k="addr:housenumber" v="18175"/><tag k="addr:postcode" v="97233"/><tag k="addr:city" v="Portland"/><tag k="addr:street" v="Southeast Oak Street"/></node>
<node id="-97" lat="45.520404535" lon="-122.483468589" visible="true"><tag k="addr:housenumber" v="17322"/><tag k="addr:postcode" v="97233"/><tag k="addr:city" v="Portland"/><tag k="addr:street" v="Southeast Pine Street"/></node>
<node id="-98" lat="45.520411774" lon="-122.483471928" visible="true"><tag k="addr:housenumber" v="17324"/><tag k="addr:postcode" v="97233"/><tag k="addr:city" v="Portland"/><tag k="addr:street" v="Southeast Pine Street"/></node>
<node id="-99" lat="45.520178014" lon="-122.482639154" visible="true"><tag k="addr:housenumber" v="17546"/><tag k="addr:postcode" v="97233"/><tag k="addr:city" v="Portland"/><tag k="addr:street" v="Southeast Pine Street"/></node>
<node id="-100" lat="45.520180313" lon="-122.482638127" visible="true"><tag k="addr:housenumber" v="17548"/><tag k="addr:postcode" v="97233"/><tag k="addr:city" v="Portland"/><tag k="addr:street" v="Southeast Pine Street"/></node>
<node id="-101" lat="45.520186707" lon="-122.482644382" visible="true"><tag k="addr:housenumber" v="17550"/><tag k="addr:postcode" v="97233"/><tag k="addr:city" v="Portland"/><tag k="addr:street" v="Southeast Pine Street"/></node>
<node id="-102" lat="45.520796633" lon="-122.481470878" visible="true"><tag k="addr:housenumber" v="17625"/><tag k="addr:postcode" v="97233"/><tag k="addr:city" v="Portland"/><tag k="addr:street" v="Southeast Pine Street"/></node>
<node id="-103" lat="45.520245371" lon="-122.480698999" visible="true"><tag k="addr:housenumber" v="17702"/><tag k="addr:postcode" v="97233"/><tag k="addr:city" v="Portland"/><tag k="addr:street" v="Southeast Pine Street"/></node>
<node id="-104" lat="45.520244927" lon="-122.480701978" visible="true"><tag k="addr:housenumber" v="17704"/><tag k="addr:postcode" v="97233"/><tag k="addr:city" v="Portland"/><tag k="addr:street" v="Southeast Pine Street"/></node>
<node id="-105" lat="45.520242886" lon="-122.480704263" visible="true"><tag k="addr:housenumber" v="17706"/><tag k="addr:postcode" v="97233"/><tag k="addr:city" v="Portland"/><tag k="addr:street" v="Southeast Pine Street"/></node>
<node id="-106" lat="45.520245784" lon="-122.480707707" visible="true"><tag k="addr:housenumber" v="17708"/><tag k="addr:postcode" v="97233"/><tag k="addr:city" v="Portland"/><tag k="addr:street" v="Southeast Pine Street"/></node>
<node id="-107" lat="45.520245392" lon="-122.480703563" visible="true"><tag k="addr:housenumber" v="17710"/><tag k="addr:postcode" v="97233"/><tag k="addr:city" v="Portland"/><tag k="addr:street" v="Southeast Pine Street"/></node>
<node id="-108" lat="45.520247627" lon="-122.480697961" visible="true"><tag k="addr:housenumber" v="17712"/><tag k="addr:postcode" v="97233"/><tag k="addr:city" v="Portland"/><tag k="addr:street" v="Southeast Pine Street"/></node>
<node id="-109" lat="45.520240913" lon="-122.480706441" visible="true"><tag k="addr:housenumber" v="17714"/><tag k="addr:postcode" v="97233"/><tag k="addr:city" v="Portland"/><tag k="addr:street" v="Southeast Pine Street"/></node>
<node id="-110" lat="45.520241341" lon="-122.480707558" visible="true"><tag k="addr:housenumber" v="17716"/><tag k="addr:postcode" v="97233"/><tag k="addr:city" v="Portland"/><tag k="addr:street" v="Southeast Pine Street"/></node>
<node id="-111" lat="45.52024758" lon="-122.480698294" visible="true"><tag k="addr:housenumber" v="17718"/><tag k="addr:postcode" v="97233"/><tag k="addr:city" v="Portland"/><tag k="addr:street" v="Southeast Pine Street"/></node>
<node id="-112" lat="45.520249298" lon="-122.480700675" visible="true"><tag k="addr:housenumber" v="17720"/><tag k="addr:postcode" v="97233"/><tag k="addr:city" v="Portland"/><tag k="addr:street" v="Southeast Pine Street"/></node>
<node id="-113" lat="45.520326906" lon="-122.477513637" visible="true"><tag k="addr:housenumber" v="18020"/><tag k="addr:postcode" v="97233"/><tag k="addr:city" v="Portland"/><tag k="addr:street" v="Southeast Pine Street"/></node>
<node id="-114" lat="45.52032704" lon="-122.477513385" visible="true"><tag k="addr:housenumber" v="18024"/><tag k="addr:postcode" v="97233"/><tag k="addr:city" v="Portland"/><tag k="addr:street" v="Southeast Pine Street"/></node>
<node id="-115" lat="45.519748616" lon="-122.485391352" visible="true"><tag k="addr:housenumber" v="17215"/><tag k="addr:postcode" v="97233"/><tag k="addr:city" v="Portland"/><tag k="addr:street" v="Southeast Stark Street"/></node>
<node id="-116" lat="45.519750535" lon="-122.485387786" visible="true"><tag k="addr:housenumber" v="17217"/><tag k="addr:postcode" v="97233"/><tag k="addr:city" v="Portland"/><tag k="addr:street" v="Southeast Stark Street"/></node>
<node id="-117" lat="45.519751688" lon="-122.485383758" visible="true"><tag k="addr:housenumber" v="17219"/><tag k="addr:postcode" v="97233"/><tag k="addr:city" v="Portland"/><tag k="addr:street" v="Southeast Stark Street"/></node>
<node id="-118" lat="45.519746933" lon="-122.485386731" visible="true"><tag k="addr:housenumber" v="17221"/><tag k="addr:postcode" v="97233"/><tag k="addr:city" v="Portland"/><tag k="addr:street" v="Southeast Stark Street"/></node>
<node id="-119" lat="45.51939781" lon="-122.483661802" visible="true"><tag k="addr:housenumber" v="17405"/><tag k="addr:postcode" v="97233"/><tag k="addr:city" v="Portland"/><tag k="addr:street" v="Southeast Stark Street"/></node>
<node id="-120" lat="45.519396642" lon="-122.483665347" visible="true"><tag k="addr:housenumber" v="17409"/><tag k="addr:postcode" v="97233"/><tag k="addr:city" v="Portland"/><tag k="addr:street" v="Southeast Stark Street"/></node>
<node id="-121" lat="45.519537863" lon="-122.475870366" visible="true"><tag k="addr:housenumber" v="18187"/><tag k="addr:postcode" v="97233"/><tag k="addr:city" v="Portland"/><tag k="addr:street" v="Southeast Stark Street"/></node>
<node id="-122" lat="45.519539824" lon="-122.475869417" visible="true"><tag k="addr:housenumber" v="18201"/><tag k="addr:postcode" v="97233"/><tag k="addr:city" v="Portland"/><tag k="addr:street" v="Southeast Stark Street"/></node>
</osm>