<?xml version="1.0"?>
<osm version="0.6" upload="false" generator="uvmogr2osm">
<node id="-1" lat="45.548219931" lon="-122.492675555" visible="true"><tag k="addr:housenumber" v="3531"/><tag k="addr:postcode" v="97230"/><tag k="addr:city" v="Portland"/><tag k="addr:street" v="Northeast 165th Avenue"/></node>
<node id="-2" lat="45.548532041" lon="-122.492635201" visible="true"><tag k="addr:housenumber" v="3539"/><tag k="addr:postcode" v="97230"/><tag k="addr:city" v="Portland"/><tag k="addr:street" v="Northeast 165th Avenue"/></node>
<node id="-3" lat="45.552852925" lon="-122.472028708" visible="true"><tag k="addr:housenumber" v="4122"/><tag k="addr:postcode" v="97230"/><tag k="addr:city" v="Portland"/><tag k="addr:street" v="Northeast 185th Drive"/></node>
<node id="-4" lat="45.552854338" lon="-122.472035841" visible="true"><tag k="addr:housenumber" v="4152"/><tag k="addr:postcode" v="97230"/><tag k="addr:city" v="Portland"/><tag k="addr:street" v="Northeast 185th Drive"/></node>
<node id="-5" lat="45.552850182" lon="-122.472028345" visible="true"><tag k="addr:housenumber" v="4286"/><tag k="addr:postcode" v="97230"/><tag k="addr:city" v="Portland"/><tag k="addr:street" v="Northeast 185th Drive"/></node>
<node id="-6" lat="45.552821542" lon="-122.470173048" visible="true"><tag k="addr:housenumber" v="4131"/><tag k="addr:postcode" v="97230"/><tag k="addr:city" v="Portland"/><tag k="addr:street" v="Northeast 189th Avenue"/></node>
<node id="-7" lat="45.552820187" lon="-122.470171282" visible="true"><tag k="addr:housenumber" v="4161"/><tag k="addr:postcode" v="97230"/><tag k="addr:city" v="Portland"/><tag k="addr:street" v="Northeast 189th Avenue"/></node>
<node id="-8" lat="45.552822402" lon="-122.470177476" visible="true"><tag k="addr:housenumber" v="4253"/><tag k="addr:postcode" v="97230"/><tag k="addr:city" v="Portland"/><tag k="addr:street" v="Northeast 189th Avenue"/></node>
<node id="-9" lat="45.552822472" lon="-122.470178626" visible="true"><tag k="addr:housenumber" v="4293"/><tag k="addr:postcode" v="97230"/><tag k="addr:city" v="Portland"/><tag k="addr:street" v="Northeast 189th Avenue"/></node>
<node id="-10" lat="45.556593509" lon="-122.46770744" visible="true"><tag k="addr:housenumber" v="4655"/><tag k="addr:postcode" v="97230"/><tag k="addr:city" v="Portland"/><tag k="addr:street" v="Northeast 190th Lane"/></node>
<node id="-11" lat="45.556600143" lon="-122.46770207" visible="true"><tag k="addr:housenumber" v="4669"/><tag k="addr:postcode" v="97230"/><tag k="addr:city" v="Portland"/><tag k="addr:street" v="Northeast 190th Lane"/></node>
<node id="-12" lat="45.55719064" lon="-122.466833927" visible="true"><tag k="addr:housenumber" v="4732"/><tag k="addr:postcode" v="97230"/><tag k="addr:city" v="Portland"/><tag k="addr:street" v="Northeast 190th Lane"/></node>
<node id="-13" lat="45.557514252" lon="-122.467716178" visible="true"><tag k="addr:housenumber" v="4743"/><tag k="addr:postcode" v="97230"/><tag k="addr:city" v="Portland"/><tag k="addr:street" v="Northeast 190th Lane"/></node>
<node id="-14" lat="45.557194548" lon="-122.466830908" visible="true"><tag k="addr:housenumber" v="4764"/><tag k="addr:postcode" v="97230"/><tag k="addr:city" v="Portland"/><tag k="addr:street" v="Northeast 190th Lane"/></node>
<node id="-15" lat="45.557198249" lon="-122.466839017" visible="true"><tag k="addr:housenumber" v="4772"/><tag k="addr:postcode" v="97230"/><tag k="addr:city" v="Portland"/><tag k="addr:street" v="Northeast 190th Lane"/></node>
<node id="-16" lat="45.557514381" lon="-122.467713973" visible="true"><tag k="addr:housenumber" v="4783"/><tag k="addr:postcode" v="97230"/><tag k="addr:city" v="Portland"/><tag k="addr:street" v="Northeast 190th Lane"/></node>
<node id="-17" lat="45.54694076" lon="-122.47822925" visible="true"><tag k="addr:housenumber" v="18032"/><tag k="addr:postcode" v="97230"/><tag k="addr:city" v="Portland"/><tag k="addr:street" v="Northeast Airport Way"/></node>
<node id="-18" lat="45.546935497" lon="-122.478230611" visible="true"><tag k="addr:housenumber" v="18066"/><tag k="addr:postcode" v="97230"/><tag k="addr:city" v="Portland"/><tag k="addr:street" v="Northeast Airport Way"/></node>
<node id="-19" lat="45.559341991" lon="-122.494445301" visible="true"><tag k="addr:housenumber" v="16303"/><tag k="addr:postcode" v="97230"/><tag k="addr:city" v="Portland"/><tag k="addr:street" v="Northeast Cameron Boulevard"/></node>
<node id="-20" lat="45.559340961" lon="-122.494446343" visible="true"><tag k="addr:housenumber" v="16307"/><tag k="addr:postcode" v="97230"/><tag k="addr:city" v="Portland"/><tag k="addr:street" v="Northeast Cameron Boulevard"/></node>
<node id="-21" lat="45.559347619" lon="-122.49445188" visible="true"><tag k="addr:housenumber" v="16311"/><tag k="addr:postcode" v="97230"/><tag k="addr:city" v="Portland"/><tag k="addr:street" v="Northeast Cameron Boulevard"/></node>
<node id="-22" lat="45.559341953" lon="-122.494450495" visible="true"><tag k="addr:housenumber" v="16313"/><tag k="addr:postcode" v="97230"/><tag k="addr:city" v="Portland"/><tag k="addr:street" v="Northeast Cameron Boulevard"/></node>
<node id="-23" lat="45.55934504" lon="-122.494446794" visible="true"><tag k="addr:housenumber" v="16317"/><tag k="addr:postcode" v="97230"/><tag k="addr:city" v="Portland"/><tag k="addr:street" v="Northeast Cameron Boulevard"/></node>
<node id="-24" lat="45.559345973" lon="-122.494447882" visible="true"><tag k="addr:housenumber" v="16321"/><tag k="addr:postcode" v="97230"/><tag k="addr:city" v="Portland"/><tag k="addr:street" v="Northeast Cameron Boulevard"/></node>
<node id="-25" lat="45.559341039" lon="-122.494450002" visible="true"><tag k="addr:housenumber" v="16335"/><tag k="addr:postcode" v="97230"/><tag k="addr:city" v="Portland"/><tag k="addr:street" v="Northeast Cameron Boulevard"/></node>
<node id="-26" lat="45.559339936" lon="-122.494445989" visible="true"><tag k="addr:housenumber" v="16339"/><tag k="addr:postcode" v="97230"/><tag k="addr:city" v="Portland"/><tag k="addr:street" v="Northeast Cameron Boulevard"/></node>
<node id="-27" lat="45.55934485" lon="-122.49445199" visible="true"><tag k="addr:housenumber" v="16343"/><tag k="addr:postcode" v="97230"/><tag k="addr:city" v="Portland"/><tag k="addr:street" v="Northeast Cameron Boulevard"/></node>
<node id="-28" lat="45.559345059" lon="-122.494455027" visible="true"><tag k="addr:housenumber" v="16347"/><tag k="addr:postcode" v="97230"/><tag k="addr:city" v="Portland"/><tag k="addr:street" v="Northeast Cameron Boulevard"/></node>
<node id="-29" lat="45.559341238" lon="-122.494450268" visible="true"><tag k="addr:housenumber" v="16353"/><tag k="addr:postcode" v="97230"/><tag k="addr:city" v="Portland"/><tag k="addr:street" v="Northeast Cameron Boulevard"/></node>
<node id="-30" lat="45.559338176" lon="-122.494454857" visible="true"><tag k="addr:housenumber" v="16357"/><tag k="addr:postcode" v="97230"/><tag k="addr:city" v="Portland"/><tag k="addr:street" v="Northeast Cameron Boulevard"/></node>
<node id="-31" lat="45.559339635" lon="-122.494453154" visible="true"><tag k="addr:housenumber" v="16361"/><tag k="addr:postcode" v="97230"/><tag k="addr:city" v="Portland"/><tag k="addr:street" v="Northeast Cameron Boulevard"/></node>
<node id="-32" lat="45.559344429" lon="-122.49445104" visible="true"><tag k="addr:housenumber" v="16365"/><tag k="addr:postcode" v="97230"/><tag k="addr:city" v="Portland"/><tag k="addr:street" v="Northeast Cameron Boulevard"/></node>
<node id="-33" lat="45.559342412" lon="-122.494445493" visible="true"><tag k="addr:housenumber" v="16369"/><tag k="addr:postcode" v="97230"/><tag k="addr:city" v="Portland"/><tag k="addr:street" v="Northeast Cameron Boulevard"/></node>
<node id="-34" lat="45.546302348" lon="-122.495549516" visible="true"><tag k="addr:housenumber" v="16211"/><tag k="addr:postcode" v="97230"/><tag k="addr:city" v="Portland"/><tag k="addr:street" v="Northeast Fargo Street"/></node>
<node id="-35" lat="45.546307436" lon="-122.49555466" visible="true"><tag k="addr:housenumber" v="16213"/><tag k="addr:postcode" v="97230"/><tag k="addr:city" v="Portland"/><tag k="addr:street" v="Northeast Fargo Street"/></node>
<node id="-36" lat="45.54649799" lon="-122.495484659" visible="true"><tag k="addr:housenumber" v="16223"/><tag k="addr:postcode" v="97230"/><tag k="addr:city" v="Portland"/><tag k="addr:street" v="Northeast Fargo Street"/></node>
<node id="-37" lat="45.546499922" lon="-122.495483364" visible="true"><tag k="addr:housenumber" v="16225"/><tag k="addr:postcode" v="97230"/><tag k="addr:city" v="Portland"/><tag k="addr:street" v="Northeast Fargo Street"/></node>
<node id="-38" lat="45.546710901" lon="-122.495509976" visible="true"><tag k="addr:housenumber" v="16235"/><tag k="addr:postcode" v="97230"/><tag k="addr:city" v="Portland"/><tag k="addr:street" v="Northeast Fargo Street"/></node>
<node id="-39" lat="45.546703289" lon="-122.495506385" visible="true"><tag k="addr:housenumber" v="16237"/><tag k="addr:postcode" v="97230"/><tag k="addr:city" v="Portland"/><tag k="addr:street" v="Northeast Fargo Street"/></node>
<node id="-40" lat="45.546646637" lon="-122.495102001" visible="true"><tag k="addr:housenumber" v="16241"/><tag k="addr:postcode" v="97230"/><tag k="addr:city" v="Portland"/><tag k="addr:street" v="Northeast Fargo Street"/></node>
<node id="-41" lat="45.546649702" lon="-122.495096898" visible="true"><tag k="addr:housenumber" v="16243"/><tag k="addr:postcode" v="97230"/><tag k="addr:city" v="Portland"/><tag k="addr:street" v="Northeast Fargo Street"/></node>
<node id="-42" lat="45.54633092" lon="-122.495096878" visible="true"><tag k="addr:housenumber" v="16253"/><tag k="addr:postcode" v="97230"/><tag k="addr:city" v="Portland"/><tag k="addr:street" v="Northeast Fargo Street"/></node>
<node id="-43" lat="45.546328354" lon="-122.495094221" visible="true"><tag k="addr:housenumber" v="16255"/><tag k="addr:postcode" v="97230"/><tag k="addr:city" v="Portland"/><tag k="addr:street" v="Northeast Fargo Street"/></node>
<node id="-44" lat="45.534724647" lon="-122.473452088" visible="true"><tag k="addr:housenumber" v="18285"/><tag k="addr:postcode" v="97230"/><tag k="addr:city" v="Portland"/><tag k="addr:street" v="Northeast Halsey Street"/></node>
<node id="-45" lat="45.534724012" lon="-122.47346059" visible="true"><tag k="addr:housenumber" v="18403"/><tag k="addr:postcode" v="97230"/><tag k="addr:city" v="Portland"/><tag k="addr:street" v="Northeast Halsey Street"/></node>
<node id="-46" lat="45.534718513" lon="-122.47345424" visible="true"><tag k="addr:housenumber" v="18557"/><tag k="addr:postcode" v="97230"/><tag k="addr:city" v="Portland"/><tag k="addr:street" v="Northeast Halsey Street"/></node>
<node id="-47" lat="45.548213848" lon="-122.492671064" visible="true"><tag k="addr:housenumber" v="16442"/><tag k="addr:postcode" v="97230"/><tag k="addr:city" v="Portland"/><tag k="addr:street" v="Northeast Las Brisas Court"/></node>
<node id="-48" lat="45.548528651" lon="-122.492637835" visible="true"><tag k="addr:housenumber" v="16445"/><tag k="addr:postcode" v="97230"/><tag k="addr:city" v="Portland"/><tag k="addr:street" v="Northeast Las Brisas Court"/></node>
<node id="-49" lat="45.558772061" lon="-122.477503016" visible="true"><tag k="addr:housenumber" v="17809"/><tag k="addr:postcode" v="97230"/><tag k="addr:city" v="Portland"/><tag k="addr:street" v="Northeast Marine Drive"/></node>
<node id="-50" lat="45.558771706" lon="-122.477505281" visible="true"><tag k="addr:housenumber" v="17813"/><tag k="addr:postcode" v="97230"/><tag k="addr:city" v="Portland"/><tag k="addr:street" v="Northeast Marine Drive"/></node>
<node id="-51" lat="45.554688286" lon="-122.489758848" visible="true"><tag k="addr:housenumber" v="16805"/><tag k="addr:postcode" v="97230"/><tag k="addr:city" v="Portland"/><tag k="addr:street" v="Northeast Mason Court"/></node>
<node id="-52" lat="45.554694819" lon="-122.489761573" visible="true"><tag k="addr:housenumber" v="16811"/><tag k="addr:postcode" v="97230"/><tag k="addr:city" v="Portland"/><tag k="addr:street" v="Northeast Mason Court"/></node>
<node id="-53" lat="45.552036819" lon="-122.494973229" visible="true"><tag k="addr:housenumber" v="16300"/><tag k="addr:postcode" v="97230"/><tag k="addr:city" v="Portland"/><tag k="addr:street" v="Northeast Mason Street"/></node>
<node id="-54" lat="45.552038557" lon="-122.494980846" visible="true"><tag k="addr:housenumber" v="16400"/><tag k="addr:postcode" v="97230"/><tag k="addr:city" v="Portland"/><tag k="addr:street" v="Northeast Mason Street"/></node>
<node id="-55" lat="45.550686331" lon="-122.475518468" visible="true"><tag k="addr:housenumber" v="18250"/><tag k="addr:postcode" v="97230"/><tag k="addr:city" v="Portland"/><tag k="addr:street" v="Northeast Portal Way"/></node>
<node id="-56" lat="45.550689672" lon="-122.475516997" visible="true"><tag k="addr:housenumber" v="18300"/><tag k="addr:postcode" v="97230"/><tag k="addr:city" v="Portland"/><tag k="addr:street" v="Northeast Portal Way"/></node>
<node id="-57" lat="45.550844366" lon="-122.47107764" visible="true"><tag k="addr:housenumber" v="18712"/><tag k="addr:postcode" v="97230"/><tag k="addr:city" v="Portland"/><tag k="addr:street" v="Northeast Portal Way"/></node>
<node id="-58" lat="45.550576137" lon="-122.471059018" visible="true"><tag k="addr:housenumber" v="18792"/><tag k="addr:postcode" v="97230"/><tag k="addr:city" v="Portland"/><tag k="addr:street" v="Northeast Portal Way"/></node>
<node id="-59" lat="45.551469859" lon="-122.467976616" visible="true"><tag k="addr:housenumber" v="18977"/><tag k="addr:postcode" v="97230"/><tag k="addr:city" v="Portland"/><tag k="addr:street" v="Northeast Portal Way"/></node>
<node id="-60" lat="45.551471522" lon="-122.46797731" visible="true"><tag k="addr:housenumber" v="19039"/><tag k="addr:postcode" v="97230"/><tag k="addr:city" v="Portland"/><tag k="addr:street" v="Northeast Portal Way"/></node>
<node id="-61" lat="45.554448115" lon="-122.471812647" visible="true"><tag k="addr:housenumber" v="18510"/><tag k="addr:postcode" v="97230"/><tag k="addr:city" v="Portland"/><tag k="addr:street" v="Northeast Riverside Parkway"/></node>
<node id="-62" lat="45.554449097" lon="-122.471807548" visible="true"><tag k="addr:housenumber" v="18550"/><tag k="addr:postcode" v="97230"/><tag k="addr:city" v="Portland"/><tag k="addr:street" v="Northeast Riverside Parkway"/></node>
<node id="-63" lat="45.554448378" lon="-122.471808518" visible="true"><tag k="addr:housenumber" v="18870"/><tag k="addr:postcode" v="97230"/><tag k="addr:city" v="Portland"/><tag k="addr:street" v="Northeast Riverside Parkway"/></node>
<node id="-64" lat="45.541866877" lon="-122.494994584" visible="true"><tag k="addr:housenumber" v="16301"/><tag k="addr:postcode" v="97230"/><tag k="addr:city" v="Portland"/><tag k="addr:street" v="Northeast Russell Street"/></node>
<node id="-65" lat="45.541863177" lon="-122.494995012" visible="true"><tag k="addr:housenumber" v="16303"/><tag k="addr:postcode" v="97230"/><tag k="addr:city" v="Portland"/><tag k="addr:street" v="Northeast Russell Street"/></node>
<node id="-66" lat="45.541867487" lon="-122.494996324" visible="true"><tag k="addr:housenumber" v="16305"/><tag k="addr:postcode" v="97230"/><tag k="addr:city" v="Portland"/><tag k="addr:street" v="Northeast Russell Street"/></node>
<node id="-67" lat="45.54187065" lon="-122.494991659" visible="true"><tag k="addr:housenumber" v="16307"/><tag k="addr:postcode" v="97230"/><tag k="addr:city" v="Portland"/><tag k="addr:street" v="Northeast Russell Street"/></node>
<node id="-68" lat="45.541872711" lon="-122.494388608" visible="true"><tag k="addr:housenumber" v="16333"/><tag k="addr:postcode" v="97230"/><tag k="addr:city" v="Portland"/><tag k="addr:street" v="Northeast Russell Street"/></node>
<node id="-69" lat="45.541873789" lon="-122.494389923" visible="true"><tag k="addr:housenumber" v="16335"/><tag k="addr:postcode" v="97230"/><tag k="addr:city" v="Portland"/><tag k="addr:street" v="Northeast Russell Street"/></node>
<node id="-70" lat="45.541873661" lon="-122.494181607" visible="true"><tag k="addr:housenumber" v="16341"/><tag k="addr:postcode" v="97230"/><tag k="addr:city" v="Portland"/><tag k="addr:street" v="Northeast Russell Street"/></node>
<node id="-71" lat="45.541878083" lon="-122.494180411" visible="true"><tag k="addr:housenumber" v="16343"/><tag k="addr:postcode" v="97230"/><tag k="addr:city" v="Portland"/><tag k="addr:street" v="Northeast Russell Street"/></node>
<node id="-72" lat="45.541890368" lon="-122.492461045" visible="true"><tag k="addr:housenumber" v="16475"/><tag k="addr:postcode" v="97230"/><tag k="addr:city" v="Portland"/><tag k="addr:street" v="Northeast Russell Street"/></node>
<node id="-73" lat="45.541894744" lon="-122.492460521" visible="true"><tag k="addr:housenumber" v="16477"/><tag k="addr:postcode" v="97230"/><tag k="addr:city" v="Portland"/><tag k="addr:street" v="Northeast Russell Street"/></node>
<node id="-74" lat="45.541897347" lon="-122.49246425" visible="true"><tag k="addr:housenumber" v="16479"/><tag k="addr:postcode" v="97230"/><tag k="addr:city" v="Portland"/><tag k="addr:street" v="Northeast Russell Street"/></node>
<node id="-75" lat="45.541895368" lon="-122.492466024" visible="true"><tag k="addr:housenumber" v="16481"/><tag k="addr:postcode" v="97230"/><tag k="addr:city" v="Portland"/><tag k="addr:street" v="Northeast Russell Street"/></node>
<node id="-76" lat="45.541860373" lon="-122.48512537" visible="true"><tag k="addr:housenumber" v="17201"/><tag k="addr:postcode" v="97230"/><tag k="addr:city" v="Portland"/><tag k="addr:street" v="Northeast Sacramento Street"/></node>
<node id="-77" lat="45.541859481" lon="-122.485127502" visible="true"><tag k="addr:housenumber" v="17223"/><tag k="addr:postcode" v="97230"/><tag k="addr:city" v="Portland"/><tag k="addr:street" v="Northeast Sacramento Street"/></node>
<node id="-78" lat="45.540242243" lon="-122.485123469" visible="true"><tag k="addr:housenumber" v="17250"/><tag k="addr:postcode" v="97230"/><tag k="addr:city" v="Portland"/><tag k="addr:street" v="Northeast Sacramento Street"/></node>
<node id="-79" lat="45.540248706" lon="-122.485125585" visible="true"><tag k="addr:housenumber" v="17252"/><tag k="addr:postcode" v="97230"/><tag k="addr:city" v="Portland"/><tag k="addr:street" v="Northeast Sacramento Street"/></node>
<node id="-80" lat="45.540247001" lon="-122.485119601" visible="true"><tag k="addr:housenumber" v="17256"/><tag k="addr:postcode" v="97230"/><tag k="addr:city" v="Portland"/><tag k="addr:street" v="Northeast Sacramento Street"/></node>
<node id="-81" lat="45.540243429" lon="-122.485121145" visible="true"><tag k="addr:housenumber" v="17260"/><tag k="addr:postcode" v="97230"/><tag k="addr:city" v="Portland"/><tag k="addr:street" v="Northeast Sacramento Street"/></node>
<node id="-82" lat="45.540246368" lon="-122.485123517" visible="true"><tag k="addr:housenumber" v="17268"/><tag k="addr:postcode" v="97230"/><tag k="addr:city" v="Portland"/><tag k="addr:street" v="Northeast Sacramento Street"/></node>
<node id="-83" lat="45.540246208" lon="-122.485122144" visible="true"><tag k="addr:housenumber" v="17272"/><tag k="addr:postcode" v="97230"/><tag k="addr:city" v="Portland"/><tag k="addr:street" v="Northeast Sacramento Street"/></node>
<node id="-84" lat="45.537534709" lon="-122.460484804" visible="true"><tag k="addr:housenumber" v="19649"/><tag k="addr:postcode" v="97230"/><tag k="addr:city" v="Portland"/><tag k="addr:street" v="Northeast San Rafael Street"/></node>
<node id="-85" lat="45.537531509" lon="-122.460479067" visible="true"><tag k="addr:housenumber" v="19677"/><tag k="addr:postcode" v="97230"/><tag k="addr:city" v="Portland"/><tag k="addr:street" v="Northeast San Rafael Street"/></node>
<node id="-86" lat="45.536104234" lon="-122.458352738" visible="true"><tag k="addr:housenumber" v="19786"/><tag k="addr:postcode" v="97230"/><tag k="addr:city" v="Portland"/><tag k="addr:street" v="Northeast San Rafael Street"/></node>
<node id="-87" lat="45.537447924" lon="-122.458473693" visible="true"><tag k="addr:housenumber" v="19841"/><tag k="addr:postcode" v="97230"/><tag k="addr:city" v="Portland"/><tag k="addr:street" v="Northeast San Rafael Street"/></node>
<node id="-88" lat="45.537443547" lon="-122.458474919" visible="true"><tag k="addr:housenumber" v="19963"/><tag k="addr:postcode" v="97230"/><tag k="addr:city" v="Portland"/><tag k="addr:street" v="Northeast San Rafael Street"/></node>
<node id="-89" lat="45.537439654" lon="-122.458482066" visible="true"><tag k="addr:housenumber" v="19979"/><tag k="addr:postcode" v="97230"/><tag k="addr:city" v="Portland"/><tag k="addr:street" v="Northeast San Rafael Street"/></node>
<node id="-90" lat="45.537447486" lon="-122.45734954" visible="true"><tag k="addr:housenumber" v="20017"/><tag k="addr:postcode" v="97230"/><tag k="addr:city" v="Portland"/><tag k="addr:street" v="Northeast San Rafael Street"/></node>
<node id="-91" lat="45.536098788" lon="-122.458353424" visible="true"><tag k="addr:housenumber" v="20048"/><tag k="addr:postcode" v="97230"/><tag k="addr:city" v="Portland"/><tag k="addr:street" v="Northeast San Rafael Street"/></node>
<node id="-92" lat="45.537446787" lon="-122.457358415" visible="true"><tag k="addr:housenumber" v="20055"/><tag k="addr:postcode" v="97230"/><tag k="addr:city" v="Portland"/><tag k="addr:street" v="Northeast San Rafael Street"/></node>
</osm>