<?xml version="1.0"?>
<osm version="0.6" upload="false" generator="uvmogr2osm">
<node id="-1" lat="45.528297069" lon="-123.003867727" visible="true"><tag k="addr:housenumber" v="491"/><tag k="addr:postcode" v="97124"/><tag k="addr:city" v="Hillsboro"/><tag k="addr:street" v="Northwest 317th Avenue"/></node>
<node id="-2" lat="45.528296941" lon="-123.003870314" visible="true"><tag k="addr:housenumber" v="491"/><tag k="addr:postcode" v="97124"/><tag k="addr:city" v="Hillsboro"/><tag k="addr:street" v="Northwest 317th Avenue"/></node>
<node id="-3" lat="45.513888992" lon="-122.991932981" visible="true"><tag k="addr:housenumber" v="780"/><tag k="addr:postcode" v="97123"/><tag k="addr:city" v="Hillsboro"/><tag k="addr:street" v="Southwest Bailey Avenue"/></node>
<node id="-4" lat="45.51389292" lon="-122.991939099" visible="true"><tag k="addr:housenumber" v="782"/><tag k="addr:postcode" v="97123"/><tag k="addr:city" v="Hillsboro"/><tag k="addr:street" v="Southwest Bailey Avenue"/></node>
<node id="-5" lat="45.519571423" lon="-123.001002084" visible="true"><tag k="addr:housenumber" v="1000"/><tag k="addr:postcode" v="97123"/><tag k="addr:city" v="Hillsboro"/><tag k="addr:street" v="Southwest Baseline Street"/></node>
<node id="-6" lat="45.519742724" lon="-123.004124783" visible="true"><tag k="addr:housenumber" v="1296"/><tag k="addr:postcode" v="97123"/><tag k="addr:city" v="Hillsboro"/><tag k="addr:street" v="Southwest Baseline Street"/></node>
<node id="-7" lat="45.519743273" lon="-123.004123765" visible="true"><tag k="addr:housenumber" v="1328"/><tag k="addr:postcode" v="97123"/><tag k="addr:city" v="Hillsboro"/><tag k="addr:street" v="Southwest Baseline Street"/></node>
<node id="-8" lat="45.519832083" lon="-122.992444567" visible="true"><tag k="addr:housenumber" v="250"/><tag k="addr:postcode" v="97123"/><tag k="addr:city" v="Hillsboro"/><tag k="addr:street" v="Southwest Baseline Street"/></node>
<node id="-9" lat="45.519786301" lon="-122.992433955" visible="true"><tag k="addr:housenumber" v="254"/><tag k="addr:postcode" v="97123"/><tag k="addr:city" v="Hillsboro"/><tag k="addr:street" v="Southwest Baseline Street"/></node>
<node id="-10" lat="45.519444847" lon="-122.997371614" visible="true"><tag k="addr:housenumber" v="694"/><tag k="addr:postcode" v="97123"/><tag k="addr:city" v="Hillsboro"/><tag k="addr:street" v="Southwest Baseline Street"/></node>
<node id="-11" lat="45.519212799" lon="-122.999538167" visible="true"><tag k="addr:housenumber" v="876"/><tag k="addr:postcode" v="97123"/><tag k="addr:city" v="Hillsboro"/><tag k="addr:street" v="Southwest Baseline Street"/></node>
<node id="-12" lat="45.519462233" lon="-123.000985766" visible="true"><tag k="addr:housenumber" v="900"/><tag k="addr:postcode" v="97123"/><tag k="addr:city" v="Hillsboro"/><tag k="addr:street" v="Southwest Baseline Street"/></node>
<node id="-13" lat="45.519764611" lon="-123.000467159" visible="true"><tag k="addr:housenumber" v="960"/><tag k="addr:postcode" v="97123"/><tag k="addr:city" v="Hillsboro"/><tag k="addr:street" v="Southwest Baseline Street"/></node>
<node id="-14" lat="45.519732921" lon="-123.000564654" visible="true"><tag k="addr:housenumber" v="970"/><tag k="addr:postcode" v="97123"/><tag k="addr:city" v="Hillsboro"/><tag k="addr:street" v="Southwest Baseline Street"/></node>
<node id="-15" lat="45.519523634" lon="-123.000990783" visible="true"><tag k="addr:housenumber" v="984"/><tag k="addr:postcode" v="97123"/><tag k="addr:city" v="Hillsboro"/><tag k="addr:street" v="Southwest Baseline Street"/></node>
<node id="-16" lat="45.517875277" lon="-122.99466586" visible="true"><tag k="addr:housenumber" v="455"/><tag k="addr:postcode" v="97123"/><tag k="addr:city" v="Hillsboro"/><tag k="addr:street" v="Southwest Connell Avenue"/></node>
<node id="-17" lat="45.515304714" lon="-122.99543501" visible="true"><tag k="addr:housenumber" v="682"/><tag k="addr:postcode" v="97123"/><tag k="addr:city" v="Hillsboro"/><tag k="addr:street" v="Southwest Dennis Avenue"/></node>
<node id="-18" lat="45.515302965" lon="-122.995383363" visible="true"><tag k="addr:housenumber" v="684"/><tag k="addr:postcode" v="97123"/><tag k="addr:city" v="Hillsboro"/><tag k="addr:street" v="Southwest Dennis Avenue"/></node>
<node id="-19" lat="45.515242726" lon="-122.995516417" visible="true"><tag k="addr:housenumber" v="686"/><tag k="addr:postcode" v="97123"/><tag k="addr:city" v="Hillsboro"/><tag k="addr:street" v="Southwest Dennis Avenue"/></node>
<node id="-20" lat="45.518319682" lon="-122.990936948" visible="true"><tag k="addr:housenumber" v="140"/><tag k="addr:postcode" v="97123"/><tag k="addr:city" v="Hillsboro"/><tag k="addr:street" v="Southwest Oak Street"/></node>
<node id="-21" lat="45.518501971" lon="-122.990940141" visible="true"><tag k="addr:housenumber" v="150"/><tag k="addr:postcode" v="97123"/><tag k="addr:city" v="Hillsboro"/><tag k="addr:street" v="Southwest Oak Street"/></node>
<node id="-22" lat="45.518703044" lon="-122.995591579" visible="true"><tag k="addr:housenumber" v="452"/><tag k="addr:postcode" v="97123"/><tag k="addr:city" v="Hillsboro"/><tag k="addr:street" v="Southwest Oak Street"/></node>
<node id="-23" lat="45.518660819" lon="-122.995559147" visible="true"><tag k="addr:housenumber" v="456"/><tag k="addr:postcode" v="97123"/><tag k="addr:city" v="Hillsboro"/><tag k="addr:street" v="Southwest Oak Street"/></node>
<node id="-24" lat="45.519448059" lon="-122.997367081" visible="true"><tag k="addr:housenumber" v="647"/><tag k="addr:postcode" v="97123"/><tag k="addr:city" v="Hillsboro"/><tag k="addr:street" v="Southwest Oak Street"/></node>
<node id="-25" lat="45.519178416" lon="-122.999654063" visible="true"><tag k="addr:housenumber" v="897"/><tag k="addr:postcode" v="97123"/><tag k="addr:city" v="Hillsboro"/><tag k="addr:street" v="Southwest Oak Street"/></node>
<node id="-26" lat="45.519222522" lon="-123.000962947" visible="true"><tag k="addr:housenumber" v="977"/><tag k="addr:postcode" v="97123"/><tag k="addr:city" v="Hillsboro"/><tag k="addr:street" v="Southwest Oak Street"/></node>
<node id="-27" lat="45.519221393" lon="-123.000958231" visible="true"><tag k="addr:housenumber" v="979"/><tag k="addr:postcode" v="97123"/><tag k="addr:city" v="Hillsboro"/><tag k="addr:street" v="Southwest Oak Street"/></node>
<node id="-28" lat="45.520297759" lon="-123.017689842" visible="true"><tag k="addr:housenumber" v="33061"/><tag k="addr:postcode" v="97123"/><tag k="addr:city" v="Hillsboro"/><tag k="addr:street" v="Southwest Tualatin Valley Highway"/></node>
<node id="-29" lat="45.520292697" lon="-123.017687932" visible="true"><tag k="addr:housenumber" v="33063"/><tag k="addr:postcode" v="97123"/><tag k="addr:city" v="Hillsboro"/><tag k="addr:street" v="Southwest Tualatin Valley Highway"/></node>
<node id="-30" lat="45.520298315" lon="-123.017682476" visible="true"><tag k="addr:housenumber" v="33065"/><tag k="addr:postcode" v="97123"/><tag k="addr:city" v="Hillsboro"/><tag k="addr:street" v="Southwest Tualatin Valley Highway"/></node>
<node id="-31" lat="45.520297947" lon="-123.017685018" visible="true"><tag k="addr:housenumber" v="33067"/><tag k="addr:postcode" v="97123"/><tag k="addr:city" v="Hillsboro"/><tag k="addr:street" v="Southwest Tualatin Valley Highway"/></node>
<node id="-32" lat="45.514917811" lon="-123.003235538" visible="true"><tag k="addr:housenumber" v="1400"/><tag k="addr:postcode" v="97123"/><tag k="addr:city" v="Hillsboro"/><tag k="addr:street" v="Southwest Walnut Street"/></node>
<node id="-33" lat="45.514922057" lon="-123.003238203" visible="true"><tag k="addr:housenumber" v="1410"/><tag k="addr:postcode" v="97123"/><tag k="addr:city" v="Hillsboro"/><tag k="addr:street" v="Southwest Walnut Street"/></node>
<node id="-34" lat="45.517802486" lon="-122.994738837" visible="true"><tag k="addr:housenumber" v="413"/><tag k="addr:postcode" v="97123"/><tag k="addr:city" v="Hillsboro"/><tag k="addr:street" v="Southwest Walnut Street"/></node>
<node id="-35" lat="45.513001157" lon="-122.991879136" visible="true"><tag k="addr:housenumber" v="243"/><tag k="addr:postcode" v="97123"/><tag k="addr:city" v="Hillsboro"/><tag k="addr:street" v="Southwest Wood Street"/></node>
<node id="-36" lat="45.513059602" lon="-122.991867307" visible="true"><tag k="addr:housenumber" v="251"/><tag k="addr:postcode" v="97123"/><tag k="addr:city" v="Hillsboro"/><tag k="addr:street" v="Southwest Wood Street"/></node>
</osm>