<?xml version="1.0"?>
<osm version="0.6" upload="false" generator="uvmogr2osm">
<node id="-1" lat="45.529550592" lon="-123.113308157" visible="true"><tag k="addr:housenumber" v="1906"/><tag k="addr:postcode" v="97116"/><tag k="addr:city" v="Forest Grove"/><tag k="addr:street" v="28th Avenue"/></node>
<node id="-2" lat="45.52955576" lon="-123.113299769" visible="true"><tag k="addr:housenumber" v="1908"/><tag k="addr:postcode" v="97116"/><tag k="addr:city" v="Forest Grove"/><tag k="addr:street" v="28th Avenue"/></node>
<node id="-3" lat="45.529666161" lon="-123.112963425" visible="true"><tag k="addr:housenumber" v="1912"/><tag k="addr:postcode" v="97116"/><tag k="addr:city" v="Forest Grove"/><tag k="addr:street" v="28th Avenue"/></node>
<node id="-4" lat="45.529665" lon="-123.112972218" visible="true"><tag k="addr:housenumber" v="1914"/><tag k="addr:postcode" v="97116"/><tag k="addr:city" v="Forest Grove"/><tag k="addr:street" v="28th Avenue"/></node>
<node id="-5" lat="45.527826991" lon="-123.114140744" visible="true"><tag k="addr:housenumber" v="2624"/><tag k="addr:postcode" v="97116"/><tag k="addr:city" v="Forest Grove"/><tag k="addr:street" v="A Street"/></node>
<node id="-6" lat="45.527820695" lon="-123.114144521" visible="true"><tag k="addr:housenumber" v="2626"/><tag k="addr:postcode" v="97116"/><tag k="addr:city" v="Forest Grove"/><tag k="addr:street" v="A Street"/></node>
<node id="-7" lat="45.527834085" lon="-123.114578661" visible="true"><tag k="addr:housenumber" v="2628"/><tag k="addr:postcode" v="97116"/><tag k="addr:city" v="Forest Grove"/><tag k="addr:street" v="A Street"/></node>
<node id="-8" lat="45.527838714" lon="-123.114572617" visible="true"><tag k="addr:housenumber" v="2630"/><tag k="addr:postcode" v="97116"/><tag k="addr:city" v="Forest Grove"/><tag k="addr:street" v="A Street"/></node>
<node id="-9" lat="45.528663075" lon="-123.114165909" visible="true"><tag k="addr:housenumber" v="2716"/><tag k="addr:postcode" v="97116"/><tag k="addr:city" v="Forest Grove"/><tag k="addr:street" v="A Street"/></node>
<node id="-10" lat="45.528668555" lon="-123.114162907" visible="true"><tag k="addr:housenumber" v="2718"/><tag k="addr:postcode" v="97116"/><tag k="addr:city" v="Forest Grove"/><tag k="addr:street" v="A Street"/></node>
<node id="-11" lat="45.528844551" lon="-123.114253822" visible="true"><tag k="addr:housenumber" v="2724"/><tag k="addr:postcode" v="97116"/><tag k="addr:city" v="Forest Grove"/><tag k="addr:street" v="A Street"/></node>
<node id="-12" lat="45.52883646" lon="-123.114248786" visible="true"><tag k="addr:housenumber" v="2726"/><tag k="addr:postcode" v="97116"/><tag k="addr:city" v="Forest Grove"/><tag k="addr:street" v="A Street"/></node>
<node id="-13" lat="45.529023498" lon="-123.114153263" visible="true"><tag k="addr:housenumber" v="2728"/><tag k="addr:postcode" v="97116"/><tag k="addr:city" v="Forest Grove"/><tag k="addr:street" v="A Street"/></node>
<node id="-14" lat="45.529019693" lon="-123.114154129" visible="true"><tag k="addr:housenumber" v="2730"/><tag k="addr:postcode" v="97116"/><tag k="addr:city" v="Forest Grove"/><tag k="addr:street" v="A Street"/></node>
<node id="-15" lat="45.530116454" lon="-123.112155539" visible="true"><tag k="addr:housenumber" v="2824"/><tag k="addr:postcode" v="97116"/><tag k="addr:city" v="Forest Grove"/><tag k="addr:street" v="Main Street"/></node>
<node id="-16" lat="45.530115286" lon="-123.112153703" visible="true"><tag k="addr:housenumber" v="2826"/><tag k="addr:postcode" v="97116"/><tag k="addr:city" v="Forest Grove"/><tag k="addr:street" v="Main Street"/></node>
<node id="-17" lat="45.517776913" lon="-122.990196456" visible="true"><tag k="addr:housenumber" v="473"/><tag k="addr:postcode" v="97123"/><tag k="addr:city" v="Hillsboro"/><tag k="addr:street" v="South 1st Avenue"/></node>
<node id="-18" lat="45.517777498" lon="-122.990188388" visible="true"><tag k="addr:housenumber" v="475"/><tag k="addr:postcode" v="97123"/><tag k="addr:city" v="Hillsboro"/><tag k="addr:street" v="South 1st Avenue"/></node>
<node id="-19" lat="45.515987322" lon="-122.98744652" visible="true"><tag k="addr:housenumber" v="618"/><tag k="addr:postcode" v="97123"/><tag k="addr:city" v="Hillsboro"/><tag k="addr:street" v="Southeast 2nd Avenue"/></node>
<node id="-20" lat="45.515987838" lon="-122.987362346" visible="true"><tag k="addr:housenumber" v="620"/><tag k="addr:postcode" v="97123"/><tag k="addr:city" v="Hillsboro"/><tag k="addr:street" v="Southeast 2nd Avenue"/></node>
<node id="-21" lat="45.515780292" lon="-122.987890824" visible="true"><tag k="addr:housenumber" v="634"/><tag k="addr:postcode" v="97123"/><tag k="addr:city" v="Hillsboro"/><tag k="addr:street" v="Southeast 2nd Avenue"/></node>
<node id="-22" lat="45.515782253" lon="-122.98773657" visible="true"><tag k="addr:housenumber" v="636"/><tag k="addr:postcode" v="97123"/><tag k="addr:city" v="Hillsboro"/><tag k="addr:street" v="Southeast 2nd Avenue"/></node>
<node id="-23" lat="45.515713143" lon="-122.987376065" visible="true"><tag k="addr:housenumber" v="646"/><tag k="addr:postcode" v="97123"/><tag k="addr:city" v="Hillsboro"/><tag k="addr:street" v="Southeast 2nd Avenue"/></node>
<node id="-24" lat="45.515703969" lon="-122.987493686" visible="true"><tag k="addr:housenumber" v="648"/><tag k="addr:postcode" v="97123"/><tag k="addr:city" v="Hillsboro"/><tag k="addr:street" v="Southeast 2nd Avenue"/></node>
<node id="-25" lat="45.515293818" lon="-122.987859801" visible="true"><tag k="addr:housenumber" v="672"/><tag k="addr:postcode" v="97123"/><tag k="addr:city" v="Hillsboro"/><tag k="addr:street" v="Southeast 2nd Avenue"/></node>
<node id="-26" lat="45.515229165" lon="-122.987854931" visible="true"><tag k="addr:housenumber" v="688"/><tag k="addr:postcode" v="97123"/><tag k="addr:city" v="Hillsboro"/><tag k="addr:street" v="Southeast 2nd Avenue"/></node>
<node id="-27" lat="45.519982533" lon="-122.986700835" visible="true"><tag k="addr:housenumber" v="305"/><tag k="addr:postcode" v="97123"/><tag k="addr:city" v="Hillsboro"/><tag k="addr:street" v="Southeast 3rd Avenue"/></node>
<node id="-28" lat="45.519890047" lon="-122.986721118" visible="true"><tag k="addr:housenumber" v="321"/><tag k="addr:postcode" v="97123"/><tag k="addr:city" v="Hillsboro"/><tag k="addr:street" v="Southeast 3rd Avenue"/></node>
<node id="-29" lat="45.51983351" lon="-122.986711326" visible="true"><tag k="addr:housenumber" v="323"/><tag k="addr:postcode" v="97123"/><tag k="addr:city" v="Hillsboro"/><tag k="addr:street" v="Southeast 3rd Avenue"/></node>
<node id="-30" lat="45.519780596" lon="-122.986713191" visible="true"><tag k="addr:housenumber" v="327"/><tag k="addr:postcode" v="97123"/><tag k="addr:city" v="Hillsboro"/><tag k="addr:street" v="Southeast 3rd Avenue"/></node>
<node id="-31" lat="45.51971138" lon="-122.986712281" visible="true"><tag k="addr:housenumber" v="329"/><tag k="addr:postcode" v="97123"/><tag k="addr:city" v="Hillsboro"/><tag k="addr:street" v="Southeast 3rd Avenue"/></node>
<node id="-32" lat="45.519644042" lon="-122.986711063" visible="true"><tag k="addr:housenumber" v="331"/><tag k="addr:postcode" v="97123"/><tag k="addr:city" v="Hillsboro"/><tag k="addr:street" v="Southeast 3rd Avenue"/></node>
<node id="-33" lat="45.519587333" lon="-122.986709711" visible="true"><tag k="addr:housenumber" v="333"/><tag k="addr:postcode" v="97123"/><tag k="addr:city" v="Hillsboro"/><tag k="addr:street" v="Southeast 3rd Avenue"/></node>
<node id="-34" lat="45.519538398" lon="-122.986706588" visible="true"><tag k="addr:housenumber" v="337"/><tag k="addr:postcode" v="97123"/><tag k="addr:city" v="Hillsboro"/><tag k="addr:street" v="Southeast 3rd Avenue"/></node>
<node id="-35" lat="45.519534821" lon="-122.986592819" visible="true"><tag k="addr:housenumber" v="339"/><tag k="addr:postcode" v="97123"/><tag k="addr:city" v="Hillsboro"/><tag k="addr:street" v="Southeast 3rd Avenue"/></node>
<node id="-36" lat="45.519530616" lon="-122.98650328" visible="true"><tag k="addr:housenumber" v="341"/><tag k="addr:postcode" v="97123"/><tag k="addr:city" v="Hillsboro"/><tag k="addr:street" v="Southeast 3rd Avenue"/></node>
<node id="-37" lat="45.519539275" lon="-122.98638695" visible="true"><tag k="addr:housenumber" v="343"/><tag k="addr:postcode" v="97123"/><tag k="addr:city" v="Hillsboro"/><tag k="addr:street" v="Southeast 3rd Avenue"/></node>
<node id="-38" lat="45.514468068" lon="-122.986060734" visible="true"><tag k="addr:housenumber" v="746"/><tag k="addr:postcode" v="97123"/><tag k="addr:city" v="Hillsboro"/><tag k="addr:street" v="Southeast 3rd Avenue"/></node>
<node id="-39" lat="45.514464397" lon="-122.985918617" visible="true"><tag k="addr:housenumber" v="748"/><tag k="addr:postcode" v="97123"/><tag k="addr:city" v="Hillsboro"/><tag k="addr:street" v="Southeast 3rd Avenue"/></node>
<node id="-40" lat="45.518075364" lon="-122.98235558" visible="true"><tag k="addr:housenumber" v="450"/><tag k="addr:postcode" v="97123"/><tag k="addr:city" v="Hillsboro"/><tag k="addr:street" v="Southeast 5th Avenue"/></node>
<node id="-41" lat="45.518016675" lon="-122.982347793" visible="true"><tag k="addr:housenumber" v="450-A"/><tag k="addr:postcode" v="97123"/><tag k="addr:city" v="Hillsboro"/><tag k="addr:street" v="Southeast 5th Avenue"/></node>
<node id="-42" lat="45.515684454" lon="-122.982241956" visible="true"><tag k="addr:housenumber" v="640"/><tag k="addr:postcode" v="97123"/><tag k="addr:city" v="Hillsboro"/><tag k="addr:street" v="Southeast 5th Avenue"/></node>
<node id="-43" lat="45.515683636" lon="-122.982248349" visible="true"><tag k="addr:housenumber" v="652"/><tag k="addr:postcode" v="97123"/><tag k="addr:city" v="Hillsboro"/><tag k="addr:street" v="Southeast 5th Avenue"/></node>
<node id="-44" lat="45.518311009" lon="-122.980589913" visible="true"><tag k="addr:housenumber" v="426"/><tag k="addr:postcode" v="97123"/><tag k="addr:city" v="Hillsboro"/><tag k="addr:street" v="Southeast 6th Avenue"/></node>
<node id="-45" lat="45.51821625" lon="-122.980590599" visible="true"><tag k="addr:housenumber" v="428"/><tag k="addr:postcode" v="97123"/><tag k="addr:city" v="Hillsboro"/><tag k="addr:street" v="Southeast 6th Avenue"/></node>
<node id="-46" lat="45.515704896" lon="-122.980626902" visible="true"><tag k="addr:housenumber" v="634"/><tag k="addr:postcode" v="97123"/><tag k="addr:city" v="Hillsboro"/><tag k="addr:street" v="Southeast 6th Avenue"/></node>
<node id="-47" lat="45.519760368" lon="-122.985692276" visible="true"><tag k="addr:housenumber" v="310"/><tag k="addr:postcode" v="97123"/><tag k="addr:city" v="Hillsboro"/><tag k="addr:street" v="Southeast Baseline Street"/></node>
<node id="-48" lat="45.519766506" lon="-122.985684046" visible="true"><tag k="addr:housenumber" v="314"/><tag k="addr:postcode" v="97123"/><tag k="addr:city" v="Hillsboro"/><tag k="addr:street" v="Southeast Baseline Street"/></node>
<node id="-49" lat="45.519763304" lon="-122.985683868" visible="true"><tag k="addr:housenumber" v="318"/><tag k="addr:postcode" v="97123"/><tag k="addr:city" v="Hillsboro"/><tag k="addr:street" v="Southeast Baseline Street"/></node>
<node id="-50" lat="45.514835889" lon="-122.982389451" visible="true"><tag k="addr:housenumber" v="565"/><tag k="addr:postcode" v="97123"/><tag k="addr:city" v="Hillsboro"/><tag k="addr:street" v="Southeast Heathcliff Lane"/></node>
<node id="-51" lat="45.514884212" lon="-122.982248545" visible="true"><tag k="addr:housenumber" v="565-A"/><tag k="addr:postcode" v="97123"/><tag k="addr:city" v="Hillsboro"/><tag k="addr:street" v="Southeast Heathcliff Lane"/></node>
<node id="-52" lat="45.514475284" lon="-122.987440574" visible="true"><tag k="addr:housenumber" v="240"/><tag k="addr:postcode" v="97123"/><tag k="addr:city" v="Hillsboro"/><tag k="addr:street" v="Southeast Maple Street"/></node>
<node id="-53" lat="45.514481106" lon="-122.987276573" visible="true"><tag k="addr:housenumber" v="242"/><tag k="addr:postcode" v="97123"/><tag k="addr:city" v="Hillsboro"/><tag k="addr:street" v="Southeast Maple Street"/></node>
<node id="-54" lat="45.514823995" lon="-122.986652161" visible="true"><tag k="addr:housenumber" v="260"/><tag k="addr:postcode" v="97123"/><tag k="addr:city" v="Hillsboro"/><tag k="addr:street" v="Southeast Maple Street"/></node>
<node id="-55" lat="45.514753608" lon="-122.986574012" visible="true"><tag k="addr:housenumber" v="262"/><tag k="addr:postcode" v="97123"/><tag k="addr:city" v="Hillsboro"/><tag k="addr:street" v="Southeast Maple Street"/></node>
<node id="-56" lat="45.514479768" lon="-122.985647302" visible="true"><tag k="addr:housenumber" v="354"/><tag k="addr:postcode" v="97123"/><tag k="addr:city" v="Hillsboro"/><tag k="addr:street" v="Southeast Maple Street"/></node>
<node id="-57" lat="45.515364432" lon="-122.985629497" visible="true"><tag k="addr:housenumber" v="355"/><tag k="addr:postcode" v="97123"/><tag k="addr:city" v="Hillsboro"/><tag k="addr:street" v="Southeast Maple Street"/></node>
<node id="-58" lat="45.514484621" lon="-122.985537488" visible="true"><tag k="addr:housenumber" v="356"/><tag k="addr:postcode" v="97123"/><tag k="addr:city" v="Hillsboro"/><tag k="addr:street" v="Southeast Maple Street"/></node>
<node id="-59" lat="45.515428383" lon="-122.985493735" visible="true"><tag k="addr:housenumber" v="357"/><tag k="addr:postcode" v="97123"/><tag k="addr:city" v="Hillsboro"/><tag k="addr:street" v="Southeast Maple Street"/></node>
<node id="-60" lat="45.515466196" lon="-122.985302556" visible="true"><tag k="addr:housenumber" v="359"/><tag k="addr:postcode" v="97123"/><tag k="addr:city" v="Hillsboro"/><tag k="addr:street" v="Southeast Maple Street"/></node>
<node id="-61" lat="45.515463945" lon="-122.985130037" visible="true"><tag k="addr:housenumber" v="361"/><tag k="addr:postcode" v="97123"/><tag k="addr:city" v="Hillsboro"/><tag k="addr:street" v="Southeast Maple Street"/></node>
<node id="-62" lat="45.515235206" lon="-122.984915241" visible="true"><tag k="addr:housenumber" v="385"/><tag k="addr:postcode" v="97123"/><tag k="addr:city" v="Hillsboro"/><tag k="addr:street" v="Southeast Maple Street"/></node>
<node id="-63" lat="45.515331559" lon="-122.984915567" visible="true"><tag k="addr:housenumber" v="387"/><tag k="addr:postcode" v="97123"/><tag k="addr:city" v="Hillsboro"/><tag k="addr:street" v="Southeast Maple Street"/></node>
<node id="-64" lat="45.515475403" lon="-122.984844269" visible="true"><tag k="addr:housenumber" v="389"/><tag k="addr:postcode" v="97123"/><tag k="addr:city" v="Hillsboro"/><tag k="addr:street" v="Southeast Maple Street"/></node>
<node id="-65" lat="45.515442041" lon="-122.984695996" visible="true"><tag k="addr:housenumber" v="391"/><tag k="addr:postcode" v="97123"/><tag k="addr:city" v="Hillsboro"/><tag k="addr:street" v="Southeast Maple Street"/></node>
<node id="-66" lat="45.515213245" lon="-122.984628223" visible="true"><tag k="addr:housenumber" v="395"/><tag k="addr:postcode" v="97123"/><tag k="addr:city" v="Hillsboro"/><tag k="addr:street" v="Southeast Maple Street"/></node>
<node id="-67" lat="45.515098539" lon="-122.984633236" visible="true"><tag k="addr:housenumber" v="397"/><tag k="addr:postcode" v="97123"/><tag k="addr:city" v="Hillsboro"/><tag k="addr:street" v="Southeast Maple Street"/></node>
<node id="-68" lat="45.519019627" lon="-122.981102889" visible="true"><tag k="addr:housenumber" v="561"/><tag k="addr:postcode" v="97123"/><tag k="addr:city" v="Hillsboro"/><tag k="addr:street" v="Southeast Oak Street"/></node>
<node id="-69" lat="45.518931649" lon="-122.981038585" visible="true"><tag k="addr:housenumber" v="565"/><tag k="addr:postcode" v="97123"/><tag k="addr:city" v="Hillsboro"/><tag k="addr:street" v="Southeast Oak Street"/></node>
<node id="-70" lat="45.515674083" lon="-122.980627852" visible="true"><tag k="addr:housenumber" v="607"/><tag k="addr:postcode" v="97123"/><tag k="addr:city" v="Hillsboro"/><tag k="addr:street" v="Southeast Shega Court"/></node>
</osm>