<?xml version="1.0"?>
<osm version="0.6" upload="false" generator="uvmogr2osm">
<node id="-1" lat="45.520407542" lon="-123.049352973" visible="true"><tag k="addr:housenumber" v="1882"/><tag k="addr:postcode" v="97113"/><tag k="addr:city" v="Cornelius"/><tag k="addr:street" v="Baseline Road"/></node>
<node id="-2" lat="45.520410993" lon="-123.049353437" visible="true"><tag k="addr:housenumber" v="1884"/><tag k="addr:postcode" v="97113"/><tag k="addr:city" v="Cornelius"/><tag k="addr:street" v="Baseline Road"/></node>
<node id="-3" lat="45.520411337" lon="-123.049347771" visible="true"><tag k="addr:housenumber" v="1886"/><tag k="addr:postcode" v="97113"/><tag k="addr:city" v="Cornelius"/><tag k="addr:street" v="Baseline Road"/></node>
<node id="-4" lat="45.520411052" lon="-123.049351257" visible="true"><tag k="addr:housenumber" v="1888"/><tag k="addr:postcode" v="97113"/><tag k="addr:city" v="Cornelius"/><tag k="addr:street" v="Baseline Road"/></node>
<node id="-5" lat="45.520452119" lon="-123.052906313" visible="true"><tag k="addr:housenumber" v="1513"/><tag k="addr:postcode" v="97113"/><tag k="addr:city" v="Cornelius"/><tag k="addr:street" v="North Adair Street"/></node>
<node id="-6" lat="45.520451916" lon="-123.052902916" visible="true"><tag k="addr:housenumber" v="1515"/><tag k="addr:postcode" v="97113"/><tag k="addr:city" v="Cornelius"/><tag k="addr:street" v="North Adair Street"/></node>
<node id="-7" lat="45.520454415" lon="-123.052906471" visible="true"><tag k="addr:housenumber" v="1519"/><tag k="addr:postcode" v="97113"/><tag k="addr:city" v="Cornelius"/><tag k="addr:street" v="North Adair Street"/></node>
<node id="-8" lat="45.520449577" lon="-123.05290352" visible="true"><tag k="addr:housenumber" v="1521"/><tag k="addr:postcode" v="97113"/><tag k="addr:city" v="Cornelius"/><tag k="addr:street" v="North Adair Street"/></node>
<node id="-9" lat="45.52045064" lon="-123.052911097" visible="true"><tag k="addr:housenumber" v="1599"/><tag k="addr:postcode" v="97113"/><tag k="addr:city" v="Cornelius"/><tag k="addr:street" v="North Adair Street"/></node>
<node id="-10" lat="45.520450343" lon="-123.052903594" visible="true"><tag k="addr:housenumber" v="1603"/><tag k="addr:postcode" v="97113"/><tag k="addr:city" v="Cornelius"/><tag k="addr:street" v="North Adair Street"/></node>
<node id="-11" lat="45.521536444" lon="-123.049074223" visible="true"><tag k="addr:housenumber" v="1813"/><tag k="addr:postcode" v="97113"/><tag k="addr:city" v="Cornelius"/><tag k="addr:street" v="North Barlow Street"/></node>
<node id="-12" lat="45.521535256" lon="-123.049073986" visible="true"><tag k="addr:housenumber" v="1815"/><tag k="addr:postcode" v="97113"/><tag k="addr:city" v="Cornelius"/><tag k="addr:street" v="North Barlow Street"/></node>
<node id="-13" lat="45.522425541" lon="-123.050371775" visible="true"><tag k="addr:housenumber" v="1743"/><tag k="addr:postcode" v="97113"/><tag k="addr:city" v="Cornelius"/><tag k="addr:street" v="North Clark Street"/></node>
<node id="-14" lat="45.522424991" lon="-123.050373929" visible="true"><tag k="addr:housenumber" v="1757"/><tag k="addr:postcode" v="97113"/><tag k="addr:city" v="Cornelius"/><tag k="addr:street" v="North Clark Street"/></node>
<node id="-15" lat="45.523297425" lon="-123.052575935" visible="true"><tag k="addr:housenumber" v="1569"/><tag k="addr:postcode" v="97113"/><tag k="addr:city" v="Cornelius"/><tag k="addr:street" v="North Davis Street"/></node>
<node id="-16" lat="45.523288938" lon="-123.052578572" visible="true"><tag k="addr:housenumber" v="1579"/><tag k="addr:postcode" v="97113"/><tag k="addr:city" v="Cornelius"/><tag k="addr:street" v="North Davis Street"/></node>
<node id="-17" lat="45.519444256" lon="-123.050363942" visible="true"><tag k="addr:housenumber" v="15"/><tag k="addr:postcode" v="97113"/><tag k="addr:city" v="Cornelius"/><tag k="addr:street" v="South 18th Court"/></node>
<node id="-18" lat="45.519449314" lon="-123.050367469" visible="true"><tag k="addr:housenumber" v="19"/><tag k="addr:postcode" v="97113"/><tag k="addr:city" v="Cornelius"/><tag k="addr:street" v="South 18th Court"/></node>
<node id="-19" lat="45.519417384" lon="-123.049929291" visible="true"><tag k="addr:housenumber" v="22"/><tag k="addr:postcode" v="97113"/><tag k="addr:city" v="Cornelius"/><tag k="addr:street" v="South 18th Court"/></node>
<node id="-20" lat="45.519415831" lon="-123.049923634" visible="true"><tag k="addr:housenumber" v="26"/><tag k="addr:postcode" v="97113"/><tag k="addr:city" v="Cornelius"/><tag k="addr:street" v="South 18th Court"/></node>
<node id="-21" lat="45.517510802" lon="-123.049913509" visible="true"><tag k="addr:housenumber" v="297"/><tag k="addr:postcode" v="97113"/><tag k="addr:city" v="Cornelius"/><tag k="addr:street" v="South 19th Avenue"/></node>
<node id="-22" lat="45.517509879" lon="-123.049914387" visible="true"><tag k="addr:housenumber" v="299"/><tag k="addr:postcode" v="97113"/><tag k="addr:city" v="Cornelius"/><tag k="addr:street" v="South 19th Avenue"/></node>
<node id="-23" lat="45.517176741" lon="-123.04958806" visible="true"><tag k="addr:housenumber" v="302"/><tag k="addr:postcode" v="97113"/><tag k="addr:city" v="Cornelius"/><tag k="addr:street" v="South 19th Avenue"/></node>
<node id="-24" lat="45.517180647" lon="-123.049592543" visible="true"><tag k="addr:housenumber" v="304"/><tag k="addr:postcode" v="97113"/><tag k="addr:city" v="Cornelius"/><tag k="addr:street" v="South 19th Avenue"/></node>
<node id="-25" lat="45.517179891" lon="-123.049588417" visible="true"><tag k="addr:housenumber" v="306"/><tag k="addr:postcode" v="97113"/><tag k="addr:city" v="Cornelius"/><tag k="addr:street" v="South 19th Avenue"/></node>
<node id="-26" lat="45.517179129" lon="-123.049587513" visible="true"><tag k="addr:housenumber" v="308"/><tag k="addr:postcode" v="97113"/><tag k="addr:city" v="Cornelius"/><tag k="addr:street" v="South 19th Avenue"/></node>
<node id="-27" lat="45.519390096" lon="-123.047642477" visible="true"><tag k="addr:housenumber" v="45"/><tag k="addr:postcode" v="97113"/><tag k="addr:city" v="Cornelius"/><tag k="addr:street" v="South 20th Avenue"/></node>
<node id="-28" lat="45.519392156" lon="-123.047646432" visible="true"><tag k="addr:housenumber" v="47"/><tag k="addr:postcode" v="97113"/><tag k="addr:city" v="Cornelius"/><tag k="addr:street" v="South 20th Avenue"/></node>
<node id="-29" lat="45.519393506" lon="-123.048003359" visible="true"><tag k="addr:housenumber" v="1942"/><tag k="addr:postcode" v="97113"/><tag k="addr:city" v="Cornelius"/><tag k="addr:street" v="South Alpine Street"/></node>
<node id="-30" lat="45.519388593" lon="-123.047999994" visible="true"><tag k="addr:housenumber" v="1946"/><tag k="addr:postcode" v="97113"/><tag k="addr:city" v="Cornelius"/><tag k="addr:street" v="South Alpine Street"/></node>
<node id="-31" lat="45.519082263" lon="-123.047907839" visible="true"><tag k="addr:housenumber" v="1950"/><tag k="addr:postcode" v="97113"/><tag k="addr:city" v="Cornelius"/><tag k="addr:street" v="South Alpine Street"/></node>
<node id="-32" lat="45.519081554" lon="-123.047908409" visible="true"><tag k="addr:housenumber" v="1954"/><tag k="addr:postcode" v="97113"/><tag k="addr:city" v="Cornelius"/><tag k="addr:street" v="South Alpine Street"/></node>
<node id="-33" lat="45.51907688" lon="-123.047611557" visible="true"><tag k="addr:housenumber" v="1960"/><tag k="addr:postcode" v="97113"/><tag k="addr:city" v="Cornelius"/><tag k="addr:street" v="South Alpine Street"/></node>
<node id="-34" lat="45.519077133" lon="-123.047602772" visible="true"><tag k="addr:housenumber" v="1966"/><tag k="addr:postcode" v="97113"/><tag k="addr:city" v="Cornelius"/><tag k="addr:street" v="South Alpine Street"/></node>
</osm>