<?xml version="1.0"?>
<osm version="0.6" upload="false" generator="uvmogr2osm">
<node id="-1" lat="45.522561756" lon="-123.090464703" visible="true"><tag k="addr:housenumber" v="3217"/><tag k="addr:postcode" v="97116"/><tag k="addr:city" v="Forest Grove"/><tag k="addr:street" v="22nd Avenue"/></node>
<node id="-2" lat="45.522561621" lon="-123.090468067" visible="true"><tag k="addr:housenumber" v="3219"/><tag k="addr:postcode" v="97116"/><tag k="addr:city" v="Forest Grove"/><tag k="addr:street" v="22nd Avenue"/></node>
<node id="-3" lat="45.522639124" lon="-123.090156781" visible="true"><tag k="addr:housenumber" v="3229"/><tag k="addr:postcode" v="97116"/><tag k="addr:city" v="Forest Grove"/><tag k="addr:street" v="22nd Avenue"/></node>
<node id="-4" lat="45.522631616" lon="-123.09015061" visible="true"><tag k="addr:housenumber" v="3231"/><tag k="addr:postcode" v="97116"/><tag k="addr:city" v="Forest Grove"/><tag k="addr:street" v="22nd Avenue"/></node>
<node id="-5" lat="45.522638858" lon="-123.089837309" visible="true"><tag k="addr:housenumber" v="3235"/><tag k="addr:postcode" v="97116"/><tag k="addr:city" v="Forest Grove"/><tag k="addr:street" v="22nd Avenue"/></node>
<node id="-6" lat="45.522636977" lon="-123.089843705" visible="true"><tag k="addr:housenumber" v="3237"/><tag k="addr:postcode" v="97116"/><tag k="addr:city" v="Forest Grove"/><tag k="addr:street" v="22nd Avenue"/></node>
<node id="-7" lat="45.522633713" lon="-123.089228642" visible="true"><tag k="addr:housenumber" v="3307"/><tag k="addr:postcode" v="97116"/><tag k="addr:city" v="Forest Grove"/><tag k="addr:street" v="22nd Avenue"/></node>
<node id="-8" lat="45.522633878" lon="-123.089236707" visible="true"><tag k="addr:housenumber" v="3309"/><tag k="addr:postcode" v="97116"/><tag k="addr:city" v="Forest Grove"/><tag k="addr:street" v="22nd Avenue"/></node>
<node id="-9" lat="45.521804208" lon="-123.082271815" visible="true"><tag k="addr:housenumber" v="3716"/><tag k="addr:postcode" v="97116"/><tag k="addr:city" v="Forest Grove"/><tag k="addr:street" v="22nd Avenue"/></node>
<node id="-10" lat="45.521805363" lon="-123.082265676" visible="true"><tag k="addr:housenumber" v="3718"/><tag k="addr:postcode" v="97116"/><tag k="addr:city" v="Forest Grove"/><tag k="addr:street" v="22nd Avenue"/></node>
<node id="-11" lat="45.521807093" lon="-123.081932659" visible="true"><tag k="addr:housenumber" v="3724"/><tag k="addr:postcode" v="97116"/><tag k="addr:city" v="Forest Grove"/><tag k="addr:street" v="22nd Avenue"/></node>
<node id="-12" lat="45.521804758" lon="-123.081931888" visible="true"><tag k="addr:housenumber" v="3726"/><tag k="addr:postcode" v="97116"/><tag k="addr:city" v="Forest Grove"/><tag k="addr:street" v="22nd Avenue"/></node>
<node id="-13" lat="45.521812372" lon="-123.081602697" visible="true"><tag k="addr:housenumber" v="3732"/><tag k="addr:postcode" v="97116"/><tag k="addr:city" v="Forest Grove"/><tag k="addr:street" v="22nd Avenue"/></node>
<node id="-14" lat="45.521811174" lon="-123.081600117" visible="true"><tag k="addr:housenumber" v="3734"/><tag k="addr:postcode" v="97116"/><tag k="addr:city" v="Forest Grove"/><tag k="addr:street" v="22nd Avenue"/></node>
<node id="-15" lat="45.522958825" lon="-123.093445752" visible="true"><tag k="addr:housenumber" v="3024"/><tag k="addr:postcode" v="97116"/><tag k="addr:city" v="Forest Grove"/><tag k="addr:street" v="22nd Place"/></node>
<node id="-16" lat="45.523413514" lon="-123.093607001" visible="true"><tag k="addr:housenumber" v="3025"/><tag k="addr:postcode" v="97116"/><tag k="addr:city" v="Forest Grove"/><tag k="addr:street" v="22nd Place"/></node>
<node id="-17" lat="45.522950552" lon="-123.093446639" visible="true"><tag k="addr:housenumber" v="3026"/><tag k="addr:postcode" v="97116"/><tag k="addr:city" v="Forest Grove"/><tag k="addr:street" v="22nd Place"/></node>
<node id="-18" lat="45.52341003" lon="-123.093599382" visible="true"><tag k="addr:housenumber" v="3027"/><tag k="addr:postcode" v="97116"/><tag k="addr:city" v="Forest Grove"/><tag k="addr:street" v="22nd Place"/></node>
<node id="-19" lat="45.523008293" lon="-123.089535662" visible="true"><tag k="addr:housenumber" v="3302"/><tag k="addr:postcode" v="97116"/><tag k="addr:city" v="Forest Grove"/><tag k="addr:street" v="22nd Place"/></node>
<node id="-20" lat="45.523005081" lon="-123.089533246" visible="true"><tag k="addr:housenumber" v="3304"/><tag k="addr:postcode" v="97116"/><tag k="addr:city" v="Forest Grove"/><tag k="addr:street" v="22nd Place"/></node>
<node id="-21" lat="45.523189592" lon="-123.083233513" visible="true"><tag k="addr:housenumber" v="3622"/><tag k="addr:postcode" v="97116"/><tag k="addr:city" v="Forest Grove"/><tag k="addr:street" v="23rd Avenue"/></node>
<node id="-22" lat="45.523188697" lon="-123.08323313" visible="true"><tag k="addr:housenumber" v="3624"/><tag k="addr:postcode" v="97116"/><tag k="addr:city" v="Forest Grove"/><tag k="addr:street" v="23rd Avenue"/></node>
<node id="-23" lat="45.522873174" lon="-123.082431065" visible="true"><tag k="addr:housenumber" v="3710"/><tag k="addr:postcode" v="97116"/><tag k="addr:city" v="Forest Grove"/><tag k="addr:street" v="23rd Avenue"/></node>
<node id="-24" lat="45.522873674" lon="-123.082428526" visible="true"><tag k="addr:housenumber" v="3712"/><tag k="addr:postcode" v="97116"/><tag k="addr:city" v="Forest Grove"/><tag k="addr:street" v="23rd Avenue"/></node>
<node id="-25" lat="45.522559446" lon="-123.081802357" visible="true"><tag k="addr:housenumber" v="3726"/><tag k="addr:postcode" v="97116"/><tag k="addr:city" v="Forest Grove"/><tag k="addr:street" v="23rd Avenue"/></node>
<node id="-26" lat="45.522562186" lon="-123.081796134" visible="true"><tag k="addr:housenumber" v="3728"/><tag k="addr:postcode" v="97116"/><tag k="addr:city" v="Forest Grove"/><tag k="addr:street" v="23rd Avenue"/></node>
<node id="-27" lat="45.522616218" lon="-123.080996947" visible="true"><tag k="addr:housenumber" v="3806"/><tag k="addr:postcode" v="97116"/><tag k="addr:city" v="Forest Grove"/><tag k="addr:street" v="23rd Avenue"/></node>
<node id="-28" lat="45.522614546" lon="-123.080990744" visible="true"><tag k="addr:housenumber" v="3808"/><tag k="addr:postcode" v="97116"/><tag k="addr:city" v="Forest Grove"/><tag k="addr:street" v="23rd Avenue"/></node>
<node id="-29" lat="45.523739623" lon="-123.093061092" visible="true"><tag k="addr:housenumber" v="2246"/><tag k="addr:postcode" v="97116"/><tag k="addr:city" v="Forest Grove"/><tag k="addr:street" v="Laurel Street"/></node>
<node id="-30" lat="45.523730816" lon="-123.093060632" visible="true"><tag k="addr:housenumber" v="2248"/><tag k="addr:postcode" v="97116"/><tag k="addr:city" v="Forest Grove"/><tag k="addr:street" v="Laurel Street"/></node>
<node id="-31" lat="45.522575586" lon="-123.090809537" visible="true"><tag k="addr:housenumber" v="2207"/><tag k="addr:postcode" v="97116"/><tag k="addr:city" v="Forest Grove"/><tag k="addr:street" v="Maple Street"/></node>
<node id="-32" lat="45.522578403" lon="-123.090801914" visible="true"><tag k="addr:housenumber" v="2209"/><tag k="addr:postcode" v="97116"/><tag k="addr:city" v="Forest Grove"/><tag k="addr:street" v="Maple Street"/></node>
<node id="-33" lat="45.523732832" lon="-123.09139596" visible="true"><tag k="addr:housenumber" v="2230"/><tag k="addr:postcode" v="97116"/><tag k="addr:city" v="Forest Grove"/><tag k="addr:street" v="Maple Street"/></node>
<node id="-34" lat="45.523728899" lon="-123.091391959" visible="true"><tag k="addr:housenumber" v="2236"/><tag k="addr:postcode" v="97116"/><tag k="addr:city" v="Forest Grove"/><tag k="addr:street" v="Maple Street"/></node>
<node id="-35" lat="45.523730522" lon="-123.091398811" visible="true"><tag k="addr:housenumber" v="2238"/><tag k="addr:postcode" v="97116"/><tag k="addr:city" v="Forest Grove"/><tag k="addr:street" v="Maple Street"/></node>
<node id="-36" lat="45.523729518" lon="-123.091397244" visible="true"><tag k="addr:housenumber" v="2244"/><tag k="addr:postcode" v="97116"/><tag k="addr:city" v="Forest Grove"/><tag k="addr:street" v="Maple Street"/></node>
<node id="-37" lat="45.523729547" lon="-123.091396176" visible="true"><tag k="addr:housenumber" v="2246"/><tag k="addr:postcode" v="97116"/><tag k="addr:city" v="Forest Grove"/><tag k="addr:street" v="Maple Street"/></node>
<node id="-38" lat="45.523732716" lon="-123.091398976" visible="true"><tag k="addr:housenumber" v="2252"/><tag k="addr:postcode" v="97116"/><tag k="addr:city" v="Forest Grove"/><tag k="addr:street" v="Maple Street"/></node>
<node id="-39" lat="45.523731166" lon="-123.091390758" visible="true"><tag k="addr:housenumber" v="2254"/><tag k="addr:postcode" v="97116"/><tag k="addr:city" v="Forest Grove"/><tag k="addr:street" v="Maple Street"/></node>
<node id="-40" lat="45.523732764" lon="-123.091392198" visible="true"><tag k="addr:housenumber" v="2260"/><tag k="addr:postcode" v="97116"/><tag k="addr:city" v="Forest Grove"/><tag k="addr:street" v="Maple Street"/></node>
<node id="-41" lat="45.520809126" lon="-123.077647584" visible="true"><tag k="addr:housenumber" v="3933"/><tag k="addr:postcode" v="97116"/><tag k="addr:city" v="Forest Grove"/><tag k="addr:street" v="Pacific Avenue"/></node>
<node id="-42" lat="45.520800646" lon="-123.077643716" visible="true"><tag k="addr:housenumber" v="4011"/><tag k="addr:postcode" v="97116"/><tag k="addr:city" v="Forest Grove"/><tag k="addr:street" v="Pacific Avenue"/></node>
<node id="-43" lat="45.521741105" lon="-123.083205829" visible="true"><tag k="addr:housenumber" v="2135"/><tag k="addr:postcode" v="97116"/><tag k="addr:city" v="Forest Grove"/><tag k="addr:street" v="Quince Street"/></node>
<node id="-44" lat="45.523170456" lon="-123.083494166" visible="true"><tag k="addr:housenumber" v="3614"/><tag k="addr:postcode" v="97116"/><tag k="addr:city" v="Forest Grove"/><tag k="addr:street" v="Quince Street"/></node>
<node id="-45" lat="45.523171985" lon="-123.083492779" visible="true"><tag k="addr:housenumber" v="3616"/><tag k="addr:postcode" v="97116"/><tag k="addr:city" v="Forest Grove"/><tag k="addr:street" v="Quince Street"/></node>
<node id="-46" lat="45.521742647" lon="-123.083206751" visible="true"><tag k="addr:housenumber" v="2122"/><tag k="addr:postcode" v="97116"/><tag k="addr:city" v="Forest Grove"/><tag k="addr:street" v="Rhodora Street"/></node>
<node id="-47" lat="45.521740205" lon="-123.083211505" visible="true"><tag k="addr:housenumber" v="2124"/><tag k="addr:postcode" v="97116"/><tag k="addr:city" v="Forest Grove"/><tag k="addr:street" v="Rhodora Street"/></node>
<node id="-48" lat="45.521810686" lon="-123.08261233" visible="true"><tag k="addr:housenumber" v="2125"/><tag k="addr:postcode" v="97116"/><tag k="addr:city" v="Forest Grove"/><tag k="addr:street" v="Rhodora Street"/></node>
<node id="-49" lat="45.521886683" lon="-123.083204427" visible="true"><tag k="addr:housenumber" v="2126"/><tag k="addr:postcode" v="97116"/><tag k="addr:city" v="Forest Grove"/><tag k="addr:street" v="Rhodora Street"/></node>
<node id="-50" lat="45.521811407" lon="-123.082617614" visible="true"><tag k="addr:housenumber" v="2127"/><tag k="addr:postcode" v="97116"/><tag k="addr:city" v="Forest Grove"/><tag k="addr:street" v="Rhodora Street"/></node>
<node id="-51" lat="45.521891255" lon="-123.083205413" visible="true"><tag k="addr:housenumber" v="2128"/><tag k="addr:postcode" v="97116"/><tag k="addr:city" v="Forest Grove"/><tag k="addr:street" v="Rhodora Street"/></node>
<node id="-52" lat="45.522036933" lon="-123.083204592" visible="true"><tag k="addr:housenumber" v="2130"/><tag k="addr:postcode" v="97116"/><tag k="addr:city" v="Forest Grove"/><tag k="addr:street" v="Rhodora Street"/></node>
<node id="-53" lat="45.522036089" lon="-123.083201904" visible="true"><tag k="addr:housenumber" v="2132"/><tag k="addr:postcode" v="97116"/><tag k="addr:city" v="Forest Grove"/><tag k="addr:street" v="Rhodora Street"/></node>
<node id="-54" lat="45.522180314" lon="-123.0832033" visible="true"><tag k="addr:housenumber" v="2138"/><tag k="addr:postcode" v="97116"/><tag k="addr:city" v="Forest Grove"/><tag k="addr:street" v="Rhodora Street"/></node>
<node id="-55" lat="45.522186078" lon="-123.08321144" visible="true"><tag k="addr:housenumber" v="2140"/><tag k="addr:postcode" v="97116"/><tag k="addr:city" v="Forest Grove"/><tag k="addr:street" v="Rhodora Street"/></node>
<node id="-56" lat="45.5223388" lon="-123.083212796" visible="true"><tag k="addr:housenumber" v="2142"/><tag k="addr:postcode" v="97116"/><tag k="addr:city" v="Forest Grove"/><tag k="addr:street" v="Rhodora Street"/></node>
<node id="-57" lat="45.522333219" lon="-123.083206515" visible="true"><tag k="addr:housenumber" v="2144"/><tag k="addr:postcode" v="97116"/><tag k="addr:city" v="Forest Grove"/><tag k="addr:street" v="Rhodora Street"/></node>
<node id="-58" lat="45.522489723" lon="-123.083205449" visible="true"><tag k="addr:housenumber" v="2204"/><tag k="addr:postcode" v="97116"/><tag k="addr:city" v="Forest Grove"/><tag k="addr:street" v="Rhodora Street"/></node>
<node id="-59" lat="45.522487899" lon="-123.08320285" visible="true"><tag k="addr:housenumber" v="2206"/><tag k="addr:postcode" v="97116"/><tag k="addr:city" v="Forest Grove"/><tag k="addr:street" v="Rhodora Street"/></node>
<node id="-60" lat="45.522642156" lon="-123.083268259" visible="true"><tag k="addr:housenumber" v="2212"/><tag k="addr:postcode" v="97116"/><tag k="addr:city" v="Forest Grove"/><tag k="addr:street" v="Rhodora Street"/></node>
<node id="-61" lat="45.522642164" lon="-123.083270926" visible="true"><tag k="addr:housenumber" v="2214"/><tag k="addr:postcode" v="97116"/><tag k="addr:city" v="Forest Grove"/><tag k="addr:street" v="Rhodora Street"/></node>
<node id="-62" lat="45.522897316" lon="-123.083170573" visible="true"><tag k="addr:housenumber" v="2218"/><tag k="addr:postcode" v="97116"/><tag k="addr:city" v="Forest Grove"/><tag k="addr:street" v="Rhodora Street"/></node>
<node id="-63" lat="45.52288843" lon="-123.083165489" visible="true"><tag k="addr:housenumber" v="2220"/><tag k="addr:postcode" v="97116"/><tag k="addr:city" v="Forest Grove"/><tag k="addr:street" v="Rhodora Street"/></node>
<node id="-64" lat="45.522666512" lon="-123.082574351" visible="true"><tag k="addr:housenumber" v="2221"/><tag k="addr:postcode" v="97116"/><tag k="addr:city" v="Forest Grove"/><tag k="addr:street" v="Rhodora Street"/></node>
<node id="-65" lat="45.522665333" lon="-123.082577883" visible="true"><tag k="addr:housenumber" v="2223"/><tag k="addr:postcode" v="97116"/><tag k="addr:city" v="Forest Grove"/><tag k="addr:street" v="Rhodora Street"/></node>
<node id="-66" lat="45.523659574" lon="-123.082363557" visible="true"><tag k="addr:housenumber" v="2314"/><tag k="addr:postcode" v="97116"/><tag k="addr:city" v="Forest Grove"/><tag k="addr:street" v="Rhodora Street"/></node>
<node id="-67" lat="45.523655634" lon="-123.082368974" visible="true"><tag k="addr:housenumber" v="2316"/><tag k="addr:postcode" v="97116"/><tag k="addr:city" v="Forest Grove"/><tag k="addr:street" v="Rhodora Street"/></node>
<node id="-68" lat="45.522573735" lon="-123.081577756" visible="true"><tag k="addr:housenumber" v="2222"/><tag k="addr:postcode" v="97116"/><tag k="addr:city" v="Forest Grove"/><tag k="addr:street" v="Spruce Street"/></node>
<node id="-69" lat="45.522577332" lon="-123.081569944" visible="true"><tag k="addr:housenumber" v="2224"/><tag k="addr:postcode" v="97116"/><tag k="addr:city" v="Forest Grove"/><tag k="addr:street" v="Spruce Street"/></node>
</osm>