<?xml version="1.0"?>
<osm version="0.6" upload="false" generator="uvmogr2osm">
<node id="-1" lat="45.52180903" lon="-123.071745821" visible="true"><tag k="addr:housenumber" v="4306"/><tag k="addr:postcode" v="97116"/><tag k="addr:city" v="Forest Grove"/><tag k="addr:street" v="22nd Avenue"/></node>
<node id="-2" lat="45.521801558" lon="-123.0717452" visible="true"><tag k="addr:housenumber" v="4308"/><tag k="addr:postcode" v="97116"/><tag k="addr:city" v="Forest Grove"/><tag k="addr:street" v="22nd Avenue"/></node>
<node id="-3" lat="45.52196334" lon="-123.071411036" visible="true"><tag k="addr:housenumber" v="4348"/><tag k="addr:postcode" v="97116"/><tag k="addr:city" v="Forest Grove"/><tag k="addr:street" v="22nd Avenue"/></node>
<node id="-4" lat="45.521970362" lon="-123.071407913" visible="true"><tag k="addr:housenumber" v="4350"/><tag k="addr:postcode" v="97116"/><tag k="addr:city" v="Forest Grove"/><tag k="addr:street" v="22nd Avenue"/></node>
<node id="-5" lat="45.520291855" lon="-123.059171255" visible="true"><tag k="addr:housenumber" v="1022"/><tag k="addr:postcode" v="97113"/><tag k="addr:city" v="Cornelius"/><tag k="addr:street" v="Baseline Street"/></node>
<node id="-6" lat="45.520287001" lon="-123.059174311" visible="true"><tag k="addr:housenumber" v="1034"/><tag k="addr:postcode" v="97113"/><tag k="addr:city" v="Cornelius"/><tag k="addr:street" v="Baseline Street"/></node>
<node id="-7" lat="45.522394471" lon="-123.059215495" visible="true"><tag k="addr:housenumber" v="266"/><tag k="addr:postcode" v="97113"/><tag k="addr:city" v="Cornelius"/><tag k="addr:street" v="North 10th Avenue"/></node>
<node id="-8" lat="45.522392643" lon="-123.059223376" visible="true"><tag k="addr:housenumber" v="278"/><tag k="addr:postcode" v="97113"/><tag k="addr:city" v="Cornelius"/><tag k="addr:street" v="North 10th Avenue"/></node>
<node id="-9" lat="45.523580273" lon="-123.059231495" visible="true"><tag k="addr:housenumber" v="410"/><tag k="addr:postcode" v="97113"/><tag k="addr:city" v="Cornelius"/><tag k="addr:street" v="North 10th Avenue"/></node>
<node id="-10" lat="45.520685056" lon="-123.059921933" visible="true"><tag k="addr:housenumber" v="65"/><tag k="addr:postcode" v="97113"/><tag k="addr:city" v="Cornelius"/><tag k="addr:street" v="North 10th Avenue"/></node>
<node id="-11" lat="45.520689105" lon="-123.05993147" visible="true"><tag k="addr:housenumber" v="77"/><tag k="addr:postcode" v="97113"/><tag k="addr:city" v="Cornelius"/><tag k="addr:street" v="North 10th Avenue"/></node>
<node id="-12" lat="45.5206875" lon="-123.059924446" visible="true"><tag k="addr:housenumber" v="89"/><tag k="addr:postcode" v="97113"/><tag k="addr:city" v="Cornelius"/><tag k="addr:street" v="North 10th Avenue"/></node>
<node id="-13" lat="45.523238281" lon="-123.057263899" visible="true"><tag k="addr:housenumber" v="395"/><tag k="addr:postcode" v="97113"/><tag k="addr:city" v="Cornelius"/><tag k="addr:street" v="North 12th Avenue"/></node>
<node id="-14" lat="45.521250666" lon="-123.066465942" visible="true"><tag k="addr:housenumber" v="118"/><tag k="addr:postcode" v="97113"/><tag k="addr:city" v="Cornelius"/><tag k="addr:street" v="North 4th Avenue"/></node>
<node id="-15" lat="45.521243826" lon="-123.066473069" visible="true"><tag k="addr:housenumber" v="126"/><tag k="addr:postcode" v="97113"/><tag k="addr:city" v="Cornelius"/><tag k="addr:street" v="North 4th Avenue"/></node>
<node id="-16" lat="45.521251773" lon="-123.066471089" visible="true"><tag k="addr:housenumber" v="130"/><tag k="addr:postcode" v="97113"/><tag k="addr:city" v="Cornelius"/><tag k="addr:street" v="North 4th Avenue"/></node>
<node id="-17" lat="45.521251114" lon="-123.066467811" visible="true"><tag k="addr:housenumber" v="142"/><tag k="addr:postcode" v="97113"/><tag k="addr:city" v="Cornelius"/><tag k="addr:street" v="North 4th Avenue"/></node>
<node id="-18" lat="45.520689344" lon="-123.058805075" visible="true"><tag k="addr:housenumber" v="1049"/><tag k="addr:postcode" v="97113"/><tag k="addr:city" v="Cornelius"/><tag k="addr:street" v="North Adair Street"/></node>
<node id="-19" lat="45.520692235" lon="-123.058806471" visible="true"><tag k="addr:housenumber" v="1059"/><tag k="addr:postcode" v="97113"/><tag k="addr:city" v="Cornelius"/><tag k="addr:street" v="North Adair Street"/></node>
<node id="-20" lat="45.520694843" lon="-123.058802425" visible="true"><tag k="addr:housenumber" v="1073"/><tag k="addr:postcode" v="97113"/><tag k="addr:city" v="Cornelius"/><tag k="addr:street" v="North Adair Street"/></node>
<node id="-21" lat="45.521169467" lon="-123.056211128" visible="true"><tag k="addr:housenumber" v="1240"/><tag k="addr:postcode" v="97113"/><tag k="addr:city" v="Cornelius"/><tag k="addr:street" v="North Adair Street"/></node>
<node id="-22" lat="45.52116925" lon="-123.056204502" visible="true"><tag k="addr:housenumber" v="1252"/><tag k="addr:postcode" v="97113"/><tag k="addr:city" v="Cornelius"/><tag k="addr:street" v="North Adair Street"/></node>
<node id="-23" lat="45.521168978" lon="-123.056207648" visible="true"><tag k="addr:housenumber" v="1280"/><tag k="addr:postcode" v="97113"/><tag k="addr:city" v="Cornelius"/><tag k="addr:street" v="North Adair Street"/></node>
<node id="-24" lat="45.521319856" lon="-123.0651874" visible="true"><tag k="addr:housenumber" v="504"/><tag k="addr:postcode" v="97113"/><tag k="addr:city" v="Cornelius"/><tag k="addr:street" v="North Adair Street"/></node>
<node id="-25" lat="45.521320102" lon="-123.065189706" visible="true"><tag k="addr:housenumber" v="522"/><tag k="addr:postcode" v="97113"/><tag k="addr:city" v="Cornelius"/><tag k="addr:street" v="North Adair Street"/></node>
<node id="-26" lat="45.523578815" lon="-123.059238766" visible="true"><tag k="addr:housenumber" v="1006"/><tag k="addr:postcode" v="97113"/><tag k="addr:city" v="Cornelius"/><tag k="addr:street" v="North Davis Street"/></node>
<node id="-27" lat="45.523283609" lon="-123.057543778" visible="true"><tag k="addr:housenumber" v="1143"/><tag k="addr:postcode" v="97113"/><tag k="addr:city" v="Cornelius"/><tag k="addr:street" v="North Davis Street"/></node>
<node id="-28" lat="45.523280827" lon="-123.057547406" visible="true"><tag k="addr:housenumber" v="1163"/><tag k="addr:postcode" v="97113"/><tag k="addr:city" v="Cornelius"/><tag k="addr:street" v="North Davis Street"/></node>
<node id="-29" lat="45.523238799" lon="-123.05725949" visible="true"><tag k="addr:housenumber" v="1181"/><tag k="addr:postcode" v="97113"/><tag k="addr:city" v="Cornelius"/><tag k="addr:street" v="North Davis Street"/></node>
</osm>