<?xml version="1.0"?>
<osm version="0.6" upload="false" generator="uvmogr2osm">
<node id="-1" lat="45.540056741" lon="-122.286140844" visible="true"><tag k="addr:housenumber" v="2510"/><tag k="addr:postcode" v="97019"/><tag k="addr:city" v="Corbett"/><tag k="addr:street" v="Northeast Corbett Hill Road"/></node>
<node id="-2" lat="45.541165435" lon="-122.290686279" visible="true"><tag k="addr:housenumber" v="2802"/><tag k="addr:postcode" v="97019"/><tag k="addr:city" v="Corbett"/><tag k="addr:street" v="Northeast Corbett Hill Road"/></node>
<node id="-3" lat="45.541160076" lon="-122.29068922" visible="true"><tag k="addr:housenumber" v="2803"/><tag k="addr:postcode" v="97019"/><tag k="addr:city" v="Corbett"/><tag k="addr:street" v="Northeast Corbett Hill Road"/></node>
<node id="-4" lat="45.541166251" lon="-122.290682191" visible="true"><tag k="addr:housenumber" v="2805"/><tag k="addr:postcode" v="97019"/><tag k="addr:city" v="Corbett"/><tag k="addr:street" v="Northeast Corbett Hill Road"/></node>
<node id="-5" lat="45.541164656" lon="-122.290689116" visible="true"><tag k="addr:housenumber" v="2905"/><tag k="addr:postcode" v="97019"/><tag k="addr:city" v="Corbett"/><tag k="addr:street" v="Northeast Rasmussen Road"/></node>
<node id="-6" lat="45.540052546" lon="-122.286140854" visible="true"><tag k="addr:housenumber" v="36702"/><tag k="addr:postcode" v="97019"/><tag k="addr:city" v="Corbett"/><tag k="addr:street" v="Northeast Reed Road"/></node>
<node id="-7" lat="45.523776948" lon="-122.373099521" visible="true"><tag k="addr:housenumber" v="143"/><tag k="addr:postcode" v="97060"/><tag k="addr:city" v="Troutdale"/><tag k="addr:street" v="Northeast Sandy Dell Road"/></node>
<node id="-8" lat="45.52378532" lon="-122.373102213" visible="true"><tag k="addr:housenumber" v="143"/><tag k="addr:postcode" v="97060"/><tag k="addr:city" v="Troutdale"/><tag k="addr:street" v="Northeast Sandy Dell Road"/></node>
<node id="-9" lat="45.523653131" lon="-122.376920241" visible="true"><tag k="addr:housenumber" v="1323"/><tag k="addr:postcode" v="97060"/><tag k="addr:city" v="Troutdale"/><tag k="addr:street" v="Southeast 24th Circle"/></node>
<node id="-10" lat="45.52365739" lon="-122.376916661" visible="true"><tag k="addr:housenumber" v="1324"/><tag k="addr:postcode" v="97060"/><tag k="addr:city" v="Troutdale"/><tag k="addr:street" v="Southeast 24th Circle"/></node>
<node id="-11" lat="45.468578719" lon="-122.337085457" visible="true"><tag k="addr:housenumber" v="7505"/><tag k="addr:postcode" v="97080"/><tag k="addr:city" v="Gresham"/><tag k="addr:street" v="Southeast Pleasant Home Road"/></node>
<node id="-12" lat="45.468575789" lon="-122.337087117" visible="true"><tag k="addr:housenumber" v="7507"/><tag k="addr:postcode" v="97080"/><tag k="addr:city" v="Gresham"/><tag k="addr:street" v="Southeast Pleasant Home Road"/></node>
</osm>