<?xml version="1.0"?>
<osm version="0.6" upload="false" generator="uvmogr2osm">
<node id="-1" lat="45.534720481" lon="-123.127392663" visible="true"><tag k="addr:housenumber" v="1125"/><tag k="addr:postcode" v="97116"/><tag k="addr:city" v="Forest Grove"/><tag k="addr:street" v="32nd Place"/></node>
<node id="-2" lat="45.526486767" lon="-123.131190101" visible="true"><tag k="addr:housenumber" v="946"/><tag k="addr:postcode" v="97116"/><tag k="addr:city" v="Forest Grove"/><tag k="addr:street" v="Goff Road"/></node>
<node id="-3" lat="45.526488976" lon="-123.13119116" visible="true"><tag k="addr:housenumber" v="2608"/><tag k="addr:postcode" v="97116"/><tag k="addr:city" v="Forest Grove"/><tag k="addr:street" v="Heather Way"/></node>
<node id="-4" lat="45.53472487" lon="-123.127388128" visible="true"><tag k="addr:housenumber" v="3232"/><tag k="addr:postcode" v="97116"/><tag k="addr:city" v="Forest Grove"/><tag k="addr:street" v="Larrabee Street"/></node>
<node id="-5" lat="45.527196124" lon="-123.12750211" visible="true"><tag k="addr:housenumber" v="1128"/><tag k="addr:postcode" v="97116"/><tag k="addr:city" v="Forest Grove"/><tag k="addr:street" v="Lilac Street"/></node>
<node id="-6" lat="45.526542617" lon="-123.127487467" visible="true"><tag k="addr:housenumber" v="1122"/><tag k="addr:postcode" v="97116"/><tag k="addr:city" v="Forest Grove"/><tag k="addr:street" v="Parkside Avenue"/></node>
<node id="-7" lat="45.526975803" lon="-123.12748186" visible="true"><tag k="addr:housenumber" v="1123"/><tag k="addr:postcode" v="97116"/><tag k="addr:city" v="Forest Grove"/><tag k="addr:street" v="Parkside Avenue"/></node>
<node id="-8" lat="45.525798035" lon="-123.127595429" visible="true"><tag k="addr:housenumber" v="1118"/><tag k="addr:postcode" v="97116"/><tag k="addr:city" v="Forest Grove"/><tag k="addr:street" v="Stonewall Avenue"/></node>
<node id="-9" lat="45.526238062" lon="-123.127492717" visible="true"><tag k="addr:housenumber" v="1127"/><tag k="addr:postcode" v="97116"/><tag k="addr:city" v="Forest Grove"/><tag k="addr:street" v="Stonewall Avenue"/></node>
<node id="-10" lat="45.534738982" lon="-123.131116194" visible="true"><tag k="addr:housenumber" v="1970"/><tag k="addr:postcode" v="97116"/><tag k="addr:city" v="Forest Grove"/><tag k="addr:street" v="Thatcher Road"/></node>
<node id="-11" lat="45.534735967" lon="-123.131112629" visible="true"><tag k="addr:housenumber" v="1980"/><tag k="addr:postcode" v="97116"/><tag k="addr:city" v="Forest Grove"/><tag k="addr:street" v="Thatcher Road"/></node>
<node id="-12" lat="45.526246796" lon="-123.127489414" visible="true"><tag k="addr:housenumber" v="2602"/><tag k="addr:postcode" v="97116"/><tag k="addr:city" v="Forest Grove"/><tag k="addr:street" v="Windstream Street"/></node>
<node id="-13" lat="45.526544209" lon="-123.127488075" visible="true"><tag k="addr:housenumber" v="2610"/><tag k="addr:postcode" v="97116"/><tag k="addr:city" v="Forest Grove"/><tag k="addr:street" v="Windstream Street"/></node>
<node id="-14" lat="45.525788523" lon="-123.127591147" visible="true"><tag k="addr:housenumber" v="2620"/><tag k="addr:postcode" v="97116"/><tag k="addr:city" v="Forest Grove"/><tag k="addr:street" v="Windstream Street"/></node>
<node id="-15" lat="45.526978843" lon="-123.127481196" visible="true"><tag k="addr:housenumber" v="2626"/><tag k="addr:postcode" v="97116"/><tag k="addr:city" v="Forest Grove"/><tag k="addr:street" v="Windstream Street"/></node>
<node id="-16" lat="45.527195277" lon="-123.127501386" visible="true"><tag k="addr:housenumber" v="2634"/><tag k="addr:postcode" v="97116"/><tag k="addr:city" v="Forest Grove"/><tag k="addr:street" v="Windstream Street"/></node>
</osm>