<?xml version="1.0"?>
<osm version="0.6" upload="false" generator="uvmogr2osm">
<node id="-1" lat="45.462001563" lon="-122.629597448" visible="true"><tag k="addr:housenumber" v="8414"/><tag k="addr:postcode" v="97222"/><tag k="addr:city" v="Milwaukie"/><tag k="addr:street" v="Southeast 32nd Avenue"/></node>
<node id="-2" lat="45.46199826" lon="-122.629596595" visible="true"><tag k="addr:housenumber" v="8416"/><tag k="addr:postcode" v="97222"/><tag k="addr:city" v="Milwaukie"/><tag k="addr:street" v="Southeast 32nd Avenue"/></node>
<node id="-3" lat="45.462002416" lon="-122.629598384" visible="true"><tag k="addr:housenumber" v="8424"/><tag k="addr:postcode" v="97222"/><tag k="addr:city" v="Milwaukie"/><tag k="addr:street" v="Southeast 32nd Avenue"/></node>
<node id="-4" lat="45.465226014" lon="-122.621882163" visible="true"><tag k="addr:housenumber" v="3929"/><tag k="addr:postcode" v="97202"/><tag k="addr:city" v="Portland"/><tag k="addr:street" v="Southeast Crystal Springs Boulevard"/></node>
<node id="-5" lat="45.465225658" lon="-122.621886084" visible="true"><tag k="addr:housenumber" v="3935"/><tag k="addr:postcode" v="97202"/><tag k="addr:city" v="Portland"/><tag k="addr:street" v="Southeast Crystal Springs Boulevard"/></node>
<node id="-6" lat="45.464816317" lon="-122.621468538" visible="true"><tag k="addr:housenumber" v="4006"/><tag k="addr:postcode" v="97202"/><tag k="addr:city" v="Portland"/><tag k="addr:street" v="Southeast Crystal Springs Boulevard"/></node>
<node id="-7" lat="45.464811558" lon="-122.621470689" visible="true"><tag k="addr:housenumber" v="4016"/><tag k="addr:postcode" v="97202"/><tag k="addr:city" v="Portland"/><tag k="addr:street" v="Southeast Crystal Springs Boulevard"/></node>
<node id="-8" lat="45.46454056" lon="-122.62103374" visible="true"><tag k="addr:housenumber" v="4026"/><tag k="addr:postcode" v="97202"/><tag k="addr:city" v="Portland"/><tag k="addr:street" v="Southeast Crystal Springs Boulevard"/></node>
<node id="-9" lat="45.46188933" lon="-122.625282226" visible="true"><tag k="addr:housenumber" v="3635"/><tag k="addr:postcode" v="97222"/><tag k="addr:city" v="Milwaukie"/><tag k="addr:street" v="Southeast Johnson Creek Boulevard"/></node>
<node id="-10" lat="45.461895411" lon="-122.625286328" visible="true"><tag k="addr:housenumber" v="3639"/><tag k="addr:postcode" v="97222"/><tag k="addr:city" v="Milwaukie"/><tag k="addr:street" v="Southeast Johnson Creek Boulevard"/></node>
<node id="-11" lat="45.466184589" lon="-122.621589743" visible="true"><tag k="addr:housenumber" v="3932"/><tag k="addr:postcode" v="97202"/><tag k="addr:city" v="Portland"/><tag k="addr:street" v="Southeast Lexington Street"/></node>
<node id="-12" lat="45.466185876" lon="-122.621591273" visible="true"><tag k="addr:housenumber" v="4006"/><tag k="addr:postcode" v="97202"/><tag k="addr:city" v="Portland"/><tag k="addr:street" v="Southeast Lexington Street"/></node>
<node id="-13" lat="45.467940274" lon="-122.625076026" visible="true"><tag k="addr:housenumber" v="3651"/><tag k="addr:postcode" v="97202"/><tag k="addr:city" v="Portland"/><tag k="addr:street" v="Southeast Malden Street"/></node>
<node id="-14" lat="45.467941328" lon="-122.625082146" visible="true"><tag k="addr:housenumber" v="3659"/><tag k="addr:postcode" v="97202"/><tag k="addr:city" v="Portland"/><tag k="addr:street" v="Southeast Malden Street"/></node>
<node id="-15" lat="45.467964223" lon="-122.623600109" visible="true"><tag k="addr:housenumber" v="3725"/><tag k="addr:postcode" v="97202"/><tag k="addr:city" v="Portland"/><tag k="addr:street" v="Southeast Malden Street"/></node>
<node id="-16" lat="45.46796753" lon="-122.623593274" visible="true"><tag k="addr:housenumber" v="3731"/><tag k="addr:postcode" v="97202"/><tag k="addr:city" v="Portland"/><tag k="addr:street" v="Southeast Malden Street"/></node>
<node id="-17" lat="45.465908886" lon="-122.623303054" visible="true"><tag k="addr:housenumber" v="3803"/><tag k="addr:postcode" v="97202"/><tag k="addr:city" v="Portland"/><tag k="addr:street" v="Southeast Nehalem Street"/></node>
<node id="-18" lat="45.465913883" lon="-122.623297953" visible="true"><tag k="addr:housenumber" v="3805"/><tag k="addr:postcode" v="97202"/><tag k="addr:city" v="Portland"/><tag k="addr:street" v="Southeast Nehalem Street"/></node>
<node id="-19" lat="45.468242955" lon="-122.622345875" visible="true"><tag k="addr:housenumber" v="3904"/><tag k="addr:postcode" v="97202"/><tag k="addr:city" v="Portland"/><tag k="addr:street" v="Southeast Rex Street"/></node>
<node id="-20" lat="45.468234321" lon="-122.622350813" visible="true"><tag k="addr:housenumber" v="3908"/><tag k="addr:postcode" v="97202"/><tag k="addr:city" v="Portland"/><tag k="addr:street" v="Southeast Rex Street"/></node>
<node id="-21" lat="45.464545437" lon="-122.621032318" visible="true"><tag k="addr:housenumber" v="4033"/><tag k="addr:postcode" v="97202"/><tag k="addr:city" v="Portland"/><tag k="addr:street" v="Southeast Tenino Street"/></node>
</osm>