<?xml version="1.0"?>
<osm version="0.6" upload="false" generator="uvmogr2osm">
<node id="-1" lat="45.446219379" lon="-122.737036838" visible="true"><tag k="addr:housenumber" v="10935"/><tag k="addr:postcode" v="97219"/><tag k="addr:city" v="Portland"/><tag k="addr:street" v="Southwest 58th Avenue"/></node>
<node id="-2" lat="45.446224297" lon="-122.737037833" visible="true"><tag k="addr:housenumber" v="10943"/><tag k="addr:postcode" v="97219"/><tag k="addr:city" v="Portland"/><tag k="addr:street" v="Southwest 58th Avenue"/></node>
<node id="-3" lat="45.442333814" lon="-122.736392248" visible="true"><tag k="addr:housenumber" v="11517"/><tag k="addr:postcode" v="97219"/><tag k="addr:city" v="Portland"/><tag k="addr:street" v="Southwest 58th Court"/></node>
<node id="-4" lat="45.442910282" lon="-122.738080031" visible="true"><tag k="addr:housenumber" v="11340"/><tag k="addr:postcode" v="97219"/><tag k="addr:city" v="Portland"/><tag k="addr:street" v="Southwest 60th Avenue"/></node>
<node id="-5" lat="45.442515702" lon="-122.739215473" visible="true"><tag k="addr:housenumber" v="11510"/><tag k="addr:postcode" v="97219"/><tag k="addr:city" v="Portland"/><tag k="addr:street" v="Southwest 61st Avenue"/></node>
<node id="-6" lat="45.441622525" lon="-122.739750987" visible="true"><tag k="addr:housenumber" v="11611"/><tag k="addr:postcode" v="97219"/><tag k="addr:city" v="Portland"/><tag k="addr:street" v="Southwest 61st Avenue"/></node>
<node id="-7" lat="45.441624853" lon="-122.739759812" visible="true"><tag k="addr:housenumber" v="11617"/><tag k="addr:postcode" v="97219"/><tag k="addr:city" v="Portland"/><tag k="addr:street" v="Southwest 61st Avenue"/></node>
<node id="-8" lat="45.443523119" lon="-122.742196868" visible="true"><tag k="addr:housenumber" v="11330"/><tag k="addr:postcode" v="97219"/><tag k="addr:city" v="Portland"/><tag k="addr:street" v="Southwest 64th Avenue"/></node>
<node id="-9" lat="45.443515018" lon="-122.742200517" visible="true"><tag k="addr:housenumber" v="11381"/><tag k="addr:postcode" v="97219"/><tag k="addr:city" v="Portland"/><tag k="addr:street" v="Southwest 64th Avenue"/></node>
<node id="-10" lat="45.442902367" lon="-122.738078101" visible="true"><tag k="addr:housenumber" v="11394"/><tag k="addr:postcode" v="97219"/><tag k="addr:city" v="Portland"/><tag k="addr:street" v="Southwest Barbur Boulevard"/></node>
<node id="-11" lat="45.442335281" lon="-122.736391592" visible="true"><tag k="addr:housenumber" v="11366"/><tag k="addr:postcode" v="97219"/><tag k="addr:city" v="Portland"/><tag k="addr:street" v="Southwest Capitol Highway"/></node>
<node id="-12" lat="45.442516352" lon="-122.739216277" visible="true"><tag k="addr:housenumber" v="11450"/><tag k="addr:postcode" v="97219"/><tag k="addr:city" v="Portland"/><tag k="addr:street" v="Southwest Capitol Highway"/></node>
<node id="-13" lat="45.440753013" lon="-122.749022122" visible="true"><tag k="addr:housenumber" v="11538"/><tag k="addr:postcode" v="97223"/><tag k="addr:city" v="Tigard"/><tag k="addr:street" v="Southwest Pacific Highway"/></node>
<node id="-14" lat="45.440759363" lon="-122.749022147" visible="true"><tag k="addr:housenumber" v="11540"/><tag k="addr:postcode" v="97223"/><tag k="addr:city" v="Tigard"/><tag k="addr:street" v="Southwest Pacific Highway"/></node>
<node id="-15" lat="45.445294147" lon="-122.740288722" visible="true"><tag k="addr:housenumber" v="6125"/><tag k="addr:postcode" v="97219"/><tag k="addr:city" v="Portland"/><tag k="addr:street" v="Southwest Pomona Street"/></node>
<node id="-16" lat="45.445298774" lon="-122.740285879" visible="true"><tag k="addr:housenumber" v="6137"/><tag k="addr:postcode" v="97219"/><tag k="addr:city" v="Portland"/><tag k="addr:street" v="Southwest Pomona Street"/></node>
</osm>