<?xml version="1.0"?>
<osm version="0.6" upload="false" generator="uvmogr2osm">
<node id="-1" lat="45.459465153" lon="-122.703832385" visible="true"><tag k="addr:housenumber" v="9047"/><tag k="addr:postcode" v="97219"/><tag k="addr:city" v="Portland"/><tag k="addr:street" v="Southwest 26th Avenue"/></node>
<node id="-2" lat="45.459466945" lon="-122.703831863" visible="true"><tag k="addr:housenumber" v="9105"/><tag k="addr:postcode" v="97219"/><tag k="addr:city" v="Portland"/><tag k="addr:street" v="Southwest 26th Avenue"/></node>
<node id="-3" lat="45.458285388" lon="-122.705966733" visible="true"><tag k="addr:housenumber" v="9223"/><tag k="addr:postcode" v="97219"/><tag k="addr:city" v="Portland"/><tag k="addr:street" v="Southwest 28th Avenue"/></node>
<node id="-4" lat="45.458289184" lon="-122.705972665" visible="true"><tag k="addr:housenumber" v="9229"/><tag k="addr:postcode" v="97219"/><tag k="addr:city" v="Portland"/><tag k="addr:street" v="Southwest 28th Avenue"/></node>
<node id="-5" lat="45.458336552" lon="-122.706652753" visible="true"><tag k="addr:housenumber" v="9220"/><tag k="addr:postcode" v="97219"/><tag k="addr:city" v="Portland"/><tag k="addr:street" v="Southwest 29th Avenue"/></node>
<node id="-6" lat="45.464016689" lon="-122.707401301" visible="true"><tag k="addr:housenumber" v="8412"/><tag k="addr:postcode" v="97219"/><tag k="addr:city" v="Portland"/><tag k="addr:street" v="Southwest 30th Avenue"/></node>
<node id="-7" lat="45.46402118" lon="-122.707404916" visible="true"><tag k="addr:housenumber" v="8413"/><tag k="addr:postcode" v="97219"/><tag k="addr:city" v="Portland"/><tag k="addr:street" v="Southwest 30th Avenue"/></node>
<node id="-8" lat="45.463688072" lon="-122.706812916" visible="true"><tag k="addr:housenumber" v="8436"/><tag k="addr:postcode" v="97219"/><tag k="addr:city" v="Portland"/><tag k="addr:street" v="Southwest 30th Avenue"/></node>
<node id="-9" lat="45.463693805" lon="-122.706817198" visible="true"><tag k="addr:housenumber" v="8446"/><tag k="addr:postcode" v="97219"/><tag k="addr:city" v="Portland"/><tag k="addr:street" v="Southwest 30th Avenue"/></node>
<node id="-10" lat="45.4626586" lon="-122.707463775" visible="true"><tag k="addr:housenumber" v="8520"/><tag k="addr:postcode" v="97219"/><tag k="addr:city" v="Portland"/><tag k="addr:street" v="Southwest 30th Avenue"/></node>
<node id="-11" lat="45.462656045" lon="-122.707466156" visible="true"><tag k="addr:housenumber" v="8522"/><tag k="addr:postcode" v="97219"/><tag k="addr:city" v="Portland"/><tag k="addr:street" v="Southwest 30th Avenue"/></node>
<node id="-12" lat="45.462651488" lon="-122.707465155" visible="true"><tag k="addr:housenumber" v="8524"/><tag k="addr:postcode" v="97219"/><tag k="addr:city" v="Portland"/><tag k="addr:street" v="Southwest 30th Avenue"/></node>
<node id="-13" lat="45.4626595" lon="-122.707468283" visible="true"><tag k="addr:housenumber" v="8526"/><tag k="addr:postcode" v="97219"/><tag k="addr:city" v="Portland"/><tag k="addr:street" v="Southwest 30th Avenue"/></node>
<node id="-14" lat="45.462486958" lon="-122.707436474" visible="true"><tag k="addr:housenumber" v="8540"/><tag k="addr:postcode" v="97219"/><tag k="addr:city" v="Portland"/><tag k="addr:street" v="Southwest 30th Avenue"/></node>
<node id="-15" lat="45.46248545" lon="-122.707432316" visible="true"><tag k="addr:housenumber" v="8542"/><tag k="addr:postcode" v="97219"/><tag k="addr:city" v="Portland"/><tag k="addr:street" v="Southwest 30th Avenue"/></node>
<node id="-16" lat="45.461987869" lon="-122.707458645" visible="true"><tag k="addr:housenumber" v="8720"/><tag k="addr:postcode" v="97219"/><tag k="addr:city" v="Portland"/><tag k="addr:street" v="Southwest 30th Avenue"/></node>
<node id="-17" lat="45.461995891" lon="-122.707460086" visible="true"><tag k="addr:housenumber" v="8730"/><tag k="addr:postcode" v="97219"/><tag k="addr:city" v="Portland"/><tag k="addr:street" v="Southwest 30th Avenue"/></node>
<node id="-18" lat="45.465694172" lon="-122.710008238" visible="true"><tag k="addr:housenumber" v="8128"/><tag k="addr:postcode" v="97219"/><tag k="addr:city" v="Portland"/><tag k="addr:street" v="Southwest 33rd Avenue"/></node>
<node id="-19" lat="45.458837401" lon="-122.712507389" visible="true"><tag k="addr:housenumber" v="9145"/><tag k="addr:postcode" v="97219"/><tag k="addr:city" v="Portland"/><tag k="addr:street" v="Southwest 34th Place"/></node>
<node id="-20" lat="45.458843419" lon="-122.71250968" visible="true"><tag k="addr:housenumber" v="3443"/><tag k="addr:postcode" v="97219"/><tag k="addr:city" v="Portland"/><tag k="addr:street" v="Southwest Alice Street"/></node>
<node id="-21" lat="45.458758111" lon="-122.71050215" visible="true"><tag k="addr:housenumber" v="9221"/><tag k="addr:postcode" v="97219"/><tag k="addr:city" v="Portland"/><tag k="addr:street" v="Southwest Barbur Boulevard"/></node>
<node id="-22" lat="45.458763126" lon="-122.710496991" visible="true"><tag k="addr:housenumber" v="9260"/><tag k="addr:postcode" v="97219"/><tag k="addr:city" v="Portland"/><tag k="addr:street" v="Southwest Barbur Boulevard"/></node>
<node id="-23" lat="45.46190177" lon="-122.708552603" visible="true"><tag k="addr:housenumber" v="3043"/><tag k="addr:postcode" v="97219"/><tag k="addr:city" v="Portland"/><tag k="addr:street" v="Southwest Dolph Court"/></node>
<node id="-24" lat="45.461897563" lon="-122.708556546" visible="true"><tag k="addr:housenumber" v="3045"/><tag k="addr:postcode" v="97219"/><tag k="addr:city" v="Portland"/><tag k="addr:street" v="Southwest Dolph Court"/></node>
<node id="-25" lat="45.46190718" lon="-122.708783573" visible="true"><tag k="addr:housenumber" v="3107"/><tag k="addr:postcode" v="97219"/><tag k="addr:city" v="Portland"/><tag k="addr:street" v="Southwest Dolph Court"/></node>
<node id="-26" lat="45.461908463" lon="-122.708782809" visible="true"><tag k="addr:housenumber" v="3109"/><tag k="addr:postcode" v="97219"/><tag k="addr:city" v="Portland"/><tag k="addr:street" v="Southwest Dolph Court"/></node>
<node id="-27" lat="45.466631212" lon="-122.711375752" visible="true"><tag k="addr:housenumber" v="3401"/><tag k="addr:postcode" v="97219"/><tag k="addr:city" v="Portland"/><tag k="addr:street" v="Southwest Falcon Street"/></node>
<node id="-28" lat="45.466637232" lon="-122.711376484" visible="true"><tag k="addr:housenumber" v="3403"/><tag k="addr:postcode" v="97219"/><tag k="addr:city" v="Portland"/><tag k="addr:street" v="Southwest Falcon Street"/></node>
<node id="-29" lat="45.466630454" lon="-122.711375943" visible="true"><tag k="addr:housenumber" v="3405"/><tag k="addr:postcode" v="97219"/><tag k="addr:city" v="Portland"/><tag k="addr:street" v="Southwest Falcon Street"/></node>
<node id="-30" lat="45.466636851" lon="-122.711374681" visible="true"><tag k="addr:housenumber" v="3407"/><tag k="addr:postcode" v="97219"/><tag k="addr:city" v="Portland"/><tag k="addr:street" v="Southwest Falcon Street"/></node>
<node id="-31" lat="45.46580135" lon="-122.712056086" visible="true"><tag k="addr:housenumber" v="3422"/><tag k="addr:postcode" v="97219"/><tag k="addr:city" v="Portland"/><tag k="addr:street" v="Southwest Falcon Street"/></node>
<node id="-32" lat="45.465805694" lon="-122.712049484" visible="true"><tag k="addr:housenumber" v="3424"/><tag k="addr:postcode" v="97219"/><tag k="addr:city" v="Portland"/><tag k="addr:street" v="Southwest Falcon Street"/></node>
<node id="-33" lat="45.46569771" lon="-122.710007226" visible="true"><tag k="addr:housenumber" v="3211"/><tag k="addr:postcode" v="97219"/><tag k="addr:city" v="Portland"/><tag k="addr:street" v="Southwest Hume Street"/></node>
<node id="-34" lat="45.460701916" lon="-122.710045671" visible="true"><tag k="addr:housenumber" v="3201"/><tag k="addr:postcode" v="97219"/><tag k="addr:city" v="Portland"/><tag k="addr:street" v="Southwest Marigold Street"/></node>
<node id="-35" lat="45.460114033" lon="-122.710005397" visible="true"><tag k="addr:housenumber" v="3202"/><tag k="addr:postcode" v="97219"/><tag k="addr:city" v="Portland"/><tag k="addr:street" v="Southwest Marigold Street"/></node>
<node id="-36" lat="45.460705755" lon="-122.71004906" visible="true"><tag k="addr:housenumber" v="3207"/><tag k="addr:postcode" v="97219"/><tag k="addr:city" v="Portland"/><tag k="addr:street" v="Southwest Marigold Street"/></node>
<node id="-37" lat="45.460706259" lon="-122.710048143" visible="true"><tag k="addr:housenumber" v="3208"/><tag k="addr:postcode" v="97219"/><tag k="addr:city" v="Portland"/><tag k="addr:street" v="Southwest Marigold Street"/></node>
<node id="-38" lat="45.460700774" lon="-122.710048227" visible="true"><tag k="addr:housenumber" v="3209"/><tag k="addr:postcode" v="97219"/><tag k="addr:city" v="Portland"/><tag k="addr:street" v="Southwest Marigold Street"/></node>
<node id="-39" lat="45.460709473" lon="-122.710047472" visible="true"><tag k="addr:housenumber" v="3210"/><tag k="addr:postcode" v="97219"/><tag k="addr:city" v="Portland"/><tag k="addr:street" v="Southwest Marigold Street"/></node>
<node id="-40" lat="45.460701167" lon="-122.71005142" visible="true"><tag k="addr:housenumber" v="3211"/><tag k="addr:postcode" v="97219"/><tag k="addr:city" v="Portland"/><tag k="addr:street" v="Southwest Marigold Street"/></node>
<node id="-41" lat="45.460701555" lon="-122.71004821" visible="true"><tag k="addr:housenumber" v="3214"/><tag k="addr:postcode" v="97219"/><tag k="addr:city" v="Portland"/><tag k="addr:street" v="Southwest Marigold Street"/></node>
<node id="-42" lat="45.46012268" lon="-122.710012013" visible="true"><tag k="addr:housenumber" v="3217"/><tag k="addr:postcode" v="97219"/><tag k="addr:city" v="Portland"/><tag k="addr:street" v="Southwest Marigold Street"/></node>
<node id="-43" lat="45.46012209" lon="-122.71000758" visible="true"><tag k="addr:housenumber" v="3220"/><tag k="addr:postcode" v="97219"/><tag k="addr:city" v="Portland"/><tag k="addr:street" v="Southwest Marigold Street"/></node>
<node id="-44" lat="45.460119901" lon="-122.710008218" visible="true"><tag k="addr:housenumber" v="3222"/><tag k="addr:postcode" v="97219"/><tag k="addr:city" v="Portland"/><tag k="addr:street" v="Southwest Marigold Street"/></node>
<node id="-45" lat="45.460120836" lon="-122.710008389" visible="true"><tag k="addr:housenumber" v="3224"/><tag k="addr:postcode" v="97219"/><tag k="addr:city" v="Portland"/><tag k="addr:street" v="Southwest Marigold Street"/></node>
<node id="-46" lat="45.46012124" lon="-122.710010836" visible="true"><tag k="addr:housenumber" v="3226"/><tag k="addr:postcode" v="97219"/><tag k="addr:city" v="Portland"/><tag k="addr:street" v="Southwest Marigold Street"/></node>
<node id="-47" lat="45.460117128" lon="-122.710009367" visible="true"><tag k="addr:housenumber" v="3228"/><tag k="addr:postcode" v="97219"/><tag k="addr:city" v="Portland"/><tag k="addr:street" v="Southwest Marigold Street"/></node>
<node id="-48" lat="45.460118213" lon="-122.710012005" visible="true"><tag k="addr:housenumber" v="3230"/><tag k="addr:postcode" v="97219"/><tag k="addr:city" v="Portland"/><tag k="addr:street" v="Southwest Marigold Street"/></node>
<node id="-49" lat="45.460119856" lon="-122.710008139" visible="true"><tag k="addr:housenumber" v="3232"/><tag k="addr:postcode" v="97219"/><tag k="addr:city" v="Portland"/><tag k="addr:street" v="Southwest Marigold Street"/></node>
<node id="-50" lat="45.460119792" lon="-122.710013003" visible="true"><tag k="addr:housenumber" v="3236"/><tag k="addr:postcode" v="97219"/><tag k="addr:city" v="Portland"/><tag k="addr:street" v="Southwest Marigold Street"/></node>
<node id="-51" lat="45.4597431" lon="-122.709405319" visible="true"><tag k="addr:housenumber" v="3137"/><tag k="addr:postcode" v="97219"/><tag k="addr:city" v="Portland"/><tag k="addr:street" v="Southwest Primrose Street"/></node>
<node id="-52" lat="45.459740611" lon="-122.709402649" visible="true"><tag k="addr:housenumber" v="3139"/><tag k="addr:postcode" v="97219"/><tag k="addr:city" v="Portland"/><tag k="addr:street" v="Southwest Primrose Street"/></node>
<node id="-53" lat="45.463287538" lon="-122.702618384" visible="true"><tag k="addr:housenumber" v="2524"/><tag k="addr:postcode" v="97219"/><tag k="addr:city" v="Portland"/><tag k="addr:street" v="Southwest Spring Garden Street"/></node>
<node id="-54" lat="45.463287418" lon="-122.70261995" visible="true"><tag k="addr:housenumber" v="2528"/><tag k="addr:postcode" v="97219"/><tag k="addr:city" v="Portland"/><tag k="addr:street" v="Southwest Spring Garden Street"/></node>
<node id="-55" lat="45.463417187" lon="-122.703445229" visible="true"><tag k="addr:housenumber" v="2537"/><tag k="addr:postcode" v="97219"/><tag k="addr:city" v="Portland"/><tag k="addr:street" v="Southwest Spring Garden Street"/></node>
<node id="-56" lat="45.463418713" lon="-122.703442896" visible="true"><tag k="addr:housenumber" v="2539"/><tag k="addr:postcode" v="97219"/><tag k="addr:city" v="Portland"/><tag k="addr:street" v="Southwest Spring Garden Street"/></node>
<node id="-57" lat="45.463377652" lon="-122.703115563" visible="true"><tag k="addr:housenumber" v="2541"/><tag k="addr:postcode" v="97219"/><tag k="addr:city" v="Portland"/><tag k="addr:street" v="Southwest Spring Garden Street"/></node>
<node id="-58" lat="45.463386875" lon="-122.703112741" visible="true"><tag k="addr:housenumber" v="2543"/><tag k="addr:postcode" v="97219"/><tag k="addr:city" v="Portland"/><tag k="addr:street" v="Southwest Spring Garden Street"/></node>
<node id="-59" lat="45.462954031" lon="-122.704927448" visible="true"><tag k="addr:housenumber" v="2701"/><tag k="addr:postcode" v="97219"/><tag k="addr:city" v="Portland"/><tag k="addr:street" v="Southwest Spring Garden Street"/></node>
<node id="-60" lat="45.462953926" lon="-122.704930185" visible="true"><tag k="addr:housenumber" v="2703"/><tag k="addr:postcode" v="97219"/><tag k="addr:city" v="Portland"/><tag k="addr:street" v="Southwest Spring Garden Street"/></node>
<node id="-61" lat="45.462948958" lon="-122.704927391" visible="true"><tag k="addr:housenumber" v="2705"/><tag k="addr:postcode" v="97219"/><tag k="addr:city" v="Portland"/><tag k="addr:street" v="Southwest Spring Garden Street"/></node>
<node id="-62" lat="45.462956701" lon="-122.704930568" visible="true"><tag k="addr:housenumber" v="2707"/><tag k="addr:postcode" v="97219"/><tag k="addr:city" v="Portland"/><tag k="addr:street" v="Southwest Spring Garden Street"/></node>
<node id="-63" lat="45.462956931" lon="-122.704926303" visible="true"><tag k="addr:housenumber" v="2709"/><tag k="addr:postcode" v="97219"/><tag k="addr:city" v="Portland"/><tag k="addr:street" v="Southwest Spring Garden Street"/></node>
<node id="-64" lat="45.462949011" lon="-122.704925424" visible="true"><tag k="addr:housenumber" v="2711"/><tag k="addr:postcode" v="97219"/><tag k="addr:city" v="Portland"/><tag k="addr:street" v="Southwest Spring Garden Street"/></node>
<node id="-65" lat="45.462953279" lon="-122.704933302" visible="true"><tag k="addr:housenumber" v="2713"/><tag k="addr:postcode" v="97219"/><tag k="addr:city" v="Portland"/><tag k="addr:street" v="Southwest Spring Garden Street"/></node>
<node id="-66" lat="45.462950144" lon="-122.704934819" visible="true"><tag k="addr:housenumber" v="2715"/><tag k="addr:postcode" v="97219"/><tag k="addr:city" v="Portland"/><tag k="addr:street" v="Southwest Spring Garden Street"/></node>
<node id="-67" lat="45.462956519" lon="-122.704931696" visible="true"><tag k="addr:housenumber" v="2717"/><tag k="addr:postcode" v="97219"/><tag k="addr:city" v="Portland"/><tag k="addr:street" v="Southwest Spring Garden Street"/></node>
<node id="-68" lat="45.462949564" lon="-122.704930243" visible="true"><tag k="addr:housenumber" v="2719"/><tag k="addr:postcode" v="97219"/><tag k="addr:city" v="Portland"/><tag k="addr:street" v="Southwest Spring Garden Street"/></node>
<node id="-69" lat="45.462956565" lon="-122.704929703" visible="true"><tag k="addr:housenumber" v="2721"/><tag k="addr:postcode" v="97219"/><tag k="addr:city" v="Portland"/><tag k="addr:street" v="Southwest Spring Garden Street"/></node>
<node id="-70" lat="45.462953031" lon="-122.704933757" visible="true"><tag k="addr:housenumber" v="2723"/><tag k="addr:postcode" v="97219"/><tag k="addr:city" v="Portland"/><tag k="addr:street" v="Southwest Spring Garden Street"/></node>
<node id="-71" lat="45.462863748" lon="-122.707240811" visible="true"><tag k="addr:housenumber" v="2920"/><tag k="addr:postcode" v="97219"/><tag k="addr:city" v="Portland"/><tag k="addr:street" v="Southwest Spring Garden Street"/></node>
<node id="-72" lat="45.462866024" lon="-122.707244401" visible="true"><tag k="addr:housenumber" v="2922"/><tag k="addr:postcode" v="97219"/><tag k="addr:city" v="Portland"/><tag k="addr:street" v="Southwest Spring Garden Street"/></node>
<node id="-73" lat="45.462861912" lon="-122.707244988" visible="true"><tag k="addr:housenumber" v="2924"/><tag k="addr:postcode" v="97219"/><tag k="addr:city" v="Portland"/><tag k="addr:street" v="Southwest Spring Garden Street"/></node>
<node id="-74" lat="45.462866962" lon="-122.707243558" visible="true"><tag k="addr:housenumber" v="2926"/><tag k="addr:postcode" v="97219"/><tag k="addr:city" v="Portland"/><tag k="addr:street" v="Southwest Spring Garden Street"/></node>
<node id="-75" lat="45.462690387" lon="-122.707999221" visible="true"><tag k="addr:housenumber" v="3006"/><tag k="addr:postcode" v="97219"/><tag k="addr:city" v="Portland"/><tag k="addr:street" v="Southwest Spring Garden Street"/></node>
<node id="-76" lat="45.462693628" lon="-122.70800607" visible="true"><tag k="addr:housenumber" v="3008"/><tag k="addr:postcode" v="97219"/><tag k="addr:city" v="Portland"/><tag k="addr:street" v="Southwest Spring Garden Street"/></node>
<node id="-77" lat="45.458335662" lon="-122.706648888" visible="true"><tag k="addr:housenumber" v="2839"/><tag k="addr:postcode" v="97219"/><tag k="addr:city" v="Portland"/><tag k="addr:street" v="Southwest Taylors Ferry Road"/></node>
</osm>