<?xml version="1.0"?>
<osm version="0.6" upload="false" generator="uvmogr2osm">
<node id="-1" lat="45.488503828" lon="-122.675314933" visible="true"><tag k="addr:housenumber" v="3011"/><tag k="addr:postcode" v="97230"/><tag k="addr:city" v="Portland"/><tag k="addr:street" v="Northeast 149th Avenue"/></node>
<node id="-2" lat="45.464764878" lon="-122.661311581" visible="true"><tag k="addr:housenumber" v="8065"/><tag k="addr:postcode" v="97202"/><tag k="addr:city" v="Portland"/><tag k="addr:street" v="Southeast 6th Avenue"/></node>
<node id="-3" lat="45.464771268" lon="-122.661327769" visible="true"><tag k="addr:housenumber" v="8055"/><tag k="addr:postcode" v="97202"/><tag k="addr:city" v="Portland"/><tag k="addr:street" v="Southeast Grand Avenue"/></node>
<node id="-4" lat="45.464767" lon="-122.661313462" visible="true"><tag k="addr:housenumber" v="8065"/><tag k="addr:postcode" v="97202"/><tag k="addr:city" v="Portland"/><tag k="addr:street" v="Southeast Grand Avenue"/></node>
<node id="-5" lat="45.474384374" lon="-122.662333756" visible="true"><tag k="addr:housenumber" v="6901"/><tag k="addr:postcode" v="97202"/><tag k="addr:city" v="Portland"/><tag k="addr:street" v="Southeast Oaks Park Way"/></node>
<node id="-6" lat="45.474385179" lon="-122.662324275" visible="true"><tag k="addr:housenumber" v="333"/><tag k="addr:postcode" v="97202"/><tag k="addr:city" v="Portland"/><tag k="addr:street" v="Southeast Spokane Street"/></node>
<node id="-7" lat="45.497521357" lon="-122.678770811" visible="true"><tag k="addr:housenumber" v="3522"/><tag k="addr:postcode" v="97239"/><tag k="addr:city" v="Portland"/><tag k="addr:street" v="Southwest 1st Avenue"/></node>
<node id="-8" lat="45.497522866" lon="-122.678775608" visible="true"><tag k="addr:housenumber" v="3524"/><tag k="addr:postcode" v="97239"/><tag k="addr:city" v="Portland"/><tag k="addr:street" v="Southwest 1st Avenue"/></node>
<node id="-9" lat="45.48913563" lon="-122.678320132" visible="true"><tag k="addr:housenumber" v="4704"/><tag k="addr:postcode" v="97239"/><tag k="addr:city" v="Portland"/><tag k="addr:street" v="Southwest 1st Avenue"/></node>
<node id="-10" lat="45.489067039" lon="-122.679054302" visible="true"><tag k="addr:housenumber" v="4707"/><tag k="addr:postcode" v="97239"/><tag k="addr:city" v="Portland"/><tag k="addr:street" v="Southwest 1st Avenue"/></node>
<node id="-11" lat="45.489074246" lon="-122.6790577" visible="true"><tag k="addr:housenumber" v="4715"/><tag k="addr:postcode" v="97239"/><tag k="addr:city" v="Portland"/><tag k="addr:street" v="Southwest 1st Avenue"/></node>
<node id="-12" lat="45.489133132" lon="-122.678322179" visible="true"><tag k="addr:housenumber" v="4716"/><tag k="addr:postcode" v="97239"/><tag k="addr:city" v="Portland"/><tag k="addr:street" v="Southwest 1st Avenue"/></node>
<node id="-13" lat="45.488922176" lon="-122.679066048" visible="true"><tag k="addr:housenumber" v="4723"/><tag k="addr:postcode" v="97239"/><tag k="addr:city" v="Portland"/><tag k="addr:street" v="Southwest 1st Avenue"/></node>
<node id="-14" lat="45.488901447" lon="-122.678440312" visible="true"><tag k="addr:housenumber" v="4726"/><tag k="addr:postcode" v="97239"/><tag k="addr:city" v="Portland"/><tag k="addr:street" v="Southwest 1st Avenue"/></node>
<node id="-15" lat="45.488914282" lon="-122.679061517" visible="true"><tag k="addr:housenumber" v="4727"/><tag k="addr:postcode" v="97239"/><tag k="addr:city" v="Portland"/><tag k="addr:street" v="Southwest 1st Avenue"/></node>
<node id="-16" lat="45.488905184" lon="-122.678443195" visible="true"><tag k="addr:housenumber" v="4730"/><tag k="addr:postcode" v="97239"/><tag k="addr:city" v="Portland"/><tag k="addr:street" v="Southwest 1st Avenue"/></node>
<node id="-17" lat="45.488784969" lon="-122.679065961" visible="true"><tag k="addr:housenumber" v="4731"/><tag k="addr:postcode" v="97239"/><tag k="addr:city" v="Portland"/><tag k="addr:street" v="Southwest 1st Avenue"/></node>
<node id="-18" lat="45.488778396" lon="-122.679069222" visible="true"><tag k="addr:housenumber" v="4733"/><tag k="addr:postcode" v="97239"/><tag k="addr:city" v="Portland"/><tag k="addr:street" v="Southwest 1st Avenue"/></node>
<node id="-19" lat="45.488765492" lon="-122.678437579" visible="true"><tag k="addr:housenumber" v="4734"/><tag k="addr:postcode" v="97239"/><tag k="addr:city" v="Portland"/><tag k="addr:street" v="Southwest 1st Avenue"/></node>
<node id="-20" lat="45.488784264" lon="-122.679066877" visible="true"><tag k="addr:housenumber" v="4735"/><tag k="addr:postcode" v="97239"/><tag k="addr:city" v="Portland"/><tag k="addr:street" v="Southwest 1st Avenue"/></node>
<node id="-21" lat="45.488769309" lon="-122.678445671" visible="true"><tag k="addr:housenumber" v="4738"/><tag k="addr:postcode" v="97239"/><tag k="addr:city" v="Portland"/><tag k="addr:street" v="Southwest 1st Avenue"/></node>
<node id="-22" lat="45.488639614" lon="-122.67906755" visible="true"><tag k="addr:housenumber" v="4747"/><tag k="addr:postcode" v="97239"/><tag k="addr:city" v="Portland"/><tag k="addr:street" v="Southwest 1st Avenue"/></node>
<node id="-23" lat="45.488641113" lon="-122.679071729" visible="true"><tag k="addr:housenumber" v="4749"/><tag k="addr:postcode" v="97239"/><tag k="addr:city" v="Portland"/><tag k="addr:street" v="Southwest 1st Avenue"/></node>
<node id="-24" lat="45.488493622" lon="-122.678448874" visible="true"><tag k="addr:housenumber" v="4800"/><tag k="addr:postcode" v="97239"/><tag k="addr:city" v="Portland"/><tag k="addr:street" v="Southwest 1st Avenue"/></node>
<node id="-25" lat="45.488496532" lon="-122.678449542" visible="true"><tag k="addr:housenumber" v="4804"/><tag k="addr:postcode" v="97239"/><tag k="addr:city" v="Portland"/><tag k="addr:street" v="Southwest 1st Avenue"/></node>
<node id="-26" lat="45.48652116" lon="-122.678590985" visible="true"><tag k="addr:housenumber" v="5108"/><tag k="addr:postcode" v="97239"/><tag k="addr:city" v="Portland"/><tag k="addr:street" v="Southwest 1st Avenue"/></node>
<node id="-27" lat="45.486519225" lon="-122.67858712" visible="true"><tag k="addr:housenumber" v="5112"/><tag k="addr:postcode" v="97239"/><tag k="addr:city" v="Portland"/><tag k="addr:street" v="Southwest 1st Avenue"/></node>
<node id="-28" lat="45.48853265" lon="-122.679672183" visible="true"><tag k="addr:housenumber" v="4745"/><tag k="addr:postcode" v="97239"/><tag k="addr:city" v="Portland"/><tag k="addr:street" v="Southwest 2nd Avenue"/></node>
<node id="-29" lat="45.488532208" lon="-122.679673014" visible="true"><tag k="addr:housenumber" v="4749"/><tag k="addr:postcode" v="97239"/><tag k="addr:city" v="Portland"/><tag k="addr:street" v="Southwest 2nd Avenue"/></node>
<node id="-30" lat="45.488527054" lon="-122.679674082" visible="true"><tag k="addr:housenumber" v="4745"/><tag k="addr:postcode" v="97239"/><tag k="addr:city" v="Portland"/><tag k="addr:street" v="Southwest 2nd Court"/></node>
<node id="-31" lat="45.488527603" lon="-122.679674009" visible="true"><tag k="addr:housenumber" v="4749"/><tag k="addr:postcode" v="97239"/><tag k="addr:city" v="Portland"/><tag k="addr:street" v="Southwest 2nd Court"/></node>
<node id="-32" lat="45.495361215" lon="-122.671407937" visible="true"><tag k="addr:housenumber" v="0601"/><tag k="addr:postcode" v="97239"/><tag k="addr:city" v="Portland"/><tag k="addr:street" v="Southwest Abernethy Street"/></node>
<node id="-33" lat="45.49252767" lon="-122.676530328" visible="true"><tag k="addr:housenumber" v="0119"/><tag k="addr:postcode" v="97239"/><tag k="addr:city" v="Portland"/><tag k="addr:street" v="Southwest Bancroft Street"/></node>
<node id="-34" lat="45.492534534" lon="-122.676530103" visible="true"><tag k="addr:housenumber" v="0121"/><tag k="addr:postcode" v="97239"/><tag k="addr:city" v="Portland"/><tag k="addr:street" v="Southwest Bancroft Street"/></node>
<node id="-35" lat="45.491928898" lon="-122.67508905" visible="true"><tag k="addr:housenumber" v="0218"/><tag k="addr:postcode" v="97239"/><tag k="addr:city" v="Portland"/><tag k="addr:street" v="Southwest Bancroft Street"/></node>
<node id="-36" lat="45.491933809" lon="-122.675087684" visible="true"><tag k="addr:housenumber" v="0234"/><tag k="addr:postcode" v="97239"/><tag k="addr:city" v="Portland"/><tag k="addr:street" v="Southwest Bancroft Street"/></node>
<node id="-37" lat="45.492598581" lon="-122.67157616" visible="true"><tag k="addr:housenumber" v="0640"/><tag k="addr:postcode" v="97239"/><tag k="addr:city" v="Portland"/><tag k="addr:street" v="Southwest Bancroft Street"/></node>
<node id="-38" lat="45.492595741" lon="-122.671576176" visible="true"><tag k="addr:housenumber" v="0680"/><tag k="addr:postcode" v="97239"/><tag k="addr:city" v="Portland"/><tag k="addr:street" v="Southwest Bancroft Street"/></node>
<node id="-39" lat="45.492606826" lon="-122.678226635" visible="true"><tag k="addr:housenumber" v="13"/><tag k="addr:postcode" v="97239"/><tag k="addr:city" v="Portland"/><tag k="addr:street" v="Southwest Bancroft Street"/></node>
<node id="-40" lat="45.492605385" lon="-122.678220795" visible="true"><tag k="addr:housenumber" v="15"/><tag k="addr:postcode" v="97239"/><tag k="addr:city" v="Portland"/><tag k="addr:street" v="Southwest Bancroft Street"/></node>
<node id="-41" lat="45.493268409" lon="-122.676495258" visible="true"><tag k="addr:housenumber" v="4132"/><tag k="addr:postcode" v="97239"/><tag k="addr:city" v="Portland"/><tag k="addr:street" v="Southwest Barbur Boulevard"/></node>
<node id="-42" lat="45.495366085" lon="-122.671408606" visible="true"><tag k="addr:housenumber" v="3835"/><tag k="addr:postcode" v="97239"/><tag k="addr:city" v="Portland"/><tag k="addr:street" v="Southwest Bond Avenue"/></node>
<node id="-43" lat="45.495362895" lon="-122.671405274" visible="true"><tag k="addr:housenumber" v="3855"/><tag k="addr:postcode" v="97239"/><tag k="addr:city" v="Portland"/><tag k="addr:street" v="Southwest Bond Avenue"/></node>
<node id="-44" lat="45.495360994" lon="-122.671408854" visible="true"><tag k="addr:housenumber" v="3875"/><tag k="addr:postcode" v="97239"/><tag k="addr:city" v="Portland"/><tag k="addr:street" v="Southwest Bond Avenue"/></node>
<node id="-45" lat="45.484850055" lon="-122.677585141" visible="true"><tag k="addr:housenumber" v="010"/><tag k="addr:postcode" v="97239"/><tag k="addr:city" v="Portland"/><tag k="addr:street" v="Southwest Boundary Street"/></node>
<node id="-46" lat="45.484854771" lon="-122.677581599" visible="true"><tag k="addr:housenumber" v="012"/><tag k="addr:postcode" v="97239"/><tag k="addr:city" v="Portland"/><tag k="addr:street" v="Southwest Boundary Street"/></node>
<node id="-47" lat="45.485415152" lon="-122.677078151" visible="true"><tag k="addr:housenumber" v="055"/><tag k="addr:postcode" v="97239"/><tag k="addr:city" v="Portland"/><tag k="addr:street" v="Southwest Boundary Street"/></node>
<node id="-48" lat="45.484852154" lon="-122.677583973" visible="true"><tag k="addr:housenumber" v="08"/><tag k="addr:postcode" v="97239"/><tag k="addr:city" v="Portland"/><tag k="addr:street" v="Southwest Boundary Street"/></node>
<node id="-49" lat="45.493693276" lon="-122.679657009" visible="true"><tag k="addr:housenumber" v="4103"/><tag k="addr:postcode" v="97239"/><tag k="addr:city" v="Portland"/><tag k="addr:street" v="Southwest Condor Avenue"/></node>
<node id="-50" lat="45.493688104" lon="-122.679657667" visible="true"><tag k="addr:housenumber" v="4105"/><tag k="addr:postcode" v="97239"/><tag k="addr:city" v="Portland"/><tag k="addr:street" v="Southwest Condor Avenue"/></node>
<node id="-51" lat="45.489873551" lon="-122.679053437" visible="true"><tag k="addr:housenumber" v="4620"/><tag k="addr:postcode" v="97239"/><tag k="addr:city" v="Portland"/><tag k="addr:street" v="Southwest Condor Avenue"/></node>
<node id="-52" lat="45.489880198" lon="-122.679053854" visible="true"><tag k="addr:housenumber" v="4622"/><tag k="addr:postcode" v="97239"/><tag k="addr:city" v="Portland"/><tag k="addr:street" v="Southwest Condor Avenue"/></node>
<node id="-53" lat="45.489872727" lon="-122.679058028" visible="true"><tag k="addr:housenumber" v="4626"/><tag k="addr:postcode" v="97239"/><tag k="addr:city" v="Portland"/><tag k="addr:street" v="Southwest Condor Avenue"/></node>
<node id="-54" lat="45.489872746" lon="-122.679060889" visible="true"><tag k="addr:housenumber" v="4628"/><tag k="addr:postcode" v="97239"/><tag k="addr:city" v="Portland"/><tag k="addr:street" v="Southwest Condor Avenue"/></node>
<node id="-55" lat="45.489876992" lon="-122.679060919" visible="true"><tag k="addr:housenumber" v="4630"/><tag k="addr:postcode" v="97239"/><tag k="addr:city" v="Portland"/><tag k="addr:street" v="Southwest Condor Avenue"/></node>
<node id="-56" lat="45.489487004" lon="-122.679007066" visible="true"><tag k="addr:housenumber" v="4636"/><tag k="addr:postcode" v="97239"/><tag k="addr:city" v="Portland"/><tag k="addr:street" v="Southwest Condor Avenue"/></node>
<node id="-57" lat="45.489592652" lon="-122.678961419" visible="true"><tag k="addr:housenumber" v="4640"/><tag k="addr:postcode" v="97239"/><tag k="addr:city" v="Portland"/><tag k="addr:street" v="Southwest Condor Avenue"/></node>
<node id="-58" lat="45.489597888" lon="-122.678962264" visible="true"><tag k="addr:housenumber" v="4642"/><tag k="addr:postcode" v="97239"/><tag k="addr:city" v="Portland"/><tag k="addr:street" v="Southwest Condor Avenue"/></node>
<node id="-59" lat="45.48960123" lon="-122.678968508" visible="true"><tag k="addr:housenumber" v="4644"/><tag k="addr:postcode" v="97239"/><tag k="addr:city" v="Portland"/><tag k="addr:street" v="Southwest Condor Avenue"/></node>
<node id="-60" lat="45.489594901" lon="-122.678969925" visible="true"><tag k="addr:housenumber" v="4646"/><tag k="addr:postcode" v="97239"/><tag k="addr:city" v="Portland"/><tag k="addr:street" v="Southwest Condor Avenue"/></node>
<node id="-61" lat="45.489598142" lon="-122.678969942" visible="true"><tag k="addr:housenumber" v="4648"/><tag k="addr:postcode" v="97239"/><tag k="addr:city" v="Portland"/><tag k="addr:street" v="Southwest Condor Avenue"/></node>
<node id="-62" lat="45.489594806" lon="-122.678962647" visible="true"><tag k="addr:housenumber" v="4650"/><tag k="addr:postcode" v="97239"/><tag k="addr:city" v="Portland"/><tag k="addr:street" v="Southwest Condor Avenue"/></node>
<node id="-63" lat="45.489598658" lon="-122.678962236" visible="true"><tag k="addr:housenumber" v="4652"/><tag k="addr:postcode" v="97239"/><tag k="addr:city" v="Portland"/><tag k="addr:street" v="Southwest Condor Avenue"/></node>
<node id="-64" lat="45.489600871" lon="-122.678968331" visible="true"><tag k="addr:housenumber" v="4654"/><tag k="addr:postcode" v="97239"/><tag k="addr:city" v="Portland"/><tag k="addr:street" v="Southwest Condor Avenue"/></node>
<node id="-65" lat="45.489598724" lon="-122.678961238" visible="true"><tag k="addr:housenumber" v="4658"/><tag k="addr:postcode" v="97239"/><tag k="addr:city" v="Portland"/><tag k="addr:street" v="Southwest Condor Avenue"/></node>
<node id="-66" lat="45.497085028" lon="-122.676225617" visible="true"><tag k="addr:housenumber" v="3605"/><tag k="addr:postcode" v="97239"/><tag k="addr:city" v="Portland"/><tag k="addr:street" v="Southwest Corbett Avenue"/></node>
<node id="-67" lat="45.493272498" lon="-122.676502048" visible="true"><tag k="addr:housenumber" v="4133"/><tag k="addr:postcode" v="97239"/><tag k="addr:city" v="Portland"/><tag k="addr:street" v="Southwest Corbett Avenue"/></node>
<node id="-68" lat="45.492880881" lon="-122.67649951" visible="true"><tag k="addr:housenumber" v="4215"/><tag k="addr:postcode" v="97239"/><tag k="addr:city" v="Portland"/><tag k="addr:street" v="Southwest Corbett Avenue"/></node>
<node id="-69" lat="45.49288309" lon="-122.676501696" visible="true"><tag k="addr:housenumber" v="4217"/><tag k="addr:postcode" v="97239"/><tag k="addr:city" v="Portland"/><tag k="addr:street" v="Southwest Corbett Avenue"/></node>
<node id="-70" lat="45.492649264" lon="-122.676519352" visible="true"><tag k="addr:housenumber" v="4231"/><tag k="addr:postcode" v="97239"/><tag k="addr:city" v="Portland"/><tag k="addr:street" v="Southwest Corbett Avenue"/></node>
<node id="-71" lat="45.492528878" lon="-122.676533739" visible="true"><tag k="addr:housenumber" v="4233"/><tag k="addr:postcode" v="97239"/><tag k="addr:city" v="Portland"/><tag k="addr:street" v="Southwest Corbett Avenue"/></node>
<node id="-72" lat="45.492525742" lon="-122.676538414" visible="true"><tag k="addr:housenumber" v="4235"/><tag k="addr:postcode" v="97239"/><tag k="addr:city" v="Portland"/><tag k="addr:street" v="Southwest Corbett Avenue"/></node>
<node id="-73" lat="45.492642917" lon="-122.676516474" visible="true"><tag k="addr:housenumber" v="4237"/><tag k="addr:postcode" v="97239"/><tag k="addr:city" v="Portland"/><tag k="addr:street" v="Southwest Corbett Avenue"/></node>
<node id="-74" lat="45.492531269" lon="-122.676537674" visible="true"><tag k="addr:housenumber" v="4245"/><tag k="addr:postcode" v="97239"/><tag k="addr:city" v="Portland"/><tag k="addr:street" v="Southwest Corbett Avenue"/></node>
<node id="-75" lat="45.49253433" lon="-122.676536594" visible="true"><tag k="addr:housenumber" v="4247"/><tag k="addr:postcode" v="97239"/><tag k="addr:city" v="Portland"/><tag k="addr:street" v="Southwest Corbett Avenue"/></node>
<node id="-76" lat="45.491062733" lon="-122.675987544" visible="true"><tag k="addr:housenumber" v="4438"/><tag k="addr:postcode" v="97239"/><tag k="addr:city" v="Portland"/><tag k="addr:street" v="Southwest Corbett Avenue"/></node>
<node id="-77" lat="45.491063421" lon="-122.675986298" visible="true"><tag k="addr:housenumber" v="4444"/><tag k="addr:postcode" v="97239"/><tag k="addr:city" v="Portland"/><tag k="addr:street" v="Southwest Corbett Avenue"/></node>
<node id="-78" lat="45.48970453" lon="-122.676538526" visible="true"><tag k="addr:housenumber" v="4651"/><tag k="addr:postcode" v="97239"/><tag k="addr:city" v="Portland"/><tag k="addr:street" v="Southwest Corbett Avenue"/></node>
<node id="-79" lat="45.489698584" lon="-122.676534658" visible="true"><tag k="addr:housenumber" v="4653"/><tag k="addr:postcode" v="97239"/><tag k="addr:city" v="Portland"/><tag k="addr:street" v="Southwest Corbett Avenue"/></node>
<node id="-80" lat="45.485394783" lon="-122.676266207" visible="true"><tag k="addr:housenumber" v="5210"/><tag k="addr:postcode" v="97239"/><tag k="addr:city" v="Portland"/><tag k="addr:street" v="Southwest Corbett Avenue"/></node>
<node id="-81" lat="45.48540953" lon="-122.677082441" visible="true"><tag k="addr:housenumber" v="5221"/><tag k="addr:postcode" v="97239"/><tag k="addr:city" v="Portland"/><tag k="addr:street" v="Southwest Corbett Avenue"/></node>
<node id="-82" lat="45.483711918" lon="-122.677109295" visible="true"><tag k="addr:housenumber" v="5503"/><tag k="addr:postcode" v="97239"/><tag k="addr:city" v="Portland"/><tag k="addr:street" v="Southwest Corbett Avenue"/></node>
<node id="-83" lat="45.483707953" lon="-122.677112604" visible="true"><tag k="addr:housenumber" v="5505"/><tag k="addr:postcode" v="97239"/><tag k="addr:city" v="Portland"/><tag k="addr:street" v="Southwest Corbett Avenue"/></node>
<node id="-84" lat="45.483592805" lon="-122.677113299" visible="true"><tag k="addr:housenumber" v="5515"/><tag k="addr:postcode" v="97239"/><tag k="addr:city" v="Portland"/><tag k="addr:street" v="Southwest Corbett Avenue"/></node>
<node id="-85" lat="45.48359308" lon="-122.677115571" visible="true"><tag k="addr:housenumber" v="5517"/><tag k="addr:postcode" v="97239"/><tag k="addr:city" v="Portland"/><tag k="addr:street" v="Southwest Corbett Avenue"/></node>
<node id="-86" lat="45.483470555" lon="-122.677118949" visible="true"><tag k="addr:housenumber" v="5519"/><tag k="addr:postcode" v="97239"/><tag k="addr:city" v="Portland"/><tag k="addr:street" v="Southwest Corbett Avenue"/></node>
<node id="-87" lat="45.483469835" lon="-122.67711634" visible="true"><tag k="addr:housenumber" v="5525"/><tag k="addr:postcode" v="97239"/><tag k="addr:city" v="Portland"/><tag k="addr:street" v="Southwest Corbett Avenue"/></node>
<node id="-88" lat="45.48327397" lon="-122.67642911" visible="true"><tag k="addr:housenumber" v="5532"/><tag k="addr:postcode" v="97239"/><tag k="addr:city" v="Portland"/><tag k="addr:street" v="Southwest Corbett Avenue"/></node>
<node id="-89" lat="45.483266252" lon="-122.676420992" visible="true"><tag k="addr:housenumber" v="5534"/><tag k="addr:postcode" v="97239"/><tag k="addr:city" v="Portland"/><tag k="addr:street" v="Southwest Corbett Avenue"/></node>
<node id="-90" lat="45.483271529" lon="-122.676424041" visible="true"><tag k="addr:housenumber" v="5536"/><tag k="addr:postcode" v="97239"/><tag k="addr:city" v="Portland"/><tag k="addr:street" v="Southwest Corbett Avenue"/></node>
<node id="-91" lat="45.483272664" lon="-122.676427117" visible="true"><tag k="addr:housenumber" v="5538"/><tag k="addr:postcode" v="97239"/><tag k="addr:city" v="Portland"/><tag k="addr:street" v="Southwest Corbett Avenue"/></node>
<node id="-92" lat="45.481902827" lon="-122.676513289" visible="true"><tag k="addr:housenumber" v="5738"/><tag k="addr:postcode" v="97239"/><tag k="addr:city" v="Portland"/><tag k="addr:street" v="Southwest Corbett Avenue"/></node>
<node id="-93" lat="45.481900616" lon="-122.67651511" visible="true"><tag k="addr:housenumber" v="5742"/><tag k="addr:postcode" v="97239"/><tag k="addr:city" v="Portland"/><tag k="addr:street" v="Southwest Corbett Avenue"/></node>
<node id="-94" lat="45.482655751" lon="-122.675195945" visible="true"><tag k="addr:housenumber" v="0317"/><tag k="addr:postcode" v="97239"/><tag k="addr:city" v="Portland"/><tag k="addr:street" v="Southwest Flower Street"/></node>
<node id="-95" lat="45.482653629" lon="-122.675203996" visible="true"><tag k="addr:housenumber" v="0323"/><tag k="addr:postcode" v="97239"/><tag k="addr:city" v="Portland"/><tag k="addr:street" v="Southwest Flower Street"/></node>
<node id="-96" lat="45.496296142" lon="-122.67434669" visible="true"><tag k="addr:housenumber" v="0320"/><tag k="addr:postcode" v="97239"/><tag k="addr:city" v="Portland"/><tag k="addr:street" v="Southwest Gaines Street"/></node>
<node id="-97" lat="45.49629942" lon="-122.674351574" visible="true"><tag k="addr:housenumber" v="0322"/><tag k="addr:postcode" v="97239"/><tag k="addr:city" v="Portland"/><tag k="addr:street" v="Southwest Gaines Street"/></node>
<node id="-98" lat="45.496299946" lon="-122.674348839" visible="true"><tag k="addr:housenumber" v="0324"/><tag k="addr:postcode" v="97239"/><tag k="addr:city" v="Portland"/><tag k="addr:street" v="Southwest Gaines Street"/></node>
<node id="-99" lat="45.489831554" lon="-122.678457678" visible="true"><tag k="addr:housenumber" v="22"/><tag k="addr:postcode" v="97239"/><tag k="addr:city" v="Portland"/><tag k="addr:street" v="Southwest Hamilton Court"/></node>
<node id="-100" lat="45.489838185" lon="-122.678457565" visible="true"><tag k="addr:housenumber" v="24"/><tag k="addr:postcode" v="97239"/><tag k="addr:city" v="Portland"/><tag k="addr:street" v="Southwest Hamilton Court"/></node>
<node id="-101" lat="45.490090098" lon="-122.678439774" visible="true"><tag k="addr:housenumber" v="25"/><tag k="addr:postcode" v="97239"/><tag k="addr:city" v="Portland"/><tag k="addr:street" v="Southwest Hamilton Court"/></node>
<node id="-102" lat="45.489839287" lon="-122.678462282" visible="true"><tag k="addr:housenumber" v="26"/><tag k="addr:postcode" v="97239"/><tag k="addr:city" v="Portland"/><tag k="addr:street" v="Southwest Hamilton Court"/></node>
<node id="-103" lat="45.49009015" lon="-122.678432333" visible="true"><tag k="addr:housenumber" v="27"/><tag k="addr:postcode" v="97239"/><tag k="addr:city" v="Portland"/><tag k="addr:street" v="Southwest Hamilton Court"/></node>
<node id="-104" lat="45.48983391" lon="-122.678466777" visible="true"><tag k="addr:housenumber" v="28"/><tag k="addr:postcode" v="97239"/><tag k="addr:city" v="Portland"/><tag k="addr:street" v="Southwest Hamilton Court"/></node>
<node id="-105" lat="45.491104146" lon="-122.675780928" visible="true"><tag k="addr:housenumber" v="0219"/><tag k="addr:postcode" v="97239"/><tag k="addr:city" v="Portland"/><tag k="addr:street" v="Southwest Hamilton Street"/></node>
<node id="-106" lat="45.491108722" lon="-122.675786516" visible="true"><tag k="addr:housenumber" v="0221"/><tag k="addr:postcode" v="97239"/><tag k="addr:city" v="Portland"/><tag k="addr:street" v="Southwest Hamilton Street"/></node>
<node id="-107" lat="45.482970997" lon="-122.674457765" visible="true"><tag k="addr:housenumber" v="5514"/><tag k="addr:postcode" v="97239"/><tag k="addr:city" v="Portland"/><tag k="addr:street" v="Southwest Hood Avenue"/></node>
<node id="-108" lat="45.488269049" lon="-122.675893365" visible="true"><tag k="addr:housenumber" v="0233"/><tag k="addr:postcode" v="97239"/><tag k="addr:city" v="Portland"/><tag k="addr:street" v="Southwest Julia Street"/></node>
<node id="-109" lat="45.488271063" lon="-122.675893782" visible="true"><tag k="addr:housenumber" v="0251"/><tag k="addr:postcode" v="97239"/><tag k="addr:city" v="Portland"/><tag k="addr:street" v="Southwest Julia Street"/></node>
<node id="-110" lat="45.49714826" lon="-122.674591668" visible="true"><tag k="addr:housenumber" v="3602"/><tag k="addr:postcode" v="97239"/><tag k="addr:city" v="Portland"/><tag k="addr:street" v="Southwest Kelly Avenue"/></node>
<node id="-111" lat="45.497147139" lon="-122.674591972" visible="true"><tag k="addr:housenumber" v="3604"/><tag k="addr:postcode" v="97239"/><tag k="addr:city" v="Portland"/><tag k="addr:street" v="Southwest Kelly Avenue"/></node>
<node id="-112" lat="45.497146688" lon="-122.67458932" visible="true"><tag k="addr:housenumber" v="3606"/><tag k="addr:postcode" v="97239"/><tag k="addr:city" v="Portland"/><tag k="addr:street" v="Southwest Kelly Avenue"/></node>
<node id="-113" lat="45.497036772" lon="-122.674594235" visible="true"><tag k="addr:housenumber" v="3608"/><tag k="addr:postcode" v="97239"/><tag k="addr:city" v="Portland"/><tag k="addr:street" v="Southwest Kelly Avenue"/></node>
<node id="-114" lat="45.497039412" lon="-122.674591996" visible="true"><tag k="addr:housenumber" v="3610"/><tag k="addr:postcode" v="97239"/><tag k="addr:city" v="Portland"/><tag k="addr:street" v="Southwest Kelly Avenue"/></node>
<node id="-115" lat="45.49703597" lon="-122.674592437" visible="true"><tag k="addr:housenumber" v="3612"/><tag k="addr:postcode" v="97239"/><tag k="addr:city" v="Portland"/><tag k="addr:street" v="Southwest Kelly Avenue"/></node>
<node id="-116" lat="45.496784417" lon="-122.674604163" visible="true"><tag k="addr:housenumber" v="3620"/><tag k="addr:postcode" v="97239"/><tag k="addr:city" v="Portland"/><tag k="addr:street" v="Southwest Kelly Avenue"/></node>
<node id="-117" lat="45.496786867" lon="-122.674602281" visible="true"><tag k="addr:housenumber" v="3622"/><tag k="addr:postcode" v="97239"/><tag k="addr:city" v="Portland"/><tag k="addr:street" v="Southwest Kelly Avenue"/></node>
<node id="-118" lat="45.49678746" lon="-122.674604841" visible="true"><tag k="addr:housenumber" v="3626"/><tag k="addr:postcode" v="97239"/><tag k="addr:city" v="Portland"/><tag k="addr:street" v="Southwest Kelly Avenue"/></node>
<node id="-119" lat="45.494513132" lon="-122.675304374" visible="true"><tag k="addr:housenumber" v="3933"/><tag k="addr:postcode" v="97239"/><tag k="addr:city" v="Portland"/><tag k="addr:street" v="Southwest Kelly Avenue"/></node>
<node id="-120" lat="45.494511322" lon="-122.675306361" visible="true"><tag k="addr:housenumber" v="3935"/><tag k="addr:postcode" v="97239"/><tag k="addr:city" v="Portland"/><tag k="addr:street" v="Southwest Kelly Avenue"/></node>
<node id="-121" lat="45.490273833" lon="-122.674412586" visible="true"><tag k="addr:housenumber" v="4540"/><tag k="addr:postcode" v="97239"/><tag k="addr:city" v="Portland"/><tag k="addr:street" v="Southwest Kelly Avenue"/></node>
<node id="-122" lat="45.490274806" lon="-122.674404107" visible="true"><tag k="addr:housenumber" v="4602"/><tag k="addr:postcode" v="97239"/><tag k="addr:city" v="Portland"/><tag k="addr:street" v="Southwest Kelly Avenue"/></node>
<node id="-123" lat="45.48332834" lon="-122.676103735" visible="true"><tag k="addr:housenumber" v="5531"/><tag k="addr:postcode" v="97239"/><tag k="addr:city" v="Portland"/><tag k="addr:street" v="Southwest Kelly Avenue"/></node>
<node id="-124" lat="45.483336499" lon="-122.676102198" visible="true"><tag k="addr:housenumber" v="5533"/><tag k="addr:postcode" v="97239"/><tag k="addr:city" v="Portland"/><tag k="addr:street" v="Southwest Kelly Avenue"/></node>
<node id="-125" lat="45.482990023" lon="-122.675309403" visible="true"><tag k="addr:housenumber" v="5620"/><tag k="addr:postcode" v="97239"/><tag k="addr:city" v="Portland"/><tag k="addr:street" v="Southwest Kelly Avenue"/></node>
<node id="-126" lat="45.482985615" lon="-122.675304176" visible="true"><tag k="addr:housenumber" v="5622"/><tag k="addr:postcode" v="97239"/><tag k="addr:city" v="Portland"/><tag k="addr:street" v="Southwest Kelly Avenue"/></node>
<node id="-127" lat="45.482648134" lon="-122.676117205" visible="true"><tag k="addr:housenumber" v="5635"/><tag k="addr:postcode" v="97239"/><tag k="addr:city" v="Portland"/><tag k="addr:street" v="Southwest Kelly Avenue"/></node>
<node id="-128" lat="45.482651233" lon="-122.676112216" visible="true"><tag k="addr:housenumber" v="5637"/><tag k="addr:postcode" v="97239"/><tag k="addr:city" v="Portland"/><tag k="addr:street" v="Southwest Kelly Avenue"/></node>
<node id="-129" lat="45.487905001" lon="-122.674694575" visible="true"><tag k="addr:housenumber" v="4949"/><tag k="addr:postcode" v="97239"/><tag k="addr:city" v="Portland"/><tag k="addr:street" v="Southwest Landing Drive"/></node>
<node id="-130" lat="45.487910808" lon="-122.674691037" visible="true"><tag k="addr:housenumber" v="4959"/><tag k="addr:postcode" v="97239"/><tag k="addr:city" v="Portland"/><tag k="addr:street" v="Southwest Landing Drive"/></node>
<node id="-131" lat="45.493784075" lon="-122.67161158" visible="true"><tag k="addr:housenumber" v="0630"/><tag k="addr:postcode" v="97239"/><tag k="addr:city" v="Portland"/><tag k="addr:street" v="Southwest Lowell Street"/></node>
<node id="-132" lat="45.489043074" lon="-122.672038202" visible="true"><tag k="addr:housenumber" v="4640"/><tag k="addr:postcode" v="97239"/><tag k="addr:city" v="Portland"/><tag k="addr:street" v="Southwest Macadam Avenue"/></node>
<node id="-133" lat="45.488508399" lon="-122.675318193" visible="true"><tag k="addr:housenumber" v="4815"/><tag k="addr:postcode" v="97239"/><tag k="addr:city" v="Portland"/><tag k="addr:street" v="Southwest Macadam Avenue"/></node>
<node id="-134" lat="45.487908627" lon="-122.674693966" visible="true"><tag k="addr:housenumber" v="4848"/><tag k="addr:postcode" v="97239"/><tag k="addr:city" v="Portland"/><tag k="addr:street" v="Southwest Macadam Avenue"/></node>
<node id="-135" lat="45.489038313" lon="-122.672038717" visible="true"><tag k="addr:housenumber" v="4850"/><tag k="addr:postcode" v="97239"/><tag k="addr:city" v="Portland"/><tag k="addr:street" v="Southwest Macadam Avenue"/></node>
<node id="-136" lat="45.487631448" lon="-122.675802022" visible="true"><tag k="addr:housenumber" v="4941"/><tag k="addr:postcode" v="97239"/><tag k="addr:city" v="Portland"/><tag k="addr:street" v="Southwest Macadam Avenue"/></node>
<node id="-137" lat="45.487631685" lon="-122.67579442" visible="true"><tag k="addr:housenumber" v="4949"/><tag k="addr:postcode" v="97239"/><tag k="addr:city" v="Portland"/><tag k="addr:street" v="Southwest Macadam Avenue"/></node>
<node id="-138" lat="45.486095268" lon="-122.676118491" visible="true"><tag k="addr:housenumber" v="5117"/><tag k="addr:postcode" v="97239"/><tag k="addr:city" v="Portland"/><tag k="addr:street" v="Southwest Macadam Avenue"/></node>
<node id="-139" lat="45.486093423" lon="-122.676125297" visible="true"><tag k="addr:housenumber" v="5119"/><tag k="addr:postcode" v="97239"/><tag k="addr:city" v="Portland"/><tag k="addr:street" v="Southwest Macadam Avenue"/></node>
<node id="-140" lat="45.486094856" lon="-122.676119477" visible="true"><tag k="addr:housenumber" v="5121"/><tag k="addr:postcode" v="97239"/><tag k="addr:city" v="Portland"/><tag k="addr:street" v="Southwest Macadam Avenue"/></node>
<node id="-141" lat="45.486090455" lon="-122.676124571" visible="true"><tag k="addr:housenumber" v="5123"/><tag k="addr:postcode" v="97239"/><tag k="addr:city" v="Portland"/><tag k="addr:street" v="Southwest Macadam Avenue"/></node>
<node id="-142" lat="45.486087422" lon="-122.676124112" visible="true"><tag k="addr:housenumber" v="5129"/><tag k="addr:postcode" v="97239"/><tag k="addr:city" v="Portland"/><tag k="addr:street" v="Southwest Macadam Avenue"/></node>
<node id="-143" lat="45.486086808" lon="-122.676118013" visible="true"><tag k="addr:housenumber" v="5131"/><tag k="addr:postcode" v="97239"/><tag k="addr:city" v="Portland"/><tag k="addr:street" v="Southwest Macadam Avenue"/></node>
<node id="-144" lat="45.484079763" lon="-122.675045381" visible="true"><tag k="addr:housenumber" v="5441"/><tag k="addr:postcode" v="97239"/><tag k="addr:city" v="Portland"/><tag k="addr:street" v="Southwest Macadam Avenue"/></node>
<node id="-145" lat="45.482978941" lon="-122.674463037" visible="true"><tag k="addr:housenumber" v="5615"/><tag k="addr:postcode" v="97239"/><tag k="addr:city" v="Portland"/><tag k="addr:street" v="Southwest Macadam Avenue"/></node>
<node id="-146" lat="45.485398839" lon="-122.676265921" visible="true"><tag k="addr:housenumber" v="0238"/><tag k="addr:postcode" v="97239"/><tag k="addr:city" v="Portland"/><tag k="addr:street" v="Southwest Mitchell Street"/></node>
<node id="-147" lat="45.485920407" lon="-122.67746864" visible="true"><tag k="addr:housenumber" v="05"/><tag k="addr:postcode" v="97239"/><tag k="addr:city" v="Portland"/><tag k="addr:street" v="Southwest Mitchell Street"/></node>
<node id="-148" lat="45.485926999" lon="-122.677462362" visible="true"><tag k="addr:housenumber" v="07"/><tag k="addr:postcode" v="97239"/><tag k="addr:city" v="Portland"/><tag k="addr:street" v="Southwest Mitchell Street"/></node>
<node id="-149" lat="45.495363339" lon="-122.671406872" visible="true"><tag k="addr:housenumber" v="3850"/><tag k="addr:postcode" v="97239"/><tag k="addr:city" v="Portland"/><tag k="addr:street" v="Southwest Moody Avenue"/></node>
<node id="-150" lat="45.493313946" lon="-122.671752472" visible="true"><tag k="addr:housenumber" v="4120"/><tag k="addr:postcode" v="97239"/><tag k="addr:city" v="Portland"/><tag k="addr:street" v="Southwest Moody Avenue"/></node>
<node id="-151" lat="45.497077343" lon="-122.676230519" visible="true"><tag k="addr:housenumber" v="0112"/><tag k="addr:postcode" v="97239"/><tag k="addr:city" v="Portland"/><tag k="addr:street" v="Southwest Pennoyer Street"/></node>
<node id="-152" lat="45.497082263" lon="-122.67622977" visible="true"><tag k="addr:housenumber" v="0130"/><tag k="addr:postcode" v="97239"/><tag k="addr:city" v="Portland"/><tag k="addr:street" v="Southwest Pennoyer Street"/></node>
<node id="-153" lat="45.48734122" lon="-122.677058354" visible="true"><tag k="addr:housenumber" v="033"/><tag k="addr:postcode" v="97239"/><tag k="addr:city" v="Portland"/><tag k="addr:street" v="Southwest Richardson Street"/></node>
<node id="-154" lat="45.487345678" lon="-122.677056687" visible="true"><tag k="addr:housenumber" v="035"/><tag k="addr:postcode" v="97239"/><tag k="addr:city" v="Portland"/><tag k="addr:street" v="Southwest Richardson Street"/></node>
<node id="-155" lat="45.487343958" lon="-122.677056497" visible="true"><tag k="addr:housenumber" v="037"/><tag k="addr:postcode" v="97239"/><tag k="addr:city" v="Portland"/><tag k="addr:street" v="Southwest Richardson Street"/></node>
<node id="-156" lat="45.487347845" lon="-122.677055727" visible="true"><tag k="addr:housenumber" v="039"/><tag k="addr:postcode" v="97239"/><tag k="addr:city" v="Portland"/><tag k="addr:street" v="Southwest Richardson Street"/></node>
<node id="-157" lat="45.488137388" lon="-122.680425098" visible="true"><tag k="addr:housenumber" v="4880"/><tag k="addr:postcode" v="97239"/><tag k="addr:city" v="Portland"/><tag k="addr:street" v="Southwest Slavin Road"/></node>
<node id="-158" lat="45.488135026" lon="-122.680421883" visible="true"><tag k="addr:housenumber" v="4882"/><tag k="addr:postcode" v="97239"/><tag k="addr:city" v="Portland"/><tag k="addr:street" v="Southwest Slavin Road"/></node>
<node id="-159" lat="45.48813879" lon="-122.680416635" visible="true"><tag k="addr:housenumber" v="4884"/><tag k="addr:postcode" v="97239"/><tag k="addr:city" v="Portland"/><tag k="addr:street" v="Southwest Slavin Road"/></node>
<node id="-160" lat="45.487962888" lon="-122.680242004" visible="true"><tag k="addr:housenumber" v="4900"/><tag k="addr:postcode" v="97239"/><tag k="addr:city" v="Portland"/><tag k="addr:street" v="Southwest Slavin Road"/></node>
<node id="-161" lat="45.487958112" lon="-122.680243109" visible="true"><tag k="addr:housenumber" v="4902"/><tag k="addr:postcode" v="97239"/><tag k="addr:city" v="Portland"/><tag k="addr:street" v="Southwest Slavin Road"/></node>
<node id="-162" lat="45.484077842" lon="-122.67504459" visible="true"><tag k="addr:housenumber" v="0339"/><tag k="addr:postcode" v="97239"/><tag k="addr:city" v="Portland"/><tag k="addr:street" v="Southwest Sweeney Street"/></node>
<node id="-163" lat="45.494539527" lon="-122.676596316" visible="true"><tag k="addr:housenumber" v="0112"/><tag k="addr:postcode" v="97239"/><tag k="addr:city" v="Portland"/><tag k="addr:street" v="Southwest Thomas Street"/></node>
<node id="-164" lat="45.494540762" lon="-122.676592064" visible="true"><tag k="addr:housenumber" v="0117"/><tag k="addr:postcode" v="97239"/><tag k="addr:city" v="Portland"/><tag k="addr:street" v="Southwest Thomas Street"/></node>
<node id="-165" lat="45.476070246" lon="-122.675301336" visible="true"><tag k="addr:housenumber" v="0321"/><tag k="addr:postcode" v="97239"/><tag k="addr:city" v="Portland"/><tag k="addr:street" v="Southwest Vermont Street"/></node>
<node id="-166" lat="45.476069833" lon="-122.675303258" visible="true"><tag k="addr:housenumber" v="0333"/><tag k="addr:postcode" v="97239"/><tag k="addr:city" v="Portland"/><tag k="addr:street" v="Southwest Vermont Street"/></node>
<node id="-167" lat="45.493690223" lon="-122.678298345" visible="true"><tag k="addr:housenumber" v="4103"/><tag k="addr:postcode" v="97239"/><tag k="addr:city" v="Portland"/><tag k="addr:street" v="Southwest View Point Terrace"/></node>
<node id="-168" lat="45.493689722" lon="-122.678301707" visible="true"><tag k="addr:housenumber" v="4105"/><tag k="addr:postcode" v="97239"/><tag k="addr:city" v="Portland"/><tag k="addr:street" v="Southwest View Point Terrace"/></node>
<node id="-169" lat="45.49331924" lon="-122.677482314" visible="true"><tag k="addr:housenumber" v="4130"/><tag k="addr:postcode" v="97239"/><tag k="addr:city" v="Portland"/><tag k="addr:street" v="Southwest View Point Terrace"/></node>
<node id="-170" lat="45.493318399" lon="-122.677485858" visible="true"><tag k="addr:housenumber" v="4144"/><tag k="addr:postcode" v="97239"/><tag k="addr:city" v="Portland"/><tag k="addr:street" v="Southwest View Point Terrace"/></node>
<node id="-171" lat="45.492941634" lon="-122.677405902" visible="true"><tag k="addr:housenumber" v="4210"/><tag k="addr:postcode" v="97239"/><tag k="addr:city" v="Portland"/><tag k="addr:street" v="Southwest View Point Terrace"/></node>
<node id="-172" lat="45.492944425" lon="-122.67740276" visible="true"><tag k="addr:housenumber" v="4220"/><tag k="addr:postcode" v="97239"/><tag k="addr:city" v="Portland"/><tag k="addr:street" v="Southwest View Point Terrace"/></node>
<node id="-173" lat="45.49277269" lon="-122.678100325" visible="true"><tag k="addr:housenumber" v="4229"/><tag k="addr:postcode" v="97239"/><tag k="addr:city" v="Portland"/><tag k="addr:street" v="Southwest View Point Terrace"/></node>
<node id="-174" lat="45.492943377" lon="-122.677409095" visible="true"><tag k="addr:housenumber" v="4230"/><tag k="addr:postcode" v="97239"/><tag k="addr:city" v="Portland"/><tag k="addr:street" v="Southwest View Point Terrace"/></node>
<node id="-175" lat="45.492780411" lon="-122.678106339" visible="true"><tag k="addr:housenumber" v="4231"/><tag k="addr:postcode" v="97239"/><tag k="addr:city" v="Portland"/><tag k="addr:street" v="Southwest View Point Terrace"/></node>
<node id="-176" lat="45.492604672" lon="-122.678007534" visible="true"><tag k="addr:housenumber" v="4235"/><tag k="addr:postcode" v="97239"/><tag k="addr:city" v="Portland"/><tag k="addr:street" v="Southwest View Point Terrace"/></node>
<node id="-177" lat="45.492555341" lon="-122.677559478" visible="true"><tag k="addr:housenumber" v="4240"/><tag k="addr:postcode" v="97239"/><tag k="addr:city" v="Portland"/><tag k="addr:street" v="Southwest View Point Terrace"/></node>
<node id="-178" lat="45.492554379" lon="-122.677559054" visible="true"><tag k="addr:housenumber" v="4242"/><tag k="addr:postcode" v="97239"/><tag k="addr:city" v="Portland"/><tag k="addr:street" v="Southwest View Point Terrace"/></node>
<node id="-179" lat="45.492604091" lon="-122.678008534" visible="true"><tag k="addr:housenumber" v="4243"/><tag k="addr:postcode" v="97239"/><tag k="addr:city" v="Portland"/><tag k="addr:street" v="Southwest View Point Terrace"/></node>
<node id="-180" lat="45.492212862" lon="-122.677462054" visible="true"><tag k="addr:housenumber" v="4310"/><tag k="addr:postcode" v="97239"/><tag k="addr:city" v="Portland"/><tag k="addr:street" v="Southwest View Point Terrace"/></node>
<node id="-181" lat="45.492206739" lon="-122.677464318" visible="true"><tag k="addr:housenumber" v="4314"/><tag k="addr:postcode" v="97239"/><tag k="addr:city" v="Portland"/><tag k="addr:street" v="Southwest View Point Terrace"/></node>
<node id="-182" lat="45.492212291" lon="-122.677466603" visible="true"><tag k="addr:housenumber" v="4316"/><tag k="addr:postcode" v="97239"/><tag k="addr:city" v="Portland"/><tag k="addr:street" v="Southwest View Point Terrace"/></node>
<node id="-183" lat="45.484306568" lon="-122.678225753" visible="true"><tag k="addr:housenumber" v="5401"/><tag k="addr:postcode" v="97239"/><tag k="addr:city" v="Portland"/><tag k="addr:street" v="Southwest View Point Terrace"/></node>
<node id="-184" lat="45.484309492" lon="-122.678221932" visible="true"><tag k="addr:housenumber" v="5403"/><tag k="addr:postcode" v="97239"/><tag k="addr:city" v="Portland"/><tag k="addr:street" v="Southwest View Point Terrace"/></node>
<node id="-185" lat="45.484307833" lon="-122.678217591" visible="true"><tag k="addr:housenumber" v="5405"/><tag k="addr:postcode" v="97239"/><tag k="addr:city" v="Portland"/><tag k="addr:street" v="Southwest View Point Terrace"/></node>
<node id="-186" lat="45.484307041" lon="-122.678222658" visible="true"><tag k="addr:housenumber" v="5407"/><tag k="addr:postcode" v="97239"/><tag k="addr:city" v="Portland"/><tag k="addr:street" v="Southwest View Point Terrace"/></node>
<node id="-187" lat="45.484307659" lon="-122.678222893" visible="true"><tag k="addr:housenumber" v="5409"/><tag k="addr:postcode" v="97239"/><tag k="addr:city" v="Portland"/><tag k="addr:street" v="Southwest View Point Terrace"/></node>
<node id="-188" lat="45.484303588" lon="-122.678217896" visible="true"><tag k="addr:housenumber" v="5411"/><tag k="addr:postcode" v="97239"/><tag k="addr:city" v="Portland"/><tag k="addr:street" v="Southwest View Point Terrace"/></node>
<node id="-189" lat="45.484309063" lon="-122.678219905" visible="true"><tag k="addr:housenumber" v="5413"/><tag k="addr:postcode" v="97239"/><tag k="addr:city" v="Portland"/><tag k="addr:street" v="Southwest View Point Terrace"/></node>
<node id="-190" lat="45.484303834" lon="-122.678219713" visible="true"><tag k="addr:housenumber" v="5415"/><tag k="addr:postcode" v="97239"/><tag k="addr:city" v="Portland"/><tag k="addr:street" v="Southwest View Point Terrace"/></node>
<node id="-191" lat="45.484305368" lon="-122.678217559" visible="true"><tag k="addr:housenumber" v="5417"/><tag k="addr:postcode" v="97239"/><tag k="addr:city" v="Portland"/><tag k="addr:street" v="Southwest View Point Terrace"/></node>
<node id="-192" lat="45.484303185" lon="-122.678223152" visible="true"><tag k="addr:housenumber" v="5419"/><tag k="addr:postcode" v="97239"/><tag k="addr:city" v="Portland"/><tag k="addr:street" v="Southwest View Point Terrace"/></node>
<node id="-193" lat="45.484307423" lon="-122.678219299" visible="true"><tag k="addr:housenumber" v="5421"/><tag k="addr:postcode" v="97239"/><tag k="addr:city" v="Portland"/><tag k="addr:street" v="Southwest View Point Terrace"/></node>
<node id="-194" lat="45.484308521" lon="-122.678221069" visible="true"><tag k="addr:housenumber" v="5423"/><tag k="addr:postcode" v="97239"/><tag k="addr:city" v="Portland"/><tag k="addr:street" v="Southwest View Point Terrace"/></node>
<node id="-195" lat="45.48430342" lon="-122.678219696" visible="true"><tag k="addr:housenumber" v="5425"/><tag k="addr:postcode" v="97239"/><tag k="addr:city" v="Portland"/><tag k="addr:street" v="Southwest View Point Terrace"/></node>
<node id="-196" lat="45.484309378" lon="-122.678226635" visible="true"><tag k="addr:housenumber" v="5427"/><tag k="addr:postcode" v="97239"/><tag k="addr:city" v="Portland"/><tag k="addr:street" v="Southwest View Point Terrace"/></node>
<node id="-197" lat="45.484309142" lon="-122.678221397" visible="true"><tag k="addr:housenumber" v="5429"/><tag k="addr:postcode" v="97239"/><tag k="addr:city" v="Portland"/><tag k="addr:street" v="Southwest View Point Terrace"/></node>
<node id="-198" lat="45.484304813" lon="-122.678221698" visible="true"><tag k="addr:housenumber" v="5431"/><tag k="addr:postcode" v="97239"/><tag k="addr:city" v="Portland"/><tag k="addr:street" v="Southwest View Point Terrace"/></node>
<node id="-199" lat="45.484307622" lon="-122.678223104" visible="true"><tag k="addr:housenumber" v="5433"/><tag k="addr:postcode" v="97239"/><tag k="addr:city" v="Portland"/><tag k="addr:street" v="Southwest View Point Terrace"/></node>
<node id="-200" lat="45.484301142" lon="-122.678221954" visible="true"><tag k="addr:housenumber" v="5435"/><tag k="addr:postcode" v="97239"/><tag k="addr:city" v="Portland"/><tag k="addr:street" v="Southwest View Point Terrace"/></node>
<node id="-201" lat="45.484304077" lon="-122.678219226" visible="true"><tag k="addr:housenumber" v="5437"/><tag k="addr:postcode" v="97239"/><tag k="addr:city" v="Portland"/><tag k="addr:street" v="Southwest View Point Terrace"/></node>
<node id="-202" lat="45.48430016" lon="-122.678225673" visible="true"><tag k="addr:housenumber" v="5439"/><tag k="addr:postcode" v="97239"/><tag k="addr:city" v="Portland"/><tag k="addr:street" v="Southwest View Point Terrace"/></node>
<node id="-203" lat="45.484302652" lon="-122.678223661" visible="true"><tag k="addr:housenumber" v="5441"/><tag k="addr:postcode" v="97239"/><tag k="addr:city" v="Portland"/><tag k="addr:street" v="Southwest View Point Terrace"/></node>
<node id="-204" lat="45.484301203" lon="-122.678225694" visible="true"><tag k="addr:housenumber" v="5443"/><tag k="addr:postcode" v="97239"/><tag k="addr:city" v="Portland"/><tag k="addr:street" v="Southwest View Point Terrace"/></node>
<node id="-205" lat="45.496077845" lon="-122.677187803" visible="true"><tag k="addr:housenumber" v="3731"/><tag k="addr:postcode" v="97239"/><tag k="addr:city" v="Portland"/><tag k="addr:street" v="Southwest Water Avenue"/></node>
<node id="-206" lat="45.496079824" lon="-122.677189028" visible="true"><tag k="addr:housenumber" v="3745"/><tag k="addr:postcode" v="97239"/><tag k="addr:city" v="Portland"/><tag k="addr:street" v="Southwest Water Avenue"/></node>
<node id="-207" lat="45.495644163" lon="-122.677297311" visible="true"><tag k="addr:housenumber" v="3807"/><tag k="addr:postcode" v="97239"/><tag k="addr:city" v="Portland"/><tag k="addr:street" v="Southwest Water Avenue"/></node>
<node id="-208" lat="45.495650917" lon="-122.677290923" visible="true"><tag k="addr:housenumber" v="3809"/><tag k="addr:postcode" v="97239"/><tag k="addr:city" v="Portland"/><tag k="addr:street" v="Southwest Water Avenue"/></node>
<node id="-209" lat="45.495644756" lon="-122.677290346" visible="true"><tag k="addr:housenumber" v="3811"/><tag k="addr:postcode" v="97239"/><tag k="addr:city" v="Portland"/><tag k="addr:street" v="Southwest Water Avenue"/></node>
<node id="-210" lat="45.494542416" lon="-122.676785511" visible="true"><tag k="addr:housenumber" v="3932"/><tag k="addr:postcode" v="97239"/><tag k="addr:city" v="Portland"/><tag k="addr:street" v="Southwest Water Avenue"/></node>
<node id="-211" lat="45.494539139" lon="-122.676788911" visible="true"><tag k="addr:housenumber" v="3934"/><tag k="addr:postcode" v="97239"/><tag k="addr:city" v="Portland"/><tag k="addr:street" v="Southwest Water Avenue"/></node>
<node id="-212" lat="45.490545832" lon="-122.676850201" visible="true"><tag k="addr:housenumber" v="4520"/><tag k="addr:postcode" v="97239"/><tag k="addr:city" v="Portland"/><tag k="addr:street" v="Southwest Water Avenue"/></node>
<node id="-213" lat="45.490548059" lon="-122.676848209" visible="true"><tag k="addr:housenumber" v="4522"/><tag k="addr:postcode" v="97239"/><tag k="addr:city" v="Portland"/><tag k="addr:street" v="Southwest Water Avenue"/></node>
<node id="-214" lat="45.489895125" lon="-122.677322201" visible="true"><tag k="addr:housenumber" v="4619"/><tag k="addr:postcode" v="97239"/><tag k="addr:city" v="Portland"/><tag k="addr:street" v="Southwest Water Avenue"/></node>
<node id="-215" lat="45.48989781" lon="-122.67731562" visible="true"><tag k="addr:housenumber" v="4621"/><tag k="addr:postcode" v="97239"/><tag k="addr:city" v="Portland"/><tag k="addr:street" v="Southwest Water Avenue"/></node>
</osm>