<?xml version="1.0"?>
<osm version="0.6" upload="false" generator="uvmogr2osm">
<node id="-1" lat="45.51094234" lon="-122.73459734" visible="true"><tag k="addr:housenumber" v="214"/><tag k="addr:postcode" v="97214"/><tag k="addr:city" v="Portland"/><tag k="addr:street" v="Southeast 18th Avenue"/></node>
<node id="-2" lat="45.498660572" lon="-122.735701263" visible="true"><tag k="addr:housenumber" v="3425"/><tag k="addr:postcode" v="97221"/><tag k="addr:city" v="Portland"/><tag k="addr:street" v="Southwest 57th Avenue"/></node>
<node id="-3" lat="45.510762789" lon="-122.73640019" visible="true"><tag k="addr:housenumber" v="1704"/><tag k="addr:postcode" v="97221"/><tag k="addr:city" v="Portland"/><tag k="addr:street" v="Southwest 58th Avenue"/></node>
<node id="-4" lat="45.510767688" lon="-122.736403257" visible="true"><tag k="addr:housenumber" v="1706"/><tag k="addr:postcode" v="97221"/><tag k="addr:city" v="Portland"/><tag k="addr:street" v="Southwest 58th Avenue"/></node>
<node id="-5" lat="45.510765611" lon="-122.736400771" visible="true"><tag k="addr:housenumber" v="1708"/><tag k="addr:postcode" v="97221"/><tag k="addr:city" v="Portland"/><tag k="addr:street" v="Southwest 58th Avenue"/></node>
<node id="-6" lat="45.510767699" lon="-122.736399287" visible="true"><tag k="addr:housenumber" v="1712"/><tag k="addr:postcode" v="97221"/><tag k="addr:city" v="Portland"/><tag k="addr:street" v="Southwest 58th Avenue"/></node>
<node id="-7" lat="45.510765739" lon="-122.736400017" visible="true"><tag k="addr:housenumber" v="1714"/><tag k="addr:postcode" v="97221"/><tag k="addr:city" v="Portland"/><tag k="addr:street" v="Southwest 58th Avenue"/></node>
<node id="-8" lat="45.505280294" lon="-122.748968798" visible="true"><tag k="addr:housenumber" v="2001"/><tag k="addr:postcode" v="97225"/><tag k="addr:city" v="Portland"/><tag k="addr:street" v="Southwest Camelot Court"/></node>
<node id="-9" lat="45.505190784" lon="-122.74894559" visible="true"><tag k="addr:housenumber" v="2003"/><tag k="addr:postcode" v="97225"/><tag k="addr:city" v="Portland"/><tag k="addr:street" v="Southwest Camelot Court"/></node>
<node id="-10" lat="45.505014047" lon="-122.748939906" visible="true"><tag k="addr:housenumber" v="2021"/><tag k="addr:postcode" v="97225"/><tag k="addr:city" v="Portland"/><tag k="addr:street" v="Southwest Camelot Court"/></node>
<node id="-11" lat="45.505041179" lon="-122.748803233" visible="true"><tag k="addr:housenumber" v="2023"/><tag k="addr:postcode" v="97225"/><tag k="addr:city" v="Portland"/><tag k="addr:street" v="Southwest Camelot Court"/></node>
<node id="-12" lat="45.503615227" lon="-122.749366515" visible="true"><tag k="addr:housenumber" v="7021"/><tag k="addr:postcode" v="97225"/><tag k="addr:city" v="Portland"/><tag k="addr:street" v="Southwest Canyon Road"/></node>
<node id="-13" lat="45.50354117" lon="-122.749498058" visible="true"><tag k="addr:housenumber" v="7025"/><tag k="addr:postcode" v="97225"/><tag k="addr:city" v="Portland"/><tag k="addr:street" v="Southwest Canyon Road"/></node>
<node id="-14" lat="45.498641659" lon="-122.735742218" visible="true"><tag k="addr:housenumber" v="5701"/><tag k="addr:postcode" v="97221"/><tag k="addr:city" v="Portland"/><tag k="addr:street" v="Southwest Patton Road"/></node>
<node id="-15" lat="45.505190524" lon="-122.752962634" visible="true"><tag k="addr:housenumber" v="7400"/><tag k="addr:postcode" v="97225"/><tag k="addr:city" v="Portland"/><tag k="addr:street" v="Southwest Pointer Road"/></node>
<node id="-16" lat="45.505174956" lon="-122.753065456" visible="true"><tag k="addr:housenumber" v="7402"/><tag k="addr:postcode" v="97225"/><tag k="addr:city" v="Portland"/><tag k="addr:street" v="Southwest Pointer Road"/></node>
<node id="-17" lat="45.501258124" lon="-122.739109029" visible="true"><tag k="addr:housenumber" v="3020"/><tag k="addr:postcode" v="97221"/><tag k="addr:city" v="Portland"/><tag k="addr:street" v="Southwest Scholls Ferry Road"/></node>
<node id="-18" lat="45.499692909" lon="-122.740000183" visible="true"><tag k="addr:housenumber" v="3302"/><tag k="addr:postcode" v="97221"/><tag k="addr:city" v="Portland"/><tag k="addr:street" v="Southwest Scholls Ferry Road"/></node>
<node id="-19" lat="45.499692481" lon="-122.739999212" visible="true"><tag k="addr:housenumber" v="3304"/><tag k="addr:postcode" v="97221"/><tag k="addr:city" v="Portland"/><tag k="addr:street" v="Southwest Scholls Ferry Road"/></node>
<node id="-20" lat="45.499692448" lon="-122.740003201" visible="true"><tag k="addr:housenumber" v="3306"/><tag k="addr:postcode" v="97221"/><tag k="addr:city" v="Portland"/><tag k="addr:street" v="Southwest Scholls Ferry Road"/></node>
<node id="-21" lat="45.510942364" lon="-122.734595219" visible="true"><tag k="addr:housenumber" v="1730"/><tag k="addr:postcode" v="97221"/><tag k="addr:city" v="Portland"/><tag k="addr:street" v="Southwest Skyline Boulevard"/></node>
<node id="-22" lat="45.498742261" lon="-122.741595529" visible="true"><tag k="addr:housenumber" v="6303"/><tag k="addr:postcode" v="97221"/><tag k="addr:city" v="Portland"/><tag k="addr:street" v="Southwest Sweetbriar Court"/></node>
<node id="-23" lat="45.498746186" lon="-122.741597402" visible="true"><tag k="addr:housenumber" v="6305"/><tag k="addr:postcode" v="97221"/><tag k="addr:city" v="Portland"/><tag k="addr:street" v="Southwest Sweetbriar Court"/></node>
<node id="-24" lat="45.501255948" lon="-122.739105739" visible="true"><tag k="addr:housenumber" v="6007"/><tag k="addr:postcode" v="97221"/><tag k="addr:city" v="Portland"/><tag k="addr:street" v="Southwest Woods Court"/></node>
</osm>