<?xml version="1.0"?>
<osm version="0.6" upload="false" generator="uvmogr2osm">
<node id="-1" lat="45.446712766" lon="-122.6408932" visible="true"><tag k="addr:housenumber" v="10551"/><tag k="addr:postcode" v="97222"/><tag k="addr:city" v="Milwaukie"/><tag k="addr:street" v="Southeast 21st Avenue"/></node>
<node id="-2" lat="45.44594109" lon="-122.640915767" visible="true"><tag k="addr:housenumber" v="10651"/><tag k="addr:postcode" v="97222"/><tag k="addr:city" v="Milwaukie"/><tag k="addr:street" v="Southeast 21st Avenue"/></node>
<node id="-3" lat="45.445941015" lon="-122.640910962" visible="true"><tag k="addr:housenumber" v="10663"/><tag k="addr:postcode" v="97222"/><tag k="addr:city" v="Milwaukie"/><tag k="addr:street" v="Southeast 21st Avenue"/></node>
<node id="-4" lat="45.445784576" lon="-122.640882988" visible="true"><tag k="addr:housenumber" v="10673"/><tag k="addr:postcode" v="97222"/><tag k="addr:city" v="Milwaukie"/><tag k="addr:street" v="Southeast 21st Avenue"/></node>
<node id="-5" lat="45.443559708" lon="-122.640357504" visible="true"><tag k="addr:housenumber" v="10951"/><tag k="addr:postcode" v="97222"/><tag k="addr:city" v="Milwaukie"/><tag k="addr:street" v="Southeast 21st Avenue"/></node>
<node id="-6" lat="45.443282925" lon="-122.639602098" visible="true"><tag k="addr:housenumber" v="11062"/><tag k="addr:postcode" v="97222"/><tag k="addr:city" v="Milwaukie"/><tag k="addr:street" v="Southeast 21st Avenue"/></node>
<node id="-7" lat="45.443221392" lon="-122.639581985" visible="true"><tag k="addr:housenumber" v="11068"/><tag k="addr:postcode" v="97222"/><tag k="addr:city" v="Milwaukie"/><tag k="addr:street" v="Southeast 21st Avenue"/></node>
<node id="-8" lat="45.443161185" lon="-122.639570022" visible="true"><tag k="addr:housenumber" v="11074"/><tag k="addr:postcode" v="97222"/><tag k="addr:city" v="Milwaukie"/><tag k="addr:street" v="Southeast 21st Avenue"/></node>
<node id="-9" lat="45.442261823" lon="-122.640085573" visible="true"><tag k="addr:housenumber" v="11153"/><tag k="addr:postcode" v="97222"/><tag k="addr:city" v="Milwaukie"/><tag k="addr:street" v="Southeast 21st Avenue"/></node>
<node id="-10" lat="45.441726148" lon="-122.639316158" visible="true"><tag k="addr:housenumber" v="11214"/><tag k="addr:postcode" v="97222"/><tag k="addr:city" v="Milwaukie"/><tag k="addr:street" v="Southeast 21st Avenue"/></node>
<node id="-11" lat="45.441727658" lon="-122.639314511" visible="true"><tag k="addr:housenumber" v="11238"/><tag k="addr:postcode" v="97222"/><tag k="addr:city" v="Milwaukie"/><tag k="addr:street" v="Southeast 21st Avenue"/></node>
<node id="-12" lat="45.441726244" lon="-122.639319837" visible="true"><tag k="addr:housenumber" v="11242"/><tag k="addr:postcode" v="97222"/><tag k="addr:city" v="Milwaukie"/><tag k="addr:street" v="Southeast 21st Avenue"/></node>
<node id="-13" lat="45.441734177" lon="-122.639318874" visible="true"><tag k="addr:housenumber" v="11266"/><tag k="addr:postcode" v="97222"/><tag k="addr:city" v="Milwaukie"/><tag k="addr:street" v="Southeast 21st Avenue"/></node>
<node id="-14" lat="45.444742146" lon="-122.63309373" visible="true"><tag k="addr:housenumber" v="10848"/><tag k="addr:postcode" v="97222"/><tag k="addr:city" v="Milwaukie"/><tag k="addr:street" v="Southeast 29th Avenue"/></node>
<node id="-15" lat="45.444683273" lon="-122.633075666" visible="true"><tag k="addr:housenumber" v="10888"/><tag k="addr:postcode" v="97222"/><tag k="addr:city" v="Milwaukie"/><tag k="addr:street" v="Southeast 29th Avenue"/></node>
<node id="-16" lat="45.440455694" lon="-122.631204249" visible="true"><tag k="addr:housenumber" v="11443"/><tag k="addr:postcode" v="97222"/><tag k="addr:city" v="Milwaukie"/><tag k="addr:street" v="Southeast 31st Avenue"/></node>
<node id="-17" lat="45.440371482" lon="-122.631201672" visible="true"><tag k="addr:housenumber" v="11445"/><tag k="addr:postcode" v="97222"/><tag k="addr:city" v="Milwaukie"/><tag k="addr:street" v="Southeast 31st Avenue"/></node>
<node id="-18" lat="45.445783733" lon="-122.64088968" visible="true"><tag k="addr:housenumber" v="2035"/><tag k="addr:postcode" v="97222"/><tag k="addr:city" v="Milwaukie"/><tag k="addr:street" v="Southeast Harrison Street"/></node>
<node id="-19" lat="45.443566998" lon="-122.640350336" visible="true"><tag k="addr:housenumber" v="2035"/><tag k="addr:postcode" v="97222"/><tag k="addr:city" v="Milwaukie"/><tag k="addr:street" v="Southeast Jefferson Street"/></node>
<node id="-20" lat="45.443565793" lon="-122.640358217" visible="true"><tag k="addr:housenumber" v="2037"/><tag k="addr:postcode" v="97222"/><tag k="addr:city" v="Milwaukie"/><tag k="addr:street" v="Southeast Jefferson Street"/></node>
<node id="-21" lat="45.446714832" lon="-122.640885818" visible="true"><tag k="addr:housenumber" v="10550"/><tag k="addr:postcode" v="97222"/><tag k="addr:city" v="Milwaukie"/><tag k="addr:street" v="Southeast Main Street"/></node>
<node id="-22" lat="45.446078651" lon="-122.641939554" visible="true"><tag k="addr:housenumber" v="10605"/><tag k="addr:postcode" v="97222"/><tag k="addr:city" v="Milwaukie"/><tag k="addr:street" v="Southeast Main Street"/></node>
<node id="-23" lat="45.446037178" lon="-122.64192754" visible="true"><tag k="addr:housenumber" v="10607"/><tag k="addr:postcode" v="97222"/><tag k="addr:city" v="Milwaukie"/><tag k="addr:street" v="Southeast Main Street"/></node>
<node id="-24" lat="45.445985094" lon="-122.641918518" visible="true"><tag k="addr:housenumber" v="10609"/><tag k="addr:postcode" v="97222"/><tag k="addr:city" v="Milwaukie"/><tag k="addr:street" v="Southeast Main Street"/></node>
<node id="-25" lat="45.445932536" lon="-122.641906341" visible="true"><tag k="addr:housenumber" v="10611"/><tag k="addr:postcode" v="97222"/><tag k="addr:city" v="Milwaukie"/><tag k="addr:street" v="Southeast Main Street"/></node>
<node id="-26" lat="45.445883907" lon="-122.641894499" visible="true"><tag k="addr:housenumber" v="10613"/><tag k="addr:postcode" v="97222"/><tag k="addr:city" v="Milwaukie"/><tag k="addr:street" v="Southeast Main Street"/></node>
<node id="-27" lat="45.445645072" lon="-122.642061152" visible="true"><tag k="addr:housenumber" v="10633"/><tag k="addr:postcode" v="97222"/><tag k="addr:city" v="Milwaukie"/><tag k="addr:street" v="Southeast Main Street"/></node>
<node id="-28" lat="45.443027517" lon="-122.641349765" visible="true"><tag k="addr:housenumber" v="11011"/><tag k="addr:postcode" v="97222"/><tag k="addr:city" v="Milwaukie"/><tag k="addr:street" v="Southeast Main Street"/></node>
<node id="-29" lat="45.442255756" lon="-122.640076974" visible="true"><tag k="addr:housenumber" v="11126"/><tag k="addr:postcode" v="97222"/><tag k="addr:city" v="Milwaukie"/><tag k="addr:street" v="Southeast Main Street"/></node>
<node id="-30" lat="45.445622963" lon="-122.642224569" visible="true"><tag k="addr:housenumber" v="10690"/><tag k="addr:postcode" v="97222"/><tag k="addr:city" v="Milwaukie"/><tag k="addr:street" v="Southeast Mcloughlin Boulevard"/></node>
<node id="-31" lat="45.442989307" lon="-122.641565037" visible="true"><tag k="addr:housenumber" v="11010"/><tag k="addr:postcode" v="97222"/><tag k="addr:city" v="Milwaukie"/><tag k="addr:street" v="Southeast Mcloughlin Boulevard"/></node>
<node id="-32" lat="45.443789669" lon="-122.641848034" visible="true"><tag k="addr:housenumber" v="1906"/><tag k="addr:postcode" v="97222"/><tag k="addr:city" v="Milwaukie"/><tag k="addr:street" v="Southeast Monroe Street"/></node>
<node id="-33" lat="45.443783479" lon="-122.641853467" visible="true"><tag k="addr:housenumber" v="1912"/><tag k="addr:postcode" v="97222"/><tag k="addr:city" v="Milwaukie"/><tag k="addr:street" v="Southeast Monroe Street"/></node>
<node id="-34" lat="45.444814362" lon="-122.636493584" visible="true"><tag k="addr:housenumber" v="2507"/><tag k="addr:postcode" v="97222"/><tag k="addr:city" v="Milwaukie"/><tag k="addr:street" v="Southeast Monroe Street"/></node>
<node id="-35" lat="45.444866879" lon="-122.63651987" visible="true"><tag k="addr:housenumber" v="2509"/><tag k="addr:postcode" v="97222"/><tag k="addr:city" v="Milwaukie"/><tag k="addr:street" v="Southeast Monroe Street"/></node>
<node id="-36" lat="45.444918715" lon="-122.636531103" visible="true"><tag k="addr:housenumber" v="2511"/><tag k="addr:postcode" v="97222"/><tag k="addr:city" v="Milwaukie"/><tag k="addr:street" v="Southeast Monroe Street"/></node>
<node id="-37" lat="45.444976152" lon="-122.636541062" visible="true"><tag k="addr:housenumber" v="2513"/><tag k="addr:postcode" v="97222"/><tag k="addr:city" v="Milwaukie"/><tag k="addr:street" v="Southeast Monroe Street"/></node>
<node id="-38" lat="45.44499017" lon="-122.636451396" visible="true"><tag k="addr:housenumber" v="2515"/><tag k="addr:postcode" v="97222"/><tag k="addr:city" v="Milwaukie"/><tag k="addr:street" v="Southeast Monroe Street"/></node>
<node id="-39" lat="45.444998236" lon="-122.636370642" visible="true"><tag k="addr:housenumber" v="2517"/><tag k="addr:postcode" v="97222"/><tag k="addr:city" v="Milwaukie"/><tag k="addr:street" v="Southeast Monroe Street"/></node>
<node id="-40" lat="45.445004504" lon="-122.636286052" visible="true"><tag k="addr:housenumber" v="2519"/><tag k="addr:postcode" v="97222"/><tag k="addr:city" v="Milwaukie"/><tag k="addr:street" v="Southeast Monroe Street"/></node>
<node id="-41" lat="45.444952938" lon="-122.636264032" visible="true"><tag k="addr:housenumber" v="2521"/><tag k="addr:postcode" v="97222"/><tag k="addr:city" v="Milwaukie"/><tag k="addr:street" v="Southeast Monroe Street"/></node>
<node id="-42" lat="45.444894727" lon="-122.636249944" visible="true"><tag k="addr:housenumber" v="2523"/><tag k="addr:postcode" v="97222"/><tag k="addr:city" v="Milwaukie"/><tag k="addr:street" v="Southeast Monroe Street"/></node>
<node id="-43" lat="45.444835959" lon="-122.636236856" visible="true"><tag k="addr:housenumber" v="2525"/><tag k="addr:postcode" v="97222"/><tag k="addr:city" v="Milwaukie"/><tag k="addr:street" v="Southeast Monroe Street"/></node>
<node id="-44" lat="45.442255559" lon="-122.640076214" visible="true"><tag k="addr:housenumber" v="2036"/><tag k="addr:postcode" v="97222"/><tag k="addr:city" v="Milwaukie"/><tag k="addr:street" v="Southeast Washington Street"/></node>
<node id="-45" lat="45.440075836" lon="-122.637546904" visible="true"><tag k="addr:housenumber" v="2328"/><tag k="addr:postcode" v="97222"/><tag k="addr:city" v="Milwaukie"/><tag k="addr:street" v="Southeast Willard Street"/></node>
<node id="-46" lat="45.440056135" lon="-122.637490973" visible="true"><tag k="addr:housenumber" v="2330"/><tag k="addr:postcode" v="97222"/><tag k="addr:city" v="Milwaukie"/><tag k="addr:street" v="Southeast Willard Street"/></node>
</osm>