<?xml version="1.0"?>
<osm version="0.6" upload="false" generator="uvmogr2osm">
<node id="-1" lat="45.509308006" lon="-122.663128702" visible="true"><tag k="addr:housenumber" v="1919"/><tag k="addr:postcode" v="97214"/><tag k="addr:city" v="Portland"/><tag k="addr:street" v="Southeast 3rd Avenue"/></node>
<node id="-2" lat="45.509308913" lon="-122.663135032" visible="true"><tag k="addr:housenumber" v="1921"/><tag k="addr:postcode" v="97214"/><tag k="addr:city" v="Portland"/><tag k="addr:street" v="Southeast 3rd Avenue"/></node>
<node id="-3" lat="45.511011861" lon="-122.66223004" visible="true"><tag k="addr:housenumber" v="325"/><tag k="addr:postcode" v="97214"/><tag k="addr:city" v="Portland"/><tag k="addr:street" v="Southeast Market Street"/></node>
<node id="-4" lat="45.511016109" lon="-122.66223422" visible="true"><tag k="addr:housenumber" v="1637"/><tag k="addr:postcode" v="97214"/><tag k="addr:city" v="Portland"/><tag k="addr:street" v="Southeast Martin Luther King Jr Boulevard"/></node>
<node id="-5" lat="45.507975361" lon="-122.663742686" visible="true"><tag k="addr:housenumber" v="1945"/><tag k="addr:postcode" v="97214"/><tag k="addr:city" v="Portland"/><tag k="addr:street" v="Southeast Water Avenue"/></node>
<node id="-6" lat="45.507977232" lon="-122.663743354" visible="true"><tag k="addr:housenumber" v="2016"/><tag k="addr:postcode" v="97214"/><tag k="addr:city" v="Portland"/><tag k="addr:street" v="Southeast Water Avenue"/></node>
<node id="-7" lat="45.509013761" lon="-122.687784412" visible="true"><tag k="addr:housenumber" v="2064"/><tag k="addr:postcode" v="97201"/><tag k="addr:city" v="Portland"/><tag k="addr:street" v="Southwest 10th Avenue"/></node>
<node id="-8" lat="45.509006702" lon="-122.687788236" visible="true"><tag k="addr:housenumber" v="2066"/><tag k="addr:postcode" v="97201"/><tag k="addr:city" v="Portland"/><tag k="addr:street" v="Southwest 10th Avenue"/></node>
<node id="-9" lat="45.499477007" lon="-122.689850227" visible="true"><tag k="addr:housenumber" v="3204"/><tag k="addr:postcode" v="97239"/><tag k="addr:city" v="Portland"/><tag k="addr:street" v="Southwest 10th Avenue"/></node>
<node id="-10" lat="45.499481013" lon="-122.689848844" visible="true"><tag k="addr:housenumber" v="3206"/><tag k="addr:postcode" v="97239"/><tag k="addr:city" v="Portland"/><tag k="addr:street" v="Southwest 10th Avenue"/></node>
<node id="-11" lat="45.499482888" lon="-122.689848855" visible="true"><tag k="addr:housenumber" v="3212"/><tag k="addr:postcode" v="97239"/><tag k="addr:city" v="Portland"/><tag k="addr:street" v="Southwest 10th Avenue"/></node>
<node id="-12" lat="45.498630533" lon="-122.689919534" visible="true"><tag k="addr:housenumber" v="3324"/><tag k="addr:postcode" v="97239"/><tag k="addr:city" v="Portland"/><tag k="addr:street" v="Southwest 10th Avenue"/></node>
<node id="-13" lat="45.498631754" lon="-122.689921923" visible="true"><tag k="addr:housenumber" v="3328"/><tag k="addr:postcode" v="97239"/><tag k="addr:city" v="Portland"/><tag k="addr:street" v="Southwest 10th Avenue"/></node>
<node id="-14" lat="45.498496781" lon="-122.690024146" visible="true"><tag k="addr:housenumber" v="3332"/><tag k="addr:postcode" v="97239"/><tag k="addr:city" v="Portland"/><tag k="addr:street" v="Southwest 10th Avenue"/></node>
<node id="-15" lat="45.498495898" lon="-122.690028099" visible="true"><tag k="addr:housenumber" v="3336"/><tag k="addr:postcode" v="97239"/><tag k="addr:city" v="Portland"/><tag k="addr:street" v="Southwest 10th Avenue"/></node>
<node id="-16" lat="45.498873734" lon="-122.691013028" visible="true"><tag k="addr:housenumber" v="3306"/><tag k="addr:postcode" v="97239"/><tag k="addr:city" v="Portland"/><tag k="addr:street" v="Southwest 11th Avenue"/></node>
<node id="-17" lat="45.498874029" lon="-122.69101922" visible="true"><tag k="addr:housenumber" v="3308"/><tag k="addr:postcode" v="97239"/><tag k="addr:city" v="Portland"/><tag k="addr:street" v="Southwest 11th Avenue"/></node>
<node id="-18" lat="45.498865992" lon="-122.691011214" visible="true"><tag k="addr:housenumber" v="3310"/><tag k="addr:postcode" v="97239"/><tag k="addr:city" v="Portland"/><tag k="addr:street" v="Southwest 11th Avenue"/></node>
<node id="-19" lat="45.498869966" lon="-122.691012867" visible="true"><tag k="addr:housenumber" v="3312"/><tag k="addr:postcode" v="97239"/><tag k="addr:city" v="Portland"/><tag k="addr:street" v="Southwest 11th Avenue"/></node>
<node id="-20" lat="45.498872889" lon="-122.691011383" visible="true"><tag k="addr:housenumber" v="3314"/><tag k="addr:postcode" v="97239"/><tag k="addr:city" v="Portland"/><tag k="addr:street" v="Southwest 11th Avenue"/></node>
<node id="-21" lat="45.498661523" lon="-122.690929323" visible="true"><tag k="addr:housenumber" v="3320"/><tag k="addr:postcode" v="97239"/><tag k="addr:city" v="Portland"/><tag k="addr:street" v="Southwest 11th Avenue"/></node>
<node id="-22" lat="45.498657966" lon="-122.690935509" visible="true"><tag k="addr:housenumber" v="3322"/><tag k="addr:postcode" v="97239"/><tag k="addr:city" v="Portland"/><tag k="addr:street" v="Southwest 11th Avenue"/></node>
<node id="-23" lat="45.498222819" lon="-122.690962469" visible="true"><tag k="addr:housenumber" v="3402"/><tag k="addr:postcode" v="97239"/><tag k="addr:city" v="Portland"/><tag k="addr:street" v="Southwest 11th Avenue"/></node>
<node id="-24" lat="45.498226597" lon="-122.690964272" visible="true"><tag k="addr:housenumber" v="3404"/><tag k="addr:postcode" v="97239"/><tag k="addr:city" v="Portland"/><tag k="addr:street" v="Southwest 11th Avenue"/></node>
<node id="-25" lat="45.498219749" lon="-122.690961377" visible="true"><tag k="addr:housenumber" v="3406"/><tag k="addr:postcode" v="97239"/><tag k="addr:city" v="Portland"/><tag k="addr:street" v="Southwest 11th Avenue"/></node>
<node id="-26" lat="45.498223993" lon="-122.690957292" visible="true"><tag k="addr:housenumber" v="3408"/><tag k="addr:postcode" v="97239"/><tag k="addr:city" v="Portland"/><tag k="addr:street" v="Southwest 11th Avenue"/></node>
<node id="-27" lat="45.501038838" lon="-122.691783528" visible="true"><tag k="addr:housenumber" v="3020"/><tag k="addr:postcode" v="97239"/><tag k="addr:city" v="Portland"/><tag k="addr:street" v="Southwest 12th Avenue"/></node>
<node id="-28" lat="45.501037158" lon="-122.691784073" visible="true"><tag k="addr:housenumber" v="3022"/><tag k="addr:postcode" v="97239"/><tag k="addr:city" v="Portland"/><tag k="addr:street" v="Southwest 12th Avenue"/></node>
<node id="-29" lat="45.501039723" lon="-122.691781779" visible="true"><tag k="addr:housenumber" v="3024"/><tag k="addr:postcode" v="97239"/><tag k="addr:city" v="Portland"/><tag k="addr:street" v="Southwest 12th Avenue"/></node>
<node id="-30" lat="45.498718739" lon="-122.691960612" visible="true"><tag k="addr:housenumber" v="3328"/><tag k="addr:postcode" v="97239"/><tag k="addr:city" v="Portland"/><tag k="addr:street" v="Southwest 12th Avenue"/></node>
<node id="-31" lat="45.498665649" lon="-122.691969251" visible="true"><tag k="addr:housenumber" v="3332"/><tag k="addr:postcode" v="97239"/><tag k="addr:city" v="Portland"/><tag k="addr:street" v="Southwest 12th Avenue"/></node>
<node id="-32" lat="45.498564712" lon="-122.691933004" visible="true"><tag k="addr:housenumber" v="3340"/><tag k="addr:postcode" v="97239"/><tag k="addr:city" v="Portland"/><tag k="addr:street" v="Southwest 12th Avenue"/></node>
<node id="-33" lat="45.511555518" lon="-122.689899869" visible="true"><tag k="addr:housenumber" v="1938"/><tag k="addr:postcode" v="97201"/><tag k="addr:city" v="Portland"/><tag k="addr:street" v="Southwest 13th Avenue"/></node>
<node id="-34" lat="45.503231282" lon="-122.678345959" visible="true"><tag k="addr:housenumber" v="2728"/><tag k="addr:postcode" v="97201"/><tag k="addr:city" v="Portland"/><tag k="addr:street" v="Southwest 1st Avenue"/></node>
<node id="-35" lat="45.503224752" lon="-122.678349062" visible="true"><tag k="addr:housenumber" v="2730"/><tag k="addr:postcode" v="97201"/><tag k="addr:city" v="Portland"/><tag k="addr:street" v="Southwest 1st Avenue"/></node>
<node id="-36" lat="45.502570978" lon="-122.67901554" visible="true"><tag k="addr:housenumber" v="2823"/><tag k="addr:postcode" v="97201"/><tag k="addr:city" v="Portland"/><tag k="addr:street" v="Southwest 1st Avenue"/></node>
<node id="-37" lat="45.502587172" lon="-122.678350639" visible="true"><tag k="addr:housenumber" v="2824"/><tag k="addr:postcode" v="97201"/><tag k="addr:city" v="Portland"/><tag k="addr:street" v="Southwest 1st Avenue"/></node>
<node id="-38" lat="45.502577825" lon="-122.679020864" visible="true"><tag k="addr:housenumber" v="2825"/><tag k="addr:postcode" v="97201"/><tag k="addr:city" v="Portland"/><tag k="addr:street" v="Southwest 1st Avenue"/></node>
<node id="-39" lat="45.502592698" lon="-122.678345435" visible="true"><tag k="addr:housenumber" v="2826"/><tag k="addr:postcode" v="97201"/><tag k="addr:city" v="Portland"/><tag k="addr:street" v="Southwest 1st Avenue"/></node>
<node id="-40" lat="45.501121597" lon="-122.678443577" visible="true"><tag k="addr:housenumber" v="3030"/><tag k="addr:postcode" v="97201"/><tag k="addr:city" v="Portland"/><tag k="addr:street" v="Southwest 1st Avenue"/></node>
<node id="-41" lat="45.499578625" lon="-122.679202305" visible="true"><tag k="addr:housenumber" v="3235"/><tag k="addr:postcode" v="97239"/><tag k="addr:city" v="Portland"/><tag k="addr:street" v="Southwest 1st Avenue"/></node>
<node id="-42" lat="45.50314315" lon="-122.679542846" visible="true"><tag k="addr:housenumber" v="2734"/><tag k="addr:postcode" v="97201"/><tag k="addr:city" v="Portland"/><tag k="addr:street" v="Southwest 2nd Avenue"/></node>
<node id="-43" lat="45.503137094" lon="-122.679545183" visible="true"><tag k="addr:housenumber" v="2736"/><tag k="addr:postcode" v="97201"/><tag k="addr:city" v="Portland"/><tag k="addr:street" v="Southwest 2nd Avenue"/></node>
<node id="-44" lat="45.503138429" lon="-122.679543031" visible="true"><tag k="addr:housenumber" v="2738"/><tag k="addr:postcode" v="97201"/><tag k="addr:city" v="Portland"/><tag k="addr:street" v="Southwest 2nd Avenue"/></node>
<node id="-45" lat="45.503136211" lon="-122.67954519" visible="true"><tag k="addr:housenumber" v="2740"/><tag k="addr:postcode" v="97201"/><tag k="addr:city" v="Portland"/><tag k="addr:street" v="Southwest 2nd Avenue"/></node>
<node id="-46" lat="45.501001387" lon="-122.680197506" visible="true"><tag k="addr:housenumber" v="3033"/><tag k="addr:postcode" v="97201"/><tag k="addr:city" v="Portland"/><tag k="addr:street" v="Southwest 2nd Avenue"/></node>
<node id="-47" lat="45.500999462" lon="-122.680202697" visible="true"><tag k="addr:housenumber" v="3037"/><tag k="addr:postcode" v="97201"/><tag k="addr:city" v="Portland"/><tag k="addr:street" v="Southwest 2nd Avenue"/></node>
<node id="-48" lat="45.50055954" lon="-122.680175688" visible="true"><tag k="addr:housenumber" v="3117"/><tag k="addr:postcode" v="97201"/><tag k="addr:city" v="Portland"/><tag k="addr:street" v="Southwest 2nd Avenue"/></node>
<node id="-49" lat="45.500555949" lon="-122.680169599" visible="true"><tag k="addr:housenumber" v="3119"/><tag k="addr:postcode" v="97201"/><tag k="addr:city" v="Portland"/><tag k="addr:street" v="Southwest 2nd Avenue"/></node>
<node id="-50" lat="45.500554678" lon="-122.680172341" visible="true"><tag k="addr:housenumber" v="3121"/><tag k="addr:postcode" v="97201"/><tag k="addr:city" v="Portland"/><tag k="addr:street" v="Southwest 2nd Avenue"/></node>
<node id="-51" lat="45.500556802" lon="-122.680174422" visible="true"><tag k="addr:housenumber" v="3123"/><tag k="addr:postcode" v="97201"/><tag k="addr:city" v="Portland"/><tag k="addr:street" v="Southwest 2nd Avenue"/></node>
<node id="-52" lat="45.501737015" lon="-122.681752239" visible="true"><tag k="addr:housenumber" v="2926"/><tag k="addr:postcode" v="97201"/><tag k="addr:city" v="Portland"/><tag k="addr:street" v="Southwest 4th Avenue"/></node>
<node id="-53" lat="45.505335852" lon="-122.682887211" visible="true"><tag k="addr:housenumber" v="2436"/><tag k="addr:postcode" v="97201"/><tag k="addr:city" v="Portland"/><tag k="addr:street" v="Southwest 5th Avenue"/></node>
<node id="-54" lat="45.505341317" lon="-122.682888411" visible="true"><tag k="addr:housenumber" v="2438"/><tag k="addr:postcode" v="97201"/><tag k="addr:city" v="Portland"/><tag k="addr:street" v="Southwest 5th Avenue"/></node>
<node id="-55" lat="45.505338113" lon="-122.682893202" visible="true"><tag k="addr:housenumber" v="2440"/><tag k="addr:postcode" v="97201"/><tag k="addr:city" v="Portland"/><tag k="addr:street" v="Southwest 5th Avenue"/></node>
<node id="-56" lat="45.50533819" lon="-122.682891389" visible="true"><tag k="addr:housenumber" v="2442"/><tag k="addr:postcode" v="97201"/><tag k="addr:city" v="Portland"/><tag k="addr:street" v="Southwest 5th Avenue"/></node>
<node id="-57" lat="45.506488564" lon="-122.684565677" visible="true"><tag k="addr:housenumber" v="2300"/><tag k="addr:postcode" v="97201"/><tag k="addr:city" v="Portland"/><tag k="addr:street" v="Southwest 6th Avenue"/></node>
<node id="-58" lat="45.506494649" lon="-122.684563465" visible="true"><tag k="addr:housenumber" v="2305"/><tag k="addr:postcode" v="97201"/><tag k="addr:city" v="Portland"/><tag k="addr:street" v="Southwest 6th Avenue"/></node>
<node id="-59" lat="45.506366275" lon="-122.684663435" visible="true"><tag k="addr:housenumber" v="2309"/><tag k="addr:postcode" v="97201"/><tag k="addr:city" v="Portland"/><tag k="addr:street" v="Southwest 6th Avenue"/></node>
<node id="-60" lat="45.506371468" lon="-122.684664081" visible="true"><tag k="addr:housenumber" v="2311"/><tag k="addr:postcode" v="97201"/><tag k="addr:city" v="Portland"/><tag k="addr:street" v="Southwest 6th Avenue"/></node>
<node id="-61" lat="45.506253518" lon="-122.684666257" visible="true"><tag k="addr:housenumber" v="2319"/><tag k="addr:postcode" v="97201"/><tag k="addr:city" v="Portland"/><tag k="addr:street" v="Southwest 6th Avenue"/></node>
<node id="-62" lat="45.506260187" lon="-122.684668883" visible="true"><tag k="addr:housenumber" v="2323"/><tag k="addr:postcode" v="97201"/><tag k="addr:city" v="Portland"/><tag k="addr:street" v="Southwest 6th Avenue"/></node>
<node id="-63" lat="45.505924608" lon="-122.685136841" visible="true"><tag k="addr:housenumber" v="2405"/><tag k="addr:postcode" v="97201"/><tag k="addr:city" v="Portland"/><tag k="addr:street" v="Southwest 6th Avenue"/></node>
<node id="-64" lat="45.505923935" lon="-122.685136672" visible="true"><tag k="addr:housenumber" v="2425"/><tag k="addr:postcode" v="97201"/><tag k="addr:city" v="Portland"/><tag k="addr:street" v="Southwest 6th Avenue"/></node>
<node id="-65" lat="45.503339206" lon="-122.678335043" visible="true"><tag k="addr:housenumber" v="30"/><tag k="addr:postcode" v="97201"/><tag k="addr:city" v="Portland"/><tag k="addr:street" v="Southwest Arthur Street"/></node>
<node id="-66" lat="45.503330485" lon="-122.678335094" visible="true"><tag k="addr:housenumber" v="36"/><tag k="addr:postcode" v="97201"/><tag k="addr:city" v="Portland"/><tag k="addr:street" v="Southwest Arthur Street"/></node>
<node id="-67" lat="45.501735775" lon="-122.681751619" visible="true"><tag k="addr:housenumber" v="2929"/><tag k="addr:postcode" v="97201"/><tag k="addr:city" v="Portland"/><tag k="addr:street" v="Southwest Barbur Boulevard"/></node>
<node id="-68" lat="45.504588338" lon="-122.685577077" visible="true"><tag k="addr:housenumber" v="801"/><tag k="addr:postcode" v="97201"/><tag k="addr:city" v="Portland"/><tag k="addr:street" v="Southwest Broadway Drive"/></node>
<node id="-69" lat="45.505928361" lon="-122.685135671" visible="true"><tag k="addr:housenumber" v="620"/><tag k="addr:postcode" v="97201"/><tag k="addr:city" v="Portland"/><tag k="addr:street" v="Southwest Caruthers Street"/></node>
<node id="-70" lat="45.505926068" lon="-122.685130216" visible="true"><tag k="addr:housenumber" v="625"/><tag k="addr:postcode" v="97201"/><tag k="addr:city" v="Portland"/><tag k="addr:street" v="Southwest Caruthers Street"/></node>
<node id="-71" lat="45.505927218" lon="-122.685130527" visible="true"><tag k="addr:housenumber" v="633"/><tag k="addr:postcode" v="97201"/><tag k="addr:city" v="Portland"/><tag k="addr:street" v="Southwest Caruthers Street"/></node>
<node id="-72" lat="45.506522549" lon="-122.688316884" visible="true"><tag k="addr:housenumber" v="2344"/><tag k="addr:postcode" v="97201"/><tag k="addr:city" v="Portland"/><tag k="addr:street" v="Southwest Chelmsford Avenue"/></node>
<node id="-73" lat="45.506520891" lon="-122.6883222" visible="true"><tag k="addr:housenumber" v="2346"/><tag k="addr:postcode" v="97201"/><tag k="addr:city" v="Portland"/><tag k="addr:street" v="Southwest Chelmsford Avenue"/></node>
<node id="-74" lat="45.511555249" lon="-122.689901229" visible="true"><tag k="addr:housenumber" v="1275"/><tag k="addr:postcode" v="97201"/><tag k="addr:city" v="Portland"/><tag k="addr:street" v="Southwest College Street"/></node>
<node id="-75" lat="45.505131419" lon="-122.686232597" visible="true"><tag k="addr:housenumber" v="2448"/><tag k="addr:postcode" v="97201"/><tag k="addr:city" v="Portland"/><tag k="addr:street" v="Southwest Commonwealth Avenue"/></node>
<node id="-76" lat="45.505130892" lon="-122.68623372" visible="true"><tag k="addr:housenumber" v="2488"/><tag k="addr:postcode" v="97201"/><tag k="addr:city" v="Portland"/><tag k="addr:street" v="Southwest Commonwealth Avenue"/></node>
<node id="-77" lat="45.499210462" lon="-122.67552853" visible="true"><tag k="addr:housenumber" v="3304"/><tag k="addr:postcode" v="97239"/><tag k="addr:city" v="Portland"/><tag k="addr:street" v="Southwest Corbett Avenue"/></node>
<node id="-78" lat="45.499205026" lon="-122.675523902" visible="true"><tag k="addr:housenumber" v="3306"/><tag k="addr:postcode" v="97239"/><tag k="addr:city" v="Portland"/><tag k="addr:street" v="Southwest Corbett Avenue"/></node>
<node id="-79" lat="45.499209436" lon="-122.675530153" visible="true"><tag k="addr:housenumber" v="3308"/><tag k="addr:postcode" v="97239"/><tag k="addr:city" v="Portland"/><tag k="addr:street" v="Southwest Corbett Avenue"/></node>
<node id="-80" lat="45.49880198" lon="-122.675637984" visible="true"><tag k="addr:housenumber" v="3332"/><tag k="addr:postcode" v="97239"/><tag k="addr:city" v="Portland"/><tag k="addr:street" v="Southwest Corbett Avenue"/></node>
<node id="-81" lat="45.498799532" lon="-122.675642902" visible="true"><tag k="addr:housenumber" v="3336"/><tag k="addr:postcode" v="97239"/><tag k="addr:city" v="Portland"/><tag k="addr:street" v="Southwest Corbett Avenue"/></node>
<node id="-82" lat="45.498800478" lon="-122.675638267" visible="true"><tag k="addr:housenumber" v="3338"/><tag k="addr:postcode" v="97239"/><tag k="addr:city" v="Portland"/><tag k="addr:street" v="Southwest Corbett Avenue"/></node>
<node id="-83" lat="45.498509678" lon="-122.676176332" visible="true"><tag k="addr:housenumber" v="3403"/><tag k="addr:postcode" v="97239"/><tag k="addr:city" v="Portland"/><tag k="addr:street" v="Southwest Corbett Avenue"/></node>
<node id="-84" lat="45.498505892" lon="-122.676173909" visible="true"><tag k="addr:housenumber" v="3404"/><tag k="addr:postcode" v="97239"/><tag k="addr:city" v="Portland"/><tag k="addr:street" v="Southwest Corbett Avenue"/></node>
<node id="-85" lat="45.49850401" lon="-122.676176977" visible="true"><tag k="addr:housenumber" v="3407"/><tag k="addr:postcode" v="97239"/><tag k="addr:city" v="Portland"/><tag k="addr:street" v="Southwest Corbett Avenue"/></node>
<node id="-86" lat="45.498333292" lon="-122.675592336" visible="true"><tag k="addr:housenumber" v="3418"/><tag k="addr:postcode" v="97239"/><tag k="addr:city" v="Portland"/><tag k="addr:street" v="Southwest Corbett Avenue"/></node>
<node id="-87" lat="45.498332476" lon="-122.675593191" visible="true"><tag k="addr:housenumber" v="3420"/><tag k="addr:postcode" v="97239"/><tag k="addr:city" v="Portland"/><tag k="addr:street" v="Southwest Corbett Avenue"/></node>
<node id="-88" lat="45.49778183" lon="-122.675676958" visible="true"><tag k="addr:housenumber" v="3502"/><tag k="addr:postcode" v="97239"/><tag k="addr:city" v="Portland"/><tag k="addr:street" v="Southwest Corbett Avenue"/></node>
<node id="-89" lat="45.497788499" lon="-122.675677029" visible="true"><tag k="addr:housenumber" v="3508"/><tag k="addr:postcode" v="97239"/><tag k="addr:city" v="Portland"/><tag k="addr:street" v="Southwest Corbett Avenue"/></node>
<node id="-90" lat="45.49776455" lon="-122.676342828" visible="true"><tag k="addr:housenumber" v="3521"/><tag k="addr:postcode" v="97239"/><tag k="addr:city" v="Portland"/><tag k="addr:street" v="Southwest Corbett Avenue"/></node>
<node id="-91" lat="45.497770843" lon="-122.676341085" visible="true"><tag k="addr:housenumber" v="3523"/><tag k="addr:postcode" v="97239"/><tag k="addr:city" v="Portland"/><tag k="addr:street" v="Southwest Corbett Avenue"/></node>
<node id="-92" lat="45.49776626" lon="-122.676339428" visible="true"><tag k="addr:housenumber" v="0126"/><tag k="addr:postcode" v="97239"/><tag k="addr:city" v="Portland"/><tag k="addr:street" v="Southwest Curry Street"/></node>
<node id="-93" lat="45.497772232" lon="-122.676344925" visible="true"><tag k="addr:housenumber" v="0130"/><tag k="addr:postcode" v="97239"/><tag k="addr:city" v="Portland"/><tag k="addr:street" v="Southwest Curry Street"/></node>
<node id="-94" lat="45.497784746" lon="-122.675672302" visible="true"><tag k="addr:housenumber" v="0206"/><tag k="addr:postcode" v="97239"/><tag k="addr:city" v="Portland"/><tag k="addr:street" v="Southwest Curry Street"/></node>
<node id="-95" lat="45.499552324" lon="-122.677450837" visible="true"><tag k="addr:housenumber" v="015"/><tag k="addr:postcode" v="97239"/><tag k="addr:city" v="Portland"/><tag k="addr:street" v="Southwest Gibbs Street"/></node>
<node id="-96" lat="45.499559039" lon="-122.677448306" visible="true"><tag k="addr:housenumber" v="017"/><tag k="addr:postcode" v="97239"/><tag k="addr:city" v="Portland"/><tag k="addr:street" v="Southwest Gibbs Street"/></node>
<node id="-97" lat="45.499573021" lon="-122.679202496" visible="true"><tag k="addr:housenumber" v="101"/><tag k="addr:postcode" v="97239"/><tag k="addr:city" v="Portland"/><tag k="addr:street" v="Southwest Gibbs Street"/></node>
<node id="-98" lat="45.498868981" lon="-122.691017789" visible="true"><tag k="addr:housenumber" v="1032"/><tag k="addr:postcode" v="97239"/><tag k="addr:city" v="Portland"/><tag k="addr:street" v="Southwest Gibbs Street"/></node>
<node id="-99" lat="45.49957056" lon="-122.67920118" visible="true"><tag k="addr:housenumber" v="105"/><tag k="addr:postcode" v="97239"/><tag k="addr:city" v="Portland"/><tag k="addr:street" v="Southwest Gibbs Street"/></node>
<node id="-100" lat="45.498868019" lon="-122.69101642" visible="true"><tag k="addr:housenumber" v="1082"/><tag k="addr:postcode" v="97239"/><tag k="addr:city" v="Portland"/><tag k="addr:street" v="Southwest Gibbs Street"/></node>
<node id="-101" lat="45.498871879" lon="-122.691019891" visible="true"><tag k="addr:housenumber" v="1092"/><tag k="addr:postcode" v="97239"/><tag k="addr:city" v="Portland"/><tag k="addr:street" v="Southwest Gibbs Street"/></node>
<node id="-102" lat="45.499664428" lon="-122.678182419" visible="true"><tag k="addr:housenumber" v="11"/><tag k="addr:postcode" v="97239"/><tag k="addr:city" v="Portland"/><tag k="addr:street" v="Southwest Gibbs Street"/></node>
<node id="-103" lat="45.49925969" lon="-122.69148802" visible="true"><tag k="addr:housenumber" v="1105"/><tag k="addr:postcode" v="97239"/><tag k="addr:city" v="Portland"/><tag k="addr:street" v="Southwest Gibbs Street"/></node>
<node id="-104" lat="45.499252693" lon="-122.691484254" visible="true"><tag k="addr:housenumber" v="1115"/><tag k="addr:postcode" v="97239"/><tag k="addr:city" v="Portland"/><tag k="addr:street" v="Southwest Gibbs Street"/></node>
<node id="-105" lat="45.499254646" lon="-122.691489154" visible="true"><tag k="addr:housenumber" v="1135"/><tag k="addr:postcode" v="97239"/><tag k="addr:city" v="Portland"/><tag k="addr:street" v="Southwest Gibbs Street"/></node>
<node id="-106" lat="45.507162948" lon="-122.684700543" visible="true"><tag k="addr:housenumber" v="612"/><tag k="addr:postcode" v="97201"/><tag k="addr:city" v="Portland"/><tag k="addr:street" v="Southwest Grant Street"/></node>
<node id="-107" lat="45.507159498" lon="-122.684701744" visible="true"><tag k="addr:housenumber" v="616"/><tag k="addr:postcode" v="97201"/><tag k="addr:city" v="Portland"/><tag k="addr:street" v="Southwest Grant Street"/></node>
<node id="-108" lat="45.507161891" lon="-122.68469867" visible="true"><tag k="addr:housenumber" v="618"/><tag k="addr:postcode" v="97201"/><tag k="addr:city" v="Portland"/><tag k="addr:street" v="Southwest Grant Street"/></node>
<node id="-109" lat="45.506922358" lon="-122.686752584" visible="true"><tag k="addr:housenumber" v="2204"/><tag k="addr:postcode" v="97201"/><tag k="addr:city" v="Portland"/><tag k="addr:street" v="Southwest Hoffman Avenue"/></node>
<node id="-110" lat="45.506913591" lon="-122.686758873" visible="true"><tag k="addr:housenumber" v="2206"/><tag k="addr:postcode" v="97201"/><tag k="addr:city" v="Portland"/><tag k="addr:street" v="Southwest Hoffman Avenue"/></node>
<node id="-111" lat="45.506917311" lon="-122.686754838" visible="true"><tag k="addr:housenumber" v="2210"/><tag k="addr:postcode" v="97201"/><tag k="addr:city" v="Portland"/><tag k="addr:street" v="Southwest Hoffman Avenue"/></node>
<node id="-112" lat="45.506922221" lon="-122.686755828" visible="true"><tag k="addr:housenumber" v="2212"/><tag k="addr:postcode" v="97201"/><tag k="addr:city" v="Portland"/><tag k="addr:street" v="Southwest Hoffman Avenue"/></node>
<node id="-113" lat="45.506915795" lon="-122.686752683" visible="true"><tag k="addr:housenumber" v="2214"/><tag k="addr:postcode" v="97201"/><tag k="addr:city" v="Portland"/><tag k="addr:street" v="Southwest Hoffman Avenue"/></node>
<node id="-114" lat="45.506915892" lon="-122.686759058" visible="true"><tag k="addr:housenumber" v="2216"/><tag k="addr:postcode" v="97201"/><tag k="addr:city" v="Portland"/><tag k="addr:street" v="Southwest Hoffman Avenue"/></node>
<node id="-115" lat="45.506922445" lon="-122.686754111" visible="true"><tag k="addr:housenumber" v="2218"/><tag k="addr:postcode" v="97201"/><tag k="addr:city" v="Portland"/><tag k="addr:street" v="Southwest Hoffman Avenue"/></node>
<node id="-116" lat="45.506921089" lon="-122.686750997" visible="true"><tag k="addr:housenumber" v="2220"/><tag k="addr:postcode" v="97201"/><tag k="addr:city" v="Portland"/><tag k="addr:street" v="Southwest Hoffman Avenue"/></node>
<node id="-117" lat="45.50692043" lon="-122.68675179" visible="true"><tag k="addr:housenumber" v="2222"/><tag k="addr:postcode" v="97201"/><tag k="addr:city" v="Portland"/><tag k="addr:street" v="Southwest Hoffman Avenue"/></node>
<node id="-118" lat="45.506566622" lon="-122.686221174" visible="true"><tag k="addr:housenumber" v="2300"/><tag k="addr:postcode" v="97201"/><tag k="addr:city" v="Portland"/><tag k="addr:street" v="Southwest Hoffman Avenue"/></node>
<node id="-119" lat="45.506566517" lon="-122.686215331" visible="true"><tag k="addr:housenumber" v="2310"/><tag k="addr:postcode" v="97201"/><tag k="addr:city" v="Portland"/><tag k="addr:street" v="Southwest Hoffman Avenue"/></node>
<node id="-120" lat="45.506329261" lon="-122.686043579" visible="true"><tag k="addr:housenumber" v="2320"/><tag k="addr:postcode" v="97201"/><tag k="addr:city" v="Portland"/><tag k="addr:street" v="Southwest Hoffman Avenue"/></node>
<node id="-121" lat="45.506327392" lon="-122.686039634" visible="true"><tag k="addr:housenumber" v="2330"/><tag k="addr:postcode" v="97201"/><tag k="addr:city" v="Portland"/><tag k="addr:street" v="Southwest Hoffman Avenue"/></node>
<node id="-122" lat="45.502407222" lon="-122.678094458" visible="true"><tag k="addr:housenumber" v="19"/><tag k="addr:postcode" v="97201"/><tag k="addr:city" v="Portland"/><tag k="addr:street" v="Southwest Hooker Street"/></node>
<node id="-123" lat="45.502406413" lon="-122.678095807" visible="true"><tag k="addr:housenumber" v="21"/><tag k="addr:postcode" v="97201"/><tag k="addr:city" v="Portland"/><tag k="addr:street" v="Southwest Hooker Street"/></node>
<node id="-124" lat="45.499875033" lon="-122.674567137" visible="true"><tag k="addr:housenumber" v="3206"/><tag k="addr:postcode" v="97239"/><tag k="addr:city" v="Portland"/><tag k="addr:street" v="Southwest Kelly Avenue"/></node>
<node id="-125" lat="45.499872106" lon="-122.674563961" visible="true"><tag k="addr:housenumber" v="3208"/><tag k="addr:postcode" v="97239"/><tag k="addr:city" v="Portland"/><tag k="addr:street" v="Southwest Kelly Avenue"/></node>
<node id="-126" lat="45.499118731" lon="-122.674521279" visible="true"><tag k="addr:housenumber" v="3312"/><tag k="addr:postcode" v="97239"/><tag k="addr:city" v="Portland"/><tag k="addr:street" v="Southwest Kelly Avenue"/></node>
<node id="-127" lat="45.49912565" lon="-122.674518709" visible="true"><tag k="addr:housenumber" v="3314"/><tag k="addr:postcode" v="97239"/><tag k="addr:city" v="Portland"/><tag k="addr:street" v="Southwest Kelly Avenue"/></node>
<node id="-128" lat="45.498770365" lon="-122.674531535" visible="true"><tag k="addr:housenumber" v="3328"/><tag k="addr:postcode" v="97239"/><tag k="addr:city" v="Portland"/><tag k="addr:street" v="Southwest Kelly Avenue"/></node>
<node id="-129" lat="45.498769811" lon="-122.674531548" visible="true"><tag k="addr:housenumber" v="3338"/><tag k="addr:postcode" v="97239"/><tag k="addr:city" v="Portland"/><tag k="addr:street" v="Southwest Kelly Avenue"/></node>
<node id="-130" lat="45.498345971" lon="-122.674544829" visible="true"><tag k="addr:housenumber" v="3414"/><tag k="addr:postcode" v="97239"/><tag k="addr:city" v="Portland"/><tag k="addr:street" v="Southwest Kelly Avenue"/></node>
<node id="-131" lat="45.498338509" lon="-122.674548252" visible="true"><tag k="addr:housenumber" v="3416"/><tag k="addr:postcode" v="97239"/><tag k="addr:city" v="Portland"/><tag k="addr:street" v="Southwest Kelly Avenue"/></node>
<node id="-132" lat="45.498341847" lon="-122.674548999" visible="true"><tag k="addr:housenumber" v="3418"/><tag k="addr:postcode" v="97239"/><tag k="addr:city" v="Portland"/><tag k="addr:street" v="Southwest Kelly Avenue"/></node>
<node id="-133" lat="45.498137798" lon="-122.674553314" visible="true"><tag k="addr:housenumber" v="3432"/><tag k="addr:postcode" v="97239"/><tag k="addr:city" v="Portland"/><tag k="addr:street" v="Southwest Kelly Avenue"/></node>
<node id="-134" lat="45.498137224" lon="-122.67454965" visible="true"><tag k="addr:housenumber" v="3434"/><tag k="addr:postcode" v="97239"/><tag k="addr:city" v="Portland"/><tag k="addr:street" v="Southwest Kelly Avenue"/></node>
<node id="-135" lat="45.506593205" lon="-122.690844302" visible="true"><tag k="addr:housenumber" v="1100"/><tag k="addr:postcode" v="97201"/><tag k="addr:city" v="Portland"/><tag k="addr:street" v="Southwest Myrtle Drive"/></node>
<node id="-136" lat="45.506587622" lon="-122.690841932" visible="true"><tag k="addr:housenumber" v="1104"/><tag k="addr:postcode" v="97201"/><tag k="addr:city" v="Portland"/><tag k="addr:street" v="Southwest Myrtle Drive"/></node>
<node id="-137" lat="45.499659768" lon="-122.678181354" visible="true"><tag k="addr:housenumber" v="3223"/><tag k="addr:postcode" v="97239"/><tag k="addr:city" v="Portland"/><tag k="addr:street" v="Southwest Naito Parkway"/></node>
<node id="-138" lat="45.509009191" lon="-122.687199374" visible="true"><tag k="addr:housenumber" v="2055"/><tag k="addr:postcode" v="97201"/><tag k="addr:city" v="Portland"/><tag k="addr:street" v="Southwest Park Avenue"/></node>
<node id="-139" lat="45.509009287" lon="-122.687197725" visible="true"><tag k="addr:housenumber" v="2057"/><tag k="addr:postcode" v="97201"/><tag k="addr:city" v="Portland"/><tag k="addr:street" v="Southwest Park Avenue"/></node>
<node id="-140" lat="45.501362223" lon="-122.677028463" visible="true"><tag k="addr:housenumber" v="022"/><tag k="addr:postcode" v="97201"/><tag k="addr:city" v="Portland"/><tag k="addr:street" v="Southwest Porter Street"/></node>
<node id="-141" lat="45.501366125" lon="-122.677029552" visible="true"><tag k="addr:housenumber" v="024"/><tag k="addr:postcode" v="97201"/><tag k="addr:city" v="Portland"/><tag k="addr:street" v="Southwest Porter Street"/></node>
<node id="-142" lat="45.501364674" lon="-122.676884141" visible="true"><tag k="addr:housenumber" v="030"/><tag k="addr:postcode" v="97201"/><tag k="addr:city" v="Portland"/><tag k="addr:street" v="Southwest Porter Street"/></node>
<node id="-143" lat="45.501366081" lon="-122.676880868" visible="true"><tag k="addr:housenumber" v="032"/><tag k="addr:postcode" v="97201"/><tag k="addr:city" v="Portland"/><tag k="addr:street" v="Southwest Porter Street"/></node>
<node id="-144" lat="45.501344273" lon="-122.676745924" visible="true"><tag k="addr:housenumber" v="036"/><tag k="addr:postcode" v="97201"/><tag k="addr:city" v="Portland"/><tag k="addr:street" v="Southwest Porter Street"/></node>
<node id="-145" lat="45.501342482" lon="-122.676745804" visible="true"><tag k="addr:housenumber" v="038"/><tag k="addr:postcode" v="97201"/><tag k="addr:city" v="Portland"/><tag k="addr:street" v="Southwest Porter Street"/></node>
<node id="-146" lat="45.502462811" lon="-122.689517223" visible="true"><tag k="addr:housenumber" v="2830"/><tag k="addr:postcode" v="97201"/><tag k="addr:city" v="Portland"/><tag k="addr:street" v="Southwest Sam Jackson Park Road"/></node>
<node id="-147" lat="45.502469296" lon="-122.68951514" visible="true"><tag k="addr:housenumber" v="2832"/><tag k="addr:postcode" v="97201"/><tag k="addr:city" v="Portland"/><tag k="addr:street" v="Southwest Sam Jackson Park Road"/></node>
<node id="-148" lat="45.502466371" lon="-122.689514415" visible="true"><tag k="addr:housenumber" v="2834"/><tag k="addr:postcode" v="97201"/><tag k="addr:city" v="Portland"/><tag k="addr:street" v="Southwest Sam Jackson Park Road"/></node>
<node id="-149" lat="45.502469363" lon="-122.689512977" visible="true"><tag k="addr:housenumber" v="2836"/><tag k="addr:postcode" v="97201"/><tag k="addr:city" v="Portland"/><tag k="addr:street" v="Southwest Sam Jackson Park Road"/></node>
<node id="-150" lat="45.502467654" lon="-122.689512698" visible="true"><tag k="addr:housenumber" v="2838"/><tag k="addr:postcode" v="97201"/><tag k="addr:city" v="Portland"/><tag k="addr:street" v="Southwest Sam Jackson Park Road"/></node>
<node id="-151" lat="45.502465752" lon="-122.6895118" visible="true"><tag k="addr:housenumber" v="2840"/><tag k="addr:postcode" v="97201"/><tag k="addr:city" v="Portland"/><tag k="addr:street" v="Southwest Sam Jackson Park Road"/></node>
<node id="-152" lat="45.502466083" lon="-122.689517258" visible="true"><tag k="addr:housenumber" v="2846"/><tag k="addr:postcode" v="97201"/><tag k="addr:city" v="Portland"/><tag k="addr:street" v="Southwest Sam Jackson Park Road"/></node>
<node id="-153" lat="45.504583861" lon="-122.685580505" visible="true"><tag k="addr:housenumber" v="2536"/><tag k="addr:postcode" v="97201"/><tag k="addr:city" v="Portland"/><tag k="addr:street" v="Southwest Sheffield Avenue"/></node>
<node id="-154" lat="45.506431637" lon="-122.684923533" visible="true"><tag k="addr:housenumber" v="626"/><tag k="addr:postcode" v="97201"/><tag k="addr:city" v="Portland"/><tag k="addr:street" v="Southwest Sherman Street"/></node>
<node id="-155" lat="45.506435498" lon="-122.684919728" visible="true"><tag k="addr:housenumber" v="628"/><tag k="addr:postcode" v="97201"/><tag k="addr:city" v="Portland"/><tag k="addr:street" v="Southwest Sherman Street"/></node>
<node id="-156" lat="45.506876753" lon="-122.685192154" visible="true"><tag k="addr:housenumber" v="639"/><tag k="addr:postcode" v="97201"/><tag k="addr:city" v="Portland"/><tag k="addr:street" v="Southwest Sherman Street"/></node>
<node id="-157" lat="45.506876605" lon="-122.685192302" visible="true"><tag k="addr:housenumber" v="641"/><tag k="addr:postcode" v="97201"/><tag k="addr:city" v="Portland"/><tag k="addr:street" v="Southwest Sherman Street"/></node>
<node id="-158" lat="45.506877525" lon="-122.685371494" visible="true"><tag k="addr:housenumber" v="645"/><tag k="addr:postcode" v="97201"/><tag k="addr:city" v="Portland"/><tag k="addr:street" v="Southwest Sherman Street"/></node>
<node id="-159" lat="45.506877506" lon="-122.685363002" visible="true"><tag k="addr:housenumber" v="649"/><tag k="addr:postcode" v="97201"/><tag k="addr:city" v="Portland"/><tag k="addr:street" v="Southwest Sherman Street"/></node>
<node id="-160" lat="45.505924685" lon="-122.685138811" visible="true"><tag k="addr:housenumber" v="2545"/><tag k="addr:postcode" v="97201"/><tag k="addr:city" v="Portland"/><tag k="addr:street" v="Southwest Terwilliger Boulevard"/></node>
<node id="-161" lat="45.498624539" lon="-122.689558269" visible="true"><tag k="addr:housenumber" v="3321"/><tag k="addr:postcode" v="97239"/><tag k="addr:city" v="Portland"/><tag k="addr:street" v="Southwest Us Veterans Hospital Road"/></node>
<node id="-162" lat="45.498623723" lon="-122.689563383" visible="true"><tag k="addr:housenumber" v="3323"/><tag k="addr:postcode" v="97239"/><tag k="addr:city" v="Portland"/><tag k="addr:street" v="Southwest Us Veterans Hospital Road"/></node>
<node id="-163" lat="45.498622736" lon="-122.689557756" visible="true"><tag k="addr:housenumber" v="3325"/><tag k="addr:postcode" v="97239"/><tag k="addr:city" v="Portland"/><tag k="addr:street" v="Southwest Us Veterans Hospital Road"/></node>
<node id="-164" lat="45.498138029" lon="-122.689733874" visible="true"><tag k="addr:housenumber" v="3407"/><tag k="addr:postcode" v="97239"/><tag k="addr:city" v="Portland"/><tag k="addr:street" v="Southwest Us Veterans Hospital Road"/></node>
<node id="-165" lat="45.498134796" lon="-122.689736137" visible="true"><tag k="addr:housenumber" v="3409"/><tag k="addr:postcode" v="97239"/><tag k="addr:city" v="Portland"/><tag k="addr:street" v="Southwest Us Veterans Hospital Road"/></node>
<node id="-166" lat="45.497836602" lon="-122.689909288" visible="true"><tag k="addr:housenumber" v="3425"/><tag k="addr:postcode" v="97239"/><tag k="addr:city" v="Portland"/><tag k="addr:street" v="Southwest Us Veterans Hospital Road"/></node>
<node id="-167" lat="45.497840867" lon="-122.689914776" visible="true"><tag k="addr:housenumber" v="3430"/><tag k="addr:postcode" v="97239"/><tag k="addr:city" v="Portland"/><tag k="addr:street" v="Southwest Us Veterans Hospital Road"/></node>
<node id="-168" lat="45.501218138" lon="-122.67681039" visible="true"><tag k="addr:housenumber" v="3017"/><tag k="addr:postcode" v="97201"/><tag k="addr:city" v="Portland"/><tag k="addr:street" v="Southwest Water Avenue"/></node>
<node id="-169" lat="45.49981201" lon="-122.677148694" visible="true"><tag k="addr:housenumber" v="3213"/><tag k="addr:postcode" v="97239"/><tag k="addr:city" v="Portland"/><tag k="addr:street" v="Southwest Water Avenue"/></node>
<node id="-170" lat="45.499818247" lon="-122.677140401" visible="true"><tag k="addr:housenumber" v="3215"/><tag k="addr:postcode" v="97239"/><tag k="addr:city" v="Portland"/><tag k="addr:street" v="Southwest Water Avenue"/></node>
<node id="-171" lat="45.501212554" lon="-122.676811367" visible="true"><tag k="addr:housenumber" v="3310"/><tag k="addr:postcode" v="97239"/><tag k="addr:city" v="Portland"/><tag k="addr:street" v="Southwest Water Avenue"/></node>
<node id="-172" lat="45.498949997" lon="-122.676550201" visible="true"><tag k="addr:housenumber" v="3312"/><tag k="addr:postcode" v="97239"/><tag k="addr:city" v="Portland"/><tag k="addr:street" v="Southwest Water Avenue"/></node>
<node id="-173" lat="45.499074909" lon="-122.67716775" visible="true"><tag k="addr:housenumber" v="3317"/><tag k="addr:postcode" v="97239"/><tag k="addr:city" v="Portland"/><tag k="addr:street" v="Southwest Water Avenue"/></node>
<node id="-174" lat="45.499075035" lon="-122.677168495" visible="true"><tag k="addr:housenumber" v="3319"/><tag k="addr:postcode" v="97239"/><tag k="addr:city" v="Portland"/><tag k="addr:street" v="Southwest Water Avenue"/></node>
<node id="-175" lat="45.498949231" lon="-122.676551902" visible="true"><tag k="addr:housenumber" v="3322"/><tag k="addr:postcode" v="97239"/><tag k="addr:city" v="Portland"/><tag k="addr:street" v="Southwest Water Avenue"/></node>
<node id="-176" lat="45.498827905" lon="-122.677110344" visible="true"><tag k="addr:housenumber" v="031"/><tag k="addr:postcode" v="97239"/><tag k="addr:city" v="Portland"/><tag k="addr:street" v="Southwest Whitaker Street"/></node>
<node id="-177" lat="45.498824418" lon="-122.677113274" visible="true"><tag k="addr:housenumber" v="033"/><tag k="addr:postcode" v="97239"/><tag k="addr:city" v="Portland"/><tag k="addr:street" v="Southwest Whitaker Street"/></node>
<node id="-178" lat="45.498821193" lon="-122.677110854" visible="true"><tag k="addr:housenumber" v="035"/><tag k="addr:postcode" v="97239"/><tag k="addr:city" v="Portland"/><tag k="addr:street" v="Southwest Whitaker Street"/></node>
<node id="-179" lat="45.49882191" lon="-122.67711319" visible="true"><tag k="addr:housenumber" v="037"/><tag k="addr:postcode" v="97239"/><tag k="addr:city" v="Portland"/><tag k="addr:street" v="Southwest Whitaker Street"/></node>
<node id="-180" lat="45.498545337" lon="-122.691568758" visible="true"><tag k="addr:housenumber" v="1103"/><tag k="addr:postcode" v="97239"/><tag k="addr:city" v="Portland"/><tag k="addr:street" v="Southwest Whitaker Street"/></node>
<node id="-181" lat="45.498548081" lon="-122.691563583" visible="true"><tag k="addr:housenumber" v="1113"/><tag k="addr:postcode" v="97239"/><tag k="addr:city" v="Portland"/><tag k="addr:street" v="Southwest Whitaker Street"/></node>
<node id="-182" lat="45.49854476" lon="-122.691566878" visible="true"><tag k="addr:housenumber" v="1123"/><tag k="addr:postcode" v="97239"/><tag k="addr:city" v="Portland"/><tag k="addr:street" v="Southwest Whitaker Street"/></node>
<node id="-183" lat="45.498549181" lon="-122.691565305" visible="true"><tag k="addr:housenumber" v="1133"/><tag k="addr:postcode" v="97239"/><tag k="addr:city" v="Portland"/><tag k="addr:street" v="Southwest Whitaker Street"/></node>
<node id="-184" lat="45.49855997" lon="-122.691940637" visible="true"><tag k="addr:housenumber" v="1137"/><tag k="addr:postcode" v="97239"/><tag k="addr:city" v="Portland"/><tag k="addr:street" v="Southwest Whitaker Street"/></node>
<node id="-185" lat="45.499025933" lon="-122.680532633" visible="true"><tag k="addr:housenumber" v="225"/><tag k="addr:postcode" v="97239"/><tag k="addr:city" v="Portland"/><tag k="addr:street" v="Southwest Whitaker Street"/></node>
<node id="-186" lat="45.499025816" lon="-122.680523981" visible="true"><tag k="addr:housenumber" v="239"/><tag k="addr:postcode" v="97239"/><tag k="addr:city" v="Portland"/><tag k="addr:street" v="Southwest Whitaker Street"/></node>
<node id="-187" lat="45.500698575" lon="-122.679263885" visible="true"><tag k="addr:housenumber" v="100"/><tag k="addr:postcode" v="97201"/><tag k="addr:city" v="Portland"/><tag k="addr:street" v="Southwest Woods Street"/></node>
<node id="-188" lat="45.500699464" lon="-122.679271129" visible="true"><tag k="addr:housenumber" v="124"/><tag k="addr:postcode" v="97201"/><tag k="addr:city" v="Portland"/><tag k="addr:street" v="Southwest Woods Street"/></node>
<node id="-189" lat="45.500714294" lon="-122.680172545" visible="true"><tag k="addr:housenumber" v="204"/><tag k="addr:postcode" v="97201"/><tag k="addr:city" v="Portland"/><tag k="addr:street" v="Southwest Woods Street"/></node>
<node id="-190" lat="45.500715409" lon="-122.680168838" visible="true"><tag k="addr:housenumber" v="206"/><tag k="addr:postcode" v="97201"/><tag k="addr:city" v="Portland"/><tag k="addr:street" v="Southwest Woods Street"/></node>
<node id="-191" lat="45.500718664" lon="-122.680173822" visible="true"><tag k="addr:housenumber" v="208"/><tag k="addr:postcode" v="97201"/><tag k="addr:city" v="Portland"/><tag k="addr:street" v="Southwest Woods Street"/></node>
<node id="-192" lat="45.501125444" lon="-122.678446493" visible="true"><tag k="addr:housenumber" v="37"/><tag k="addr:postcode" v="97201"/><tag k="addr:city" v="Portland"/><tag k="addr:street" v="Southwest Woods Street"/></node>
</osm>