<?xml version="1.0"?>
<osm version="0.6" upload="false" generator="uvmogr2osm">
<node id="-1" lat="45.475354324" lon="-122.724034082" visible="true"><tag k="addr:housenumber" v="6812"/><tag k="addr:postcode" v="97219"/><tag k="addr:city" v="Portland"/><tag k="addr:street" v="Southwest 46th Avenue"/></node>
<node id="-2" lat="45.464570472" lon="-122.723868101" visible="true"><tag k="addr:housenumber" v="8312"/><tag k="addr:postcode" v="97219"/><tag k="addr:city" v="Portland"/><tag k="addr:street" v="Southwest 46th Avenue"/></node>
<node id="-3" lat="45.464575208" lon="-122.723874757" visible="true"><tag k="addr:housenumber" v="8322"/><tag k="addr:postcode" v="97219"/><tag k="addr:city" v="Portland"/><tag k="addr:street" v="Southwest 46th Avenue"/></node>
<node id="-4" lat="45.46457436" lon="-122.723873314" visible="true"><tag k="addr:housenumber" v="8324"/><tag k="addr:postcode" v="97219"/><tag k="addr:city" v="Portland"/><tag k="addr:street" v="Southwest 46th Avenue"/></node>
<node id="-5" lat="45.464861358" lon="-122.725512454" visible="true"><tag k="addr:housenumber" v="8235"/><tag k="addr:postcode" v="97219"/><tag k="addr:city" v="Portland"/><tag k="addr:street" v="Southwest 47th Avenue"/></node>
<node id="-6" lat="45.464870314" lon="-122.725507147" visible="true"><tag k="addr:housenumber" v="8311"/><tag k="addr:postcode" v="97219"/><tag k="addr:city" v="Portland"/><tag k="addr:street" v="Southwest 47th Avenue"/></node>
<node id="-7" lat="45.469184336" lon="-122.728070242" visible="true"><tag k="addr:housenumber" v="7631"/><tag k="addr:postcode" v="97219"/><tag k="addr:city" v="Portland"/><tag k="addr:street" v="Southwest 50th Avenue"/></node>
<node id="-8" lat="45.469180237" lon="-122.728070211" visible="true"><tag k="addr:housenumber" v="7635"/><tag k="addr:postcode" v="97219"/><tag k="addr:city" v="Portland"/><tag k="addr:street" v="Southwest 50th Avenue"/></node>
<node id="-9" lat="45.471598475" lon="-122.729149476" visible="true"><tag k="addr:housenumber" v="7491"/><tag k="addr:postcode" v="97219"/><tag k="addr:city" v="Portland"/><tag k="addr:street" v="Southwest 51st Avenue"/></node>
<node id="-10" lat="45.469564334" lon="-122.730250357" visible="true"><tag k="addr:housenumber" v="7605"/><tag k="addr:postcode" v="97219"/><tag k="addr:city" v="Portland"/><tag k="addr:street" v="Southwest 51st Place"/></node>
<node id="-11" lat="45.471084123" lon="-122.730993812" visible="true"><tag k="addr:housenumber" v="7431"/><tag k="addr:postcode" v="97219"/><tag k="addr:city" v="Portland"/><tag k="addr:street" v="Southwest 52nd Avenue"/></node>
<node id="-12" lat="45.471077643" lon="-122.730990366" visible="true"><tag k="addr:housenumber" v="7445"/><tag k="addr:postcode" v="97219"/><tag k="addr:city" v="Portland"/><tag k="addr:street" v="Southwest 52nd Avenue"/></node>
<node id="-13" lat="45.472490629" lon="-122.732536189" visible="true"><tag k="addr:housenumber" v="7220"/><tag k="addr:postcode" v="97219"/><tag k="addr:city" v="Portland"/><tag k="addr:street" v="Southwest 54th Avenue"/></node>
<node id="-14" lat="45.47249922" lon="-122.732533822" visible="true"><tag k="addr:housenumber" v="7234"/><tag k="addr:postcode" v="97219"/><tag k="addr:city" v="Portland"/><tag k="addr:street" v="Southwest 54th Avenue"/></node>
<node id="-15" lat="45.47219635" lon="-122.732615041" visible="true"><tag k="addr:housenumber" v="7252"/><tag k="addr:postcode" v="97219"/><tag k="addr:city" v="Portland"/><tag k="addr:street" v="Southwest 54th Avenue"/></node>
<node id="-16" lat="45.472202991" lon="-122.732622105" visible="true"><tag k="addr:housenumber" v="7254"/><tag k="addr:postcode" v="97219"/><tag k="addr:city" v="Portland"/><tag k="addr:street" v="Southwest 54th Avenue"/></node>
<node id="-17" lat="45.465735841" lon="-122.733008764" visible="true"><tag k="addr:housenumber" v="8125"/><tag k="addr:postcode" v="97219"/><tag k="addr:city" v="Portland"/><tag k="addr:street" v="Southwest 54th Avenue"/></node>
<node id="-18" lat="45.465713497" lon="-122.732592903" visible="true"><tag k="addr:housenumber" v="8133"/><tag k="addr:postcode" v="97219"/><tag k="addr:city" v="Portland"/><tag k="addr:street" v="Southwest 54th Avenue"/></node>
<node id="-19" lat="45.465714612" lon="-122.732590661" visible="true"><tag k="addr:housenumber" v="8135"/><tag k="addr:postcode" v="97219"/><tag k="addr:city" v="Portland"/><tag k="addr:street" v="Southwest 54th Avenue"/></node>
<node id="-20" lat="45.463588896" lon="-122.73210921" visible="true"><tag k="addr:housenumber" v="8430"/><tag k="addr:postcode" v="97219"/><tag k="addr:city" v="Portland"/><tag k="addr:street" v="Southwest 54th Avenue"/></node>
<node id="-21" lat="45.463587569" lon="-122.732105755" visible="true"><tag k="addr:housenumber" v="8434"/><tag k="addr:postcode" v="97219"/><tag k="addr:city" v="Portland"/><tag k="addr:street" v="Southwest 54th Avenue"/></node>
<node id="-22" lat="45.475348326" lon="-122.724033842" visible="true"><tag k="addr:housenumber" v="4545"/><tag k="addr:postcode" v="97219"/><tag k="addr:city" v="Portland"/><tag k="addr:street" v="Southwest California Street"/></node>
<node id="-23" lat="45.469864227" lon="-122.727979453" visible="true"><tag k="addr:housenumber" v="5005"/><tag k="addr:postcode" v="97219"/><tag k="addr:city" v="Portland"/><tag k="addr:street" v="Southwest Custer Street"/></node>
<node id="-24" lat="45.469868872" lon="-122.727980035" visible="true"><tag k="addr:housenumber" v="5007"/><tag k="addr:postcode" v="97219"/><tag k="addr:city" v="Portland"/><tag k="addr:street" v="Southwest Custer Street"/></node>
<node id="-25" lat="45.469564767" lon="-122.730253671" visible="true"><tag k="addr:housenumber" v="5172"/><tag k="addr:postcode" v="97219"/><tag k="addr:city" v="Portland"/><tag k="addr:street" v="Southwest Custer Street"/></node>
<node id="-26" lat="45.4657305" lon="-122.733010376" visible="true"><tag k="addr:housenumber" v="5433"/><tag k="addr:postcode" v="97219"/><tag k="addr:city" v="Portland"/><tag k="addr:street" v="Southwest Hume Street"/></node>
<node id="-27" lat="45.471597769" lon="-122.729145234" visible="true"><tag k="addr:housenumber" v="5044"/><tag k="addr:postcode" v="97219"/><tag k="addr:city" v="Portland"/><tag k="addr:street" v="Southwest Miles Street"/></node>
<node id="-28" lat="45.466861128" lon="-122.728642496" visible="true"><tag k="addr:housenumber" v="4910"/><tag k="addr:postcode" v="97219"/><tag k="addr:city" v="Portland"/><tag k="addr:street" v="Southwest Multnomah Boulevard"/></node>
<node id="-29" lat="45.466865992" lon="-122.728637255" visible="true"><tag k="addr:housenumber" v="5090"/><tag k="addr:postcode" v="97219"/><tag k="addr:city" v="Portland"/><tag k="addr:street" v="Southwest Multnomah Boulevard"/></node>
<node id="-30" lat="45.473915112" lon="-122.72942501" visible="true"><tag k="addr:housenumber" v="5110"/><tag k="addr:postcode" v="97219"/><tag k="addr:city" v="Portland"/><tag k="addr:street" v="Southwest Texas Street"/></node>
<node id="-31" lat="45.473911738" lon="-122.729427144" visible="true"><tag k="addr:housenumber" v="5112"/><tag k="addr:postcode" v="97219"/><tag k="addr:city" v="Portland"/><tag k="addr:street" v="Southwest Texas Street"/></node>
<node id="-32" lat="45.475962078" lon="-122.725226821" visible="true"><tag k="addr:housenumber" v="4640"/><tag k="addr:postcode" v="97219"/><tag k="addr:city" v="Portland"/><tag k="addr:street" v="Southwest Vermont Street"/></node>
<node id="-33" lat="45.475962873" lon="-122.725230715" visible="true"><tag k="addr:housenumber" v="4642"/><tag k="addr:postcode" v="97219"/><tag k="addr:city" v="Portland"/><tag k="addr:street" v="Southwest Vermont Street"/></node>
<node id="-34" lat="45.475964659" lon="-122.725230193" visible="true"><tag k="addr:housenumber" v="4644"/><tag k="addr:postcode" v="97219"/><tag k="addr:city" v="Portland"/><tag k="addr:street" v="Southwest Vermont Street"/></node>
<node id="-35" lat="45.475962002" lon="-122.725224834" visible="true"><tag k="addr:housenumber" v="4646"/><tag k="addr:postcode" v="97219"/><tag k="addr:city" v="Portland"/><tag k="addr:street" v="Southwest Vermont Street"/></node>
</osm>