<?xml version="1.0"?>
<osm version="0.6" upload="false" generator="uvmogr2osm">
<node id="-1" lat="45.524682094" lon="-122.689589073" visible="true"><tag k="addr:housenumber" v="221"/><tag k="addr:postcode" v="97209"/><tag k="addr:city" v="Portland"/><tag k="addr:street" v="Northwest 18th Avenue"/></node>
<node id="-2" lat="45.524679512" lon="-122.689596475" visible="true"><tag k="addr:housenumber" v="223"/><tag k="addr:postcode" v="97209"/><tag k="addr:city" v="Portland"/><tag k="addr:street" v="Northwest 18th Avenue"/></node>
<node id="-3" lat="45.524681862" lon="-122.689587562" visible="true"><tag k="addr:housenumber" v="225"/><tag k="addr:postcode" v="97209"/><tag k="addr:city" v="Portland"/><tag k="addr:street" v="Northwest 18th Avenue"/></node>
<node id="-4" lat="45.524680502" lon="-122.68959163" visible="true"><tag k="addr:housenumber" v="227"/><tag k="addr:postcode" v="97209"/><tag k="addr:city" v="Portland"/><tag k="addr:street" v="Northwest 18th Avenue"/></node>
<node id="-5" lat="45.525850672" lon="-122.689578171" visible="true"><tag k="addr:housenumber" v="331"/><tag k="addr:postcode" v="97209"/><tag k="addr:city" v="Portland"/><tag k="addr:street" v="Northwest 18th Avenue"/></node>
<node id="-6" lat="45.525851776" lon="-122.689580073" visible="true"><tag k="addr:housenumber" v="405"/><tag k="addr:postcode" v="97209"/><tag k="addr:city" v="Portland"/><tag k="addr:street" v="Northwest 18th Avenue"/></node>
<node id="-7" lat="45.526553519" lon="-122.689130867" visible="true"><tag k="addr:housenumber" v="504"/><tag k="addr:postcode" v="97209"/><tag k="addr:city" v="Portland"/><tag k="addr:street" v="Northwest 18th Avenue"/></node>
<node id="-8" lat="45.526684572" lon="-122.689662387" visible="true"><tag k="addr:housenumber" v="513"/><tag k="addr:postcode" v="97209"/><tag k="addr:city" v="Portland"/><tag k="addr:street" v="Northwest 18th Avenue"/></node>
<node id="-9" lat="45.526681989" lon="-122.689671151" visible="true"><tag k="addr:housenumber" v="515"/><tag k="addr:postcode" v="97209"/><tag k="addr:city" v="Portland"/><tag k="addr:street" v="Northwest 18th Avenue"/></node>
<node id="-10" lat="45.526550103" lon="-122.689132394" visible="true"><tag k="addr:housenumber" v="535"/><tag k="addr:postcode" v="97209"/><tag k="addr:city" v="Portland"/><tag k="addr:street" v="Northwest 18th Avenue"/></node>
<node id="-11" lat="45.52667212" lon="-122.688916517" visible="true"><tag k="addr:housenumber" v="1721"/><tag k="addr:postcode" v="97209"/><tag k="addr:city" v="Portland"/><tag k="addr:street" v="Northwest Glisan Street"/></node>
<node id="-12" lat="45.52666335" lon="-122.688911576" visible="true"><tag k="addr:housenumber" v="1723"/><tag k="addr:postcode" v="97209"/><tag k="addr:city" v="Portland"/><tag k="addr:street" v="Northwest Glisan Street"/></node>
<node id="-13" lat="45.52030671" lon="-122.662959402" visible="true"><tag k="addr:housenumber" v="333"/><tag k="addr:postcode" v="97214"/><tag k="addr:city" v="Portland"/><tag k="addr:street" v="Southeast 3rd Avenue"/></node>
<node id="-14" lat="45.51993532" lon="-122.663546134" visible="true"><tag k="addr:housenumber" v="204"/><tag k="addr:postcode" v="97214"/><tag k="addr:city" v="Portland"/><tag k="addr:street" v="Southeast Oak Street"/></node>
<node id="-15" lat="45.519930521" lon="-122.663543661" visible="true"><tag k="addr:housenumber" v="208"/><tag k="addr:postcode" v="97214"/><tag k="addr:city" v="Portland"/><tag k="addr:street" v="Southeast Oak Street"/></node>
<node id="-16" lat="45.520311072" lon="-122.662963915" visible="true"><tag k="addr:housenumber" v="239"/><tag k="addr:postcode" v="97214"/><tag k="addr:city" v="Portland"/><tag k="addr:street" v="Southeast Oak Street"/></node>
<node id="-17" lat="45.51957261" lon="-122.682628072" visible="true"><tag k="addr:housenumber" v="711"/><tag k="addr:postcode" v="97205"/><tag k="addr:city" v="Portland"/><tag k="addr:street" v="Southwest 10th Avenue"/></node>
<node id="-18" lat="45.519581688" lon="-122.682632343" visible="true"><tag k="addr:housenumber" v="717"/><tag k="addr:postcode" v="97205"/><tag k="addr:city" v="Portland"/><tag k="addr:street" v="Southwest 10th Avenue"/></node>
<node id="-19" lat="45.519580824" lon="-122.682633346" visible="true"><tag k="addr:housenumber" v="721"/><tag k="addr:postcode" v="97205"/><tag k="addr:city" v="Portland"/><tag k="addr:street" v="Southwest 10th Avenue"/></node>
<node id="-20" lat="45.519575882" lon="-122.682627498" visible="true"><tag k="addr:housenumber" v="725"/><tag k="addr:postcode" v="97205"/><tag k="addr:city" v="Portland"/><tag k="addr:street" v="Southwest 10th Avenue"/></node>
<node id="-21" lat="45.519577368" lon="-122.682637043" visible="true"><tag k="addr:housenumber" v="733"/><tag k="addr:postcode" v="97205"/><tag k="addr:city" v="Portland"/><tag k="addr:street" v="Southwest 10th Avenue"/></node>
<node id="-22" lat="45.519579735" lon="-122.682627312" visible="true"><tag k="addr:housenumber" v="739"/><tag k="addr:postcode" v="97205"/><tag k="addr:city" v="Portland"/><tag k="addr:street" v="Southwest 10th Avenue"/></node>
<node id="-23" lat="45.519931402" lon="-122.68293262" visible="true"><tag k="addr:housenumber" v="712"/><tag k="addr:postcode" v="97205"/><tag k="addr:city" v="Portland"/><tag k="addr:street" v="Southwest 11th Avenue"/></node>
<node id="-24" lat="45.519935385" lon="-122.682931748" visible="true"><tag k="addr:housenumber" v="714"/><tag k="addr:postcode" v="97205"/><tag k="addr:city" v="Portland"/><tag k="addr:street" v="Southwest 11th Avenue"/></node>
<node id="-25" lat="45.515702763" lon="-122.686505663" visible="true"><tag k="addr:housenumber" v="1402"/><tag k="addr:postcode" v="97201"/><tag k="addr:city" v="Portland"/><tag k="addr:street" v="Southwest 12th Avenue"/></node>
<node id="-26" lat="45.515707901" lon="-122.686500032" visible="true"><tag k="addr:housenumber" v="1406"/><tag k="addr:postcode" v="97201"/><tag k="addr:city" v="Portland"/><tag k="addr:street" v="Southwest 12th Avenue"/></node>
<node id="-27" lat="45.519551777" lon="-122.687394367" visible="true"><tag k="addr:housenumber" v="417"/><tag k="addr:postcode" v="97205"/><tag k="addr:city" v="Portland"/><tag k="addr:street" v="Southwest 14th Avenue"/></node>
<node id="-28" lat="45.520325005" lon="-122.686973857" visible="true"><tag k="addr:housenumber" v="711"/><tag k="addr:postcode" v="97205"/><tag k="addr:city" v="Portland"/><tag k="addr:street" v="Southwest 14th Avenue"/></node>
<node id="-29" lat="45.520321751" lon="-122.686974859" visible="true"><tag k="addr:housenumber" v="807"/><tag k="addr:postcode" v="97205"/><tag k="addr:city" v="Portland"/><tag k="addr:street" v="Southwest 14th Avenue"/></node>
<node id="-30" lat="45.519556125" lon="-122.687392817" visible="true"><tag k="addr:housenumber" v="919"/><tag k="addr:postcode" v="97205"/><tag k="addr:city" v="Portland"/><tag k="addr:street" v="Southwest 14th Avenue"/></node>
<node id="-31" lat="45.521103146" lon="-122.686976742" visible="true"><tag k="addr:housenumber" v="714"/><tag k="addr:postcode" v="97205"/><tag k="addr:city" v="Portland"/><tag k="addr:street" v="Southwest 15th Avenue"/></node>
<node id="-32" lat="45.52263779" lon="-122.687879916" visible="true"><tag k="addr:housenumber" v="921"/><tag k="addr:postcode" v="97205"/><tag k="addr:city" v="Portland"/><tag k="addr:street" v="Southwest 16th Avenue"/></node>
<node id="-33" lat="45.519811588" lon="-122.688755153" visible="true"><tag k="addr:housenumber" v="924"/><tag k="addr:postcode" v="97205"/><tag k="addr:city" v="Portland"/><tag k="addr:street" v="Southwest 16th Avenue"/></node>
<node id="-34" lat="45.519812078" lon="-122.688755305" visible="true"><tag k="addr:housenumber" v="931"/><tag k="addr:postcode" v="97205"/><tag k="addr:city" v="Portland"/><tag k="addr:street" v="Southwest 16th Avenue"/></node>
<node id="-35" lat="45.517159134" lon="-122.691928707" visible="true"><tag k="addr:housenumber" v="1405"/><tag k="addr:postcode" v="97201"/><tag k="addr:city" v="Portland"/><tag k="addr:street" v="Southwest 17th Avenue"/></node>
<node id="-36" lat="45.516411897" lon="-122.692851891" visible="true"><tag k="addr:housenumber" v="1518"/><tag k="addr:postcode" v="97201"/><tag k="addr:city" v="Portland"/><tag k="addr:street" v="Southwest 18th Avenue"/></node>
<node id="-37" lat="45.516409629" lon="-122.692854953" visible="true"><tag k="addr:housenumber" v="1520"/><tag k="addr:postcode" v="97201"/><tag k="addr:city" v="Portland"/><tag k="addr:street" v="Southwest 18th Avenue"/></node>
<node id="-38" lat="45.516495121" lon="-122.693473562" visible="true"><tag k="addr:housenumber" v="1525"/><tag k="addr:postcode" v="97201"/><tag k="addr:city" v="Portland"/><tag k="addr:street" v="Southwest 18th Avenue"/></node>
<node id="-39" lat="45.516325754" lon="-122.692969529" visible="true"><tag k="addr:housenumber" v="1526"/><tag k="addr:postcode" v="97201"/><tag k="addr:city" v="Portland"/><tag k="addr:street" v="Southwest 18th Avenue"/></node>
<node id="-40" lat="45.516502635" lon="-122.693468705" visible="true"><tag k="addr:housenumber" v="1527"/><tag k="addr:postcode" v="97201"/><tag k="addr:city" v="Portland"/><tag k="addr:street" v="Southwest 18th Avenue"/></node>
<node id="-41" lat="45.516325632" lon="-122.692967195" visible="true"><tag k="addr:housenumber" v="1528"/><tag k="addr:postcode" v="97201"/><tag k="addr:city" v="Portland"/><tag k="addr:street" v="Southwest 18th Avenue"/></node>
<node id="-42" lat="45.516323381" lon="-122.692969269" visible="true"><tag k="addr:housenumber" v="1530"/><tag k="addr:postcode" v="97201"/><tag k="addr:city" v="Portland"/><tag k="addr:street" v="Southwest 18th Avenue"/></node>
<node id="-43" lat="45.518753255" lon="-122.693228498" visible="true"><tag k="addr:housenumber" v="1202"/><tag k="addr:postcode" v="97205"/><tag k="addr:city" v="Portland"/><tag k="addr:street" v="Southwest 19th Avenue"/></node>
<node id="-44" lat="45.51885218" lon="-122.693640791" visible="true"><tag k="addr:housenumber" v="1205"/><tag k="addr:postcode" v="97205"/><tag k="addr:city" v="Portland"/><tag k="addr:street" v="Southwest 19th Avenue"/></node>
<node id="-45" lat="45.518757306" lon="-122.693231195" visible="true"><tag k="addr:housenumber" v="1206"/><tag k="addr:postcode" v="97205"/><tag k="addr:city" v="Portland"/><tag k="addr:street" v="Southwest 19th Avenue"/></node>
<node id="-46" lat="45.518717798" lon="-122.693713063" visible="true"><tag k="addr:housenumber" v="1217"/><tag k="addr:postcode" v="97205"/><tag k="addr:city" v="Portland"/><tag k="addr:street" v="Southwest 19th Avenue"/></node>
<node id="-47" lat="45.518711542" lon="-122.693715069" visible="true"><tag k="addr:housenumber" v="1219"/><tag k="addr:postcode" v="97205"/><tag k="addr:city" v="Portland"/><tag k="addr:street" v="Southwest 19th Avenue"/></node>
<node id="-48" lat="45.518903524" lon="-122.694265951" visible="true"><tag k="addr:housenumber" v="1210"/><tag k="addr:postcode" v="97205"/><tag k="addr:city" v="Portland"/><tag k="addr:street" v="Southwest 20th Avenue"/></node>
<node id="-49" lat="45.518895287" lon="-122.694270451" visible="true"><tag k="addr:housenumber" v="1212"/><tag k="addr:postcode" v="97205"/><tag k="addr:city" v="Portland"/><tag k="addr:street" v="Southwest 20th Avenue"/></node>
<node id="-50" lat="45.518895682" lon="-122.694274673" visible="true"><tag k="addr:housenumber" v="1214"/><tag k="addr:postcode" v="97205"/><tag k="addr:city" v="Portland"/><tag k="addr:street" v="Southwest 20th Avenue"/></node>
<node id="-51" lat="45.512536688" lon="-122.699033138" visible="true"><tag k="addr:housenumber" v="2045"/><tag k="addr:postcode" v="97201"/><tag k="addr:city" v="Portland"/><tag k="addr:street" v="Southwest 21st Avenue"/></node>
<node id="-52" lat="45.519108847" lon="-122.674691696" visible="true"><tag k="addr:housenumber" v="522"/><tag k="addr:postcode" v="97204"/><tag k="addr:city" v="Portland"/><tag k="addr:street" v="Southwest 3rd Avenue"/></node>
<node id="-53" lat="45.519109677" lon="-122.674692696" visible="true"><tag k="addr:housenumber" v="526"/><tag k="addr:postcode" v="97204"/><tag k="addr:city" v="Portland"/><tag k="addr:street" v="Southwest 3rd Avenue"/></node>
<node id="-54" lat="45.519109744" lon="-122.674693069" visible="true"><tag k="addr:housenumber" v="528"/><tag k="addr:postcode" v="97204"/><tag k="addr:city" v="Portland"/><tag k="addr:street" v="Southwest 3rd Avenue"/></node>
<node id="-55" lat="45.516266758" lon="-122.677191226" visible="true"><tag k="addr:housenumber" v="1024"/><tag k="addr:postcode" v="97204"/><tag k="addr:city" v="Portland"/><tag k="addr:street" v="Southwest 4th Avenue"/></node>
<node id="-56" lat="45.519435632" lon="-122.681093262" visible="true"><tag k="addr:housenumber" v="710"/><tag k="addr:postcode" v="97205"/><tag k="addr:city" v="Portland"/><tag k="addr:street" v="Southwest 9th Avenue"/></node>
<node id="-57" lat="45.519350335" lon="-122.681031086" visible="true"><tag k="addr:housenumber" v="720"/><tag k="addr:postcode" v="97205"/><tag k="addr:city" v="Portland"/><tag k="addr:street" v="Southwest 9th Avenue"/></node>
<node id="-58" lat="45.519443064" lon="-122.681089365" visible="true"><tag k="addr:housenumber" v="722"/><tag k="addr:postcode" v="97205"/><tag k="addr:city" v="Portland"/><tag k="addr:street" v="Southwest 9th Avenue"/></node>
<node id="-59" lat="45.519348195" lon="-122.681035431" visible="true"><tag k="addr:housenumber" v="728"/><tag k="addr:postcode" v="97205"/><tag k="addr:city" v="Portland"/><tag k="addr:street" v="Southwest 9th Avenue"/></node>
<node id="-60" lat="45.519181798" lon="-122.681230832" visible="true"><tag k="addr:housenumber" v="732"/><tag k="addr:postcode" v="97205"/><tag k="addr:city" v="Portland"/><tag k="addr:street" v="Southwest 9th Avenue"/></node>
<node id="-61" lat="45.519354191" lon="-122.681034871" visible="true"><tag k="addr:housenumber" v="750"/><tag k="addr:postcode" v="97205"/><tag k="addr:city" v="Portland"/><tag k="addr:street" v="Southwest 9th Avenue"/></node>
<node id="-62" lat="45.519352334" lon="-122.681036737" visible="true"><tag k="addr:housenumber" v="760"/><tag k="addr:postcode" v="97205"/><tag k="addr:city" v="Portland"/><tag k="addr:street" v="Southwest 9th Avenue"/></node>
<node id="-63" lat="45.519351393" lon="-122.681037514" visible="true"><tag k="addr:housenumber" v="780"/><tag k="addr:postcode" v="97205"/><tag k="addr:city" v="Portland"/><tag k="addr:street" v="Southwest 9th Avenue"/></node>
<node id="-64" lat="45.522717007" lon="-122.688447927" visible="true"><tag k="addr:housenumber" v="1633"/><tag k="addr:postcode" v="97205"/><tag k="addr:city" v="Portland"/><tag k="addr:street" v="Southwest Alder Street"/></node>
<node id="-65" lat="45.522716926" lon="-122.688448597" visible="true"><tag k="addr:housenumber" v="1635"/><tag k="addr:postcode" v="97205"/><tag k="addr:city" v="Portland"/><tag k="addr:street" v="Southwest Alder Street"/></node>
<node id="-66" lat="45.522713638" lon="-122.688456109" visible="true"><tag k="addr:housenumber" v="1637"/><tag k="addr:postcode" v="97205"/><tag k="addr:city" v="Portland"/><tag k="addr:street" v="Southwest Alder Street"/></node>
<node id="-67" lat="45.514719923" lon="-122.694776718" visible="true"><tag k="addr:housenumber" v="1827"/><tag k="addr:postcode" v="97201"/><tag k="addr:city" v="Portland"/><tag k="addr:street" v="Southwest Cable Avenue"/></node>
<node id="-68" lat="45.514716891" lon="-122.694782357" visible="true"><tag k="addr:housenumber" v="1829"/><tag k="addr:postcode" v="97201"/><tag k="addr:city" v="Portland"/><tag k="addr:street" v="Southwest Cable Avenue"/></node>
<node id="-69" lat="45.519433745" lon="-122.697524549" visible="true"><tag k="addr:housenumber" v="2245"/><tag k="addr:postcode" v="97201"/><tag k="addr:city" v="Portland"/><tag k="addr:street" v="Southwest Canyon Road"/></node>
<node id="-70" lat="45.519431038" lon="-122.697524174" visible="true"><tag k="addr:housenumber" v="2255"/><tag k="addr:postcode" v="97201"/><tag k="addr:city" v="Portland"/><tag k="addr:street" v="Southwest Canyon Road"/></node>
<node id="-71" lat="45.519106564" lon="-122.698716988" visible="true"><tag k="addr:housenumber" v="2340"/><tag k="addr:postcode" v="97201"/><tag k="addr:city" v="Portland"/><tag k="addr:street" v="Southwest Canyon Road"/></node>
<node id="-72" lat="45.514634555" lon="-122.685397342" visible="true"><tag k="addr:housenumber" v="1016"/><tag k="addr:postcode" v="97201"/><tag k="addr:city" v="Portland"/><tag k="addr:street" v="Southwest Clay Street"/></node>
<node id="-73" lat="45.514630237" lon="-122.685396321" visible="true"><tag k="addr:housenumber" v="1020"/><tag k="addr:postcode" v="97201"/><tag k="addr:city" v="Portland"/><tag k="addr:street" v="Southwest Clay Street"/></node>
<node id="-74" lat="45.516755413" lon="-122.692124371" visible="true"><tag k="addr:housenumber" v="1703"/><tag k="addr:postcode" v="97201"/><tag k="addr:city" v="Portland"/><tag k="addr:street" v="Southwest Clay Street"/></node>
<node id="-75" lat="45.516754443" lon="-122.692133244" visible="true"><tag k="addr:housenumber" v="1705"/><tag k="addr:postcode" v="97201"/><tag k="addr:city" v="Portland"/><tag k="addr:street" v="Southwest Clay Street"/></node>
<node id="-76" lat="45.512536406" lon="-122.699036155" visible="true"><tag k="addr:housenumber" v="2105"/><tag k="addr:postcode" v="97201"/><tag k="addr:city" v="Portland"/><tag k="addr:street" v="Southwest Clifton Street"/></node>
<node id="-77" lat="45.516978676" lon="-122.689432564" visible="true"><tag k="addr:housenumber" v="1437"/><tag k="addr:postcode" v="97201"/><tag k="addr:city" v="Portland"/><tag k="addr:street" v="Southwest Columbia Street"/></node>
<node id="-78" lat="45.516978149" lon="-122.6894315" visible="true"><tag k="addr:housenumber" v="1439"/><tag k="addr:postcode" v="97201"/><tag k="addr:city" v="Portland"/><tag k="addr:street" v="Southwest Columbia Street"/></node>
<node id="-79" lat="45.516981233" lon="-122.689434072" visible="true"><tag k="addr:housenumber" v="1441"/><tag k="addr:postcode" v="97201"/><tag k="addr:city" v="Portland"/><tag k="addr:street" v="Southwest Columbia Street"/></node>
<node id="-80" lat="45.51701606" lon="-122.689964235" visible="true"><tag k="addr:housenumber" v="1513"/><tag k="addr:postcode" v="97201"/><tag k="addr:city" v="Portland"/><tag k="addr:street" v="Southwest Columbia Street"/></node>
<node id="-81" lat="45.517020336" lon="-122.689963397" visible="true"><tag k="addr:housenumber" v="1515"/><tag k="addr:postcode" v="97201"/><tag k="addr:city" v="Portland"/><tag k="addr:street" v="Southwest Columbia Street"/></node>
<node id="-82" lat="45.517046117" lon="-122.690084507" visible="true"><tag k="addr:housenumber" v="1517"/><tag k="addr:postcode" v="97201"/><tag k="addr:city" v="Portland"/><tag k="addr:street" v="Southwest Columbia Street"/></node>
<node id="-83" lat="45.517041246" lon="-122.690085959" visible="true"><tag k="addr:housenumber" v="1518"/><tag k="addr:postcode" v="97201"/><tag k="addr:city" v="Portland"/><tag k="addr:street" v="Southwest Columbia Street"/></node>
<node id="-84" lat="45.517050048" lon="-122.690085637" visible="true"><tag k="addr:housenumber" v="1519"/><tag k="addr:postcode" v="97201"/><tag k="addr:city" v="Portland"/><tag k="addr:street" v="Southwest Columbia Street"/></node>
<node id="-85" lat="45.517166295" lon="-122.691927613" visible="true"><tag k="addr:housenumber" v="1700"/><tag k="addr:postcode" v="97201"/><tag k="addr:city" v="Portland"/><tag k="addr:street" v="Southwest Columbia Street"/></node>
<node id="-86" lat="45.517166937" lon="-122.691931181" visible="true"><tag k="addr:housenumber" v="1708"/><tag k="addr:postcode" v="97201"/><tag k="addr:city" v="Portland"/><tag k="addr:street" v="Southwest Columbia Street"/></node>
<node id="-87" lat="45.51270387" lon="-122.691217335" visible="true"><tag k="addr:housenumber" v="1409"/><tag k="addr:postcode" v="97201"/><tag k="addr:city" v="Portland"/><tag k="addr:street" v="Southwest Hall Street"/></node>
<node id="-88" lat="45.51269685" lon="-122.691222528" visible="true"><tag k="addr:housenumber" v="1411"/><tag k="addr:postcode" v="97201"/><tag k="addr:city" v="Portland"/><tag k="addr:street" v="Southwest Hall Street"/></node>
<node id="-89" lat="45.512703692" lon="-122.691223999" visible="true"><tag k="addr:housenumber" v="1415"/><tag k="addr:postcode" v="97201"/><tag k="addr:city" v="Portland"/><tag k="addr:street" v="Southwest Hall Street"/></node>
<node id="-90" lat="45.512808123" lon="-122.691355709" visible="true"><tag k="addr:housenumber" v="1421"/><tag k="addr:postcode" v="97201"/><tag k="addr:city" v="Portland"/><tag k="addr:street" v="Southwest Hall Street"/></node>
<node id="-91" lat="45.512805191" lon="-122.691361563" visible="true"><tag k="addr:housenumber" v="1422"/><tag k="addr:postcode" v="97201"/><tag k="addr:city" v="Portland"/><tag k="addr:street" v="Southwest Hall Street"/></node>
<node id="-92" lat="45.512810142" lon="-122.691362313" visible="true"><tag k="addr:housenumber" v="1423"/><tag k="addr:postcode" v="97201"/><tag k="addr:city" v="Portland"/><tag k="addr:street" v="Southwest Hall Street"/></node>
<node id="-93" lat="45.512814157" lon="-122.691362451" visible="true"><tag k="addr:housenumber" v="1424"/><tag k="addr:postcode" v="97201"/><tag k="addr:city" v="Portland"/><tag k="addr:street" v="Southwest Hall Street"/></node>
<node id="-94" lat="45.512810719" lon="-122.691360019" visible="true"><tag k="addr:housenumber" v="1425"/><tag k="addr:postcode" v="97201"/><tag k="addr:city" v="Portland"/><tag k="addr:street" v="Southwest Hall Street"/></node>
<node id="-95" lat="45.512860424" lon="-122.691559951" visible="true"><tag k="addr:housenumber" v="1433"/><tag k="addr:postcode" v="97201"/><tag k="addr:city" v="Portland"/><tag k="addr:street" v="Southwest Hall Street"/></node>
<node id="-96" lat="45.512867115" lon="-122.691564842" visible="true"><tag k="addr:housenumber" v="1435"/><tag k="addr:postcode" v="97201"/><tag k="addr:city" v="Portland"/><tag k="addr:street" v="Southwest Hall Street"/></node>
<node id="-97" lat="45.512862209" lon="-122.691559119" visible="true"><tag k="addr:housenumber" v="1437"/><tag k="addr:postcode" v="97201"/><tag k="addr:city" v="Portland"/><tag k="addr:street" v="Southwest Hall Street"/></node>
<node id="-98" lat="45.513123842" lon="-122.692272369" visible="true"><tag k="addr:housenumber" v="1511"/><tag k="addr:postcode" v="97201"/><tag k="addr:city" v="Portland"/><tag k="addr:street" v="Southwest Hall Street"/></node>
<node id="-99" lat="45.513125328" lon="-122.692270611" visible="true"><tag k="addr:housenumber" v="1513"/><tag k="addr:postcode" v="97201"/><tag k="addr:city" v="Portland"/><tag k="addr:street" v="Southwest Hall Street"/></node>
<node id="-100" lat="45.513069052" lon="-122.691223353" visible="true"><tag k="addr:housenumber" v="1422"/><tag k="addr:postcode" v="97201"/><tag k="addr:city" v="Portland"/><tag k="addr:street" v="Southwest Harrison Street"/></node>
<node id="-101" lat="45.513067469" lon="-122.69121964" visible="true"><tag k="addr:housenumber" v="1426"/><tag k="addr:postcode" v="97201"/><tag k="addr:city" v="Portland"/><tag k="addr:street" v="Southwest Harrison Street"/></node>
<node id="-102" lat="45.51355989" lon="-122.691326648" visible="true"><tag k="addr:housenumber" v="1441"/><tag k="addr:postcode" v="97201"/><tag k="addr:city" v="Portland"/><tag k="addr:street" v="Southwest Harrison Street"/></node>
<node id="-103" lat="45.513562072" lon="-122.691326779" visible="true"><tag k="addr:housenumber" v="1445"/><tag k="addr:postcode" v="97201"/><tag k="addr:city" v="Portland"/><tag k="addr:street" v="Southwest Harrison Street"/></node>
<node id="-104" lat="45.513556029" lon="-122.691529913" visible="true"><tag k="addr:housenumber" v="1501"/><tag k="addr:postcode" v="97201"/><tag k="addr:city" v="Portland"/><tag k="addr:street" v="Southwest Harrison Street"/></node>
<node id="-105" lat="45.513260782" lon="-122.691923805" visible="true"><tag k="addr:housenumber" v="1518"/><tag k="addr:postcode" v="97201"/><tag k="addr:city" v="Portland"/><tag k="addr:street" v="Southwest Harrison Street"/></node>
<node id="-106" lat="45.513262014" lon="-122.691921157" visible="true"><tag k="addr:housenumber" v="1520"/><tag k="addr:postcode" v="97201"/><tag k="addr:city" v="Portland"/><tag k="addr:street" v="Southwest Harrison Street"/></node>
<node id="-107" lat="45.513257563" lon="-122.691924082" visible="true"><tag k="addr:housenumber" v="1522"/><tag k="addr:postcode" v="97201"/><tag k="addr:city" v="Portland"/><tag k="addr:street" v="Southwest Harrison Street"/></node>
<node id="-108" lat="45.517542852" lon="-122.69112848" visible="true"><tag k="addr:housenumber" v="1610"/><tag k="addr:postcode" v="97201"/><tag k="addr:city" v="Portland"/><tag k="addr:street" v="Southwest Jefferson Street"/></node>
<node id="-109" lat="45.517547867" lon="-122.69113348" visible="true"><tag k="addr:housenumber" v="1612"/><tag k="addr:postcode" v="97201"/><tag k="addr:city" v="Portland"/><tag k="addr:street" v="Southwest Jefferson Street"/></node>
<node id="-110" lat="45.51754371" lon="-122.69113345" visible="true"><tag k="addr:housenumber" v="1636"/><tag k="addr:postcode" v="97201"/><tag k="addr:city" v="Portland"/><tag k="addr:street" v="Southwest Jefferson Street"/></node>
<node id="-111" lat="45.518059038" lon="-122.691550551" visible="true"><tag k="addr:housenumber" v="1701"/><tag k="addr:postcode" v="97201"/><tag k="addr:city" v="Portland"/><tag k="addr:street" v="Southwest Jefferson Street"/></node>
<node id="-112" lat="45.518060826" lon="-122.691549422" visible="true"><tag k="addr:housenumber" v="1707"/><tag k="addr:postcode" v="97201"/><tag k="addr:city" v="Portland"/><tag k="addr:street" v="Southwest Jefferson Street"/></node>
<node id="-113" lat="45.518057436" lon="-122.691545176" visible="true"><tag k="addr:housenumber" v="1711"/><tag k="addr:postcode" v="97201"/><tag k="addr:city" v="Portland"/><tag k="addr:street" v="Southwest Jefferson Street"/></node>
<node id="-114" lat="45.519434536" lon="-122.697529395" visible="true"><tag k="addr:housenumber" v="2245"/><tag k="addr:postcode" v="97201"/><tag k="addr:city" v="Portland"/><tag k="addr:street" v="Southwest Jefferson Street"/></node>
<node id="-115" lat="45.519428692" lon="-122.697523429" visible="true"><tag k="addr:housenumber" v="2251"/><tag k="addr:postcode" v="97201"/><tag k="addr:city" v="Portland"/><tag k="addr:street" v="Southwest Jefferson Street"/></node>
<node id="-116" lat="45.519434357" lon="-122.697524393" visible="true"><tag k="addr:housenumber" v="2255"/><tag k="addr:postcode" v="97201"/><tag k="addr:city" v="Portland"/><tag k="addr:street" v="Southwest Jefferson Street"/></node>
<node id="-117" lat="45.519110604" lon="-122.698724978" visible="true"><tag k="addr:housenumber" v="2321"/><tag k="addr:postcode" v="97201"/><tag k="addr:city" v="Portland"/><tag k="addr:street" v="Southwest Jefferson Street"/></node>
<node id="-118" lat="45.519105768" lon="-122.698719404" visible="true"><tag k="addr:housenumber" v="2329"/><tag k="addr:postcode" v="97201"/><tag k="addr:city" v="Portland"/><tag k="addr:street" v="Southwest Jefferson Street"/></node>
<node id="-119" lat="45.518749299" lon="-122.693230777" visible="true"><tag k="addr:housenumber" v="1888"/><tag k="addr:postcode" v="97205"/><tag k="addr:city" v="Portland"/><tag k="addr:street" v="Southwest Madison Street"/></node>
<node id="-120" lat="45.51885039" lon="-122.693641854" visible="true"><tag k="addr:housenumber" v="1906"/><tag k="addr:postcode" v="97205"/><tag k="addr:city" v="Portland"/><tag k="addr:street" v="Southwest Madison Street"/></node>
<node id="-121" lat="45.518955545" lon="-122.694033302" visible="true"><tag k="addr:housenumber" v="1924"/><tag k="addr:postcode" v="97205"/><tag k="addr:city" v="Portland"/><tag k="addr:street" v="Southwest Madison Street"/></node>
<node id="-122" lat="45.518958049" lon="-122.694038692" visible="true"><tag k="addr:housenumber" v="1926"/><tag k="addr:postcode" v="97205"/><tag k="addr:city" v="Portland"/><tag k="addr:street" v="Southwest Madison Street"/></node>
<node id="-123" lat="45.519378904" lon="-122.692638958" visible="true"><tag k="addr:housenumber" v="1824"/><tag k="addr:postcode" v="97205"/><tag k="addr:city" v="Portland"/><tag k="addr:street" v="Southwest Main Street"/></node>
<node id="-124" lat="45.519381475" lon="-122.692640604" visible="true"><tag k="addr:housenumber" v="1826"/><tag k="addr:postcode" v="97205"/><tag k="addr:city" v="Portland"/><tag k="addr:street" v="Southwest Main Street"/></node>
<node id="-125" lat="45.515671732" lon="-122.690630347" visible="true"><tag k="addr:housenumber" v="1511"/><tag k="addr:postcode" v="97201"/><tag k="addr:city" v="Portland"/><tag k="addr:street" v="Southwest Market Street"/></node>
<node id="-126" lat="45.515670764" lon="-122.690635886" visible="true"><tag k="addr:housenumber" v="1513"/><tag k="addr:postcode" v="97201"/><tag k="addr:city" v="Portland"/><tag k="addr:street" v="Southwest Market Street"/></node>
<node id="-127" lat="45.515668554" lon="-122.690634541" visible="true"><tag k="addr:housenumber" v="1531"/><tag k="addr:postcode" v="97201"/><tag k="addr:city" v="Portland"/><tag k="addr:street" v="Southwest Market Street"/></node>
<node id="-128" lat="45.516151951" lon="-122.692682894" visible="true"><tag k="addr:housenumber" v="1713"/><tag k="addr:postcode" v="97201"/><tag k="addr:city" v="Portland"/><tag k="addr:street" v="Southwest Market Street"/></node>
<node id="-129" lat="45.516153002" lon="-122.692685686" visible="true"><tag k="addr:housenumber" v="1715"/><tag k="addr:postcode" v="97201"/><tag k="addr:city" v="Portland"/><tag k="addr:street" v="Southwest Market Street"/></node>
<node id="-130" lat="45.516144758" lon="-122.692687783" visible="true"><tag k="addr:housenumber" v="1717"/><tag k="addr:postcode" v="97201"/><tag k="addr:city" v="Portland"/><tag k="addr:street" v="Southwest Market Street"/></node>
<node id="-131" lat="45.516212807" lon="-122.692820806" visible="true"><tag k="addr:housenumber" v="1723"/><tag k="addr:postcode" v="97201"/><tag k="addr:city" v="Portland"/><tag k="addr:street" v="Southwest Market Street"/></node>
<node id="-132" lat="45.516218855" lon="-122.69281744" visible="true"><tag k="addr:housenumber" v="1725"/><tag k="addr:postcode" v="97201"/><tag k="addr:city" v="Portland"/><tag k="addr:street" v="Southwest Market Street"/></node>
<node id="-133" lat="45.515908634" lon="-122.693130802" visible="true"><tag k="addr:housenumber" v="1726"/><tag k="addr:postcode" v="97201"/><tag k="addr:city" v="Portland"/><tag k="addr:street" v="Southwest Market Street"/></node>
<node id="-134" lat="45.51591271" lon="-122.693123185" visible="true"><tag k="addr:housenumber" v="1730"/><tag k="addr:postcode" v="97201"/><tag k="addr:city" v="Portland"/><tag k="addr:street" v="Southwest Market Street"/></node>
<node id="-135" lat="45.516244524" lon="-122.693082666" visible="true"><tag k="addr:housenumber" v="1737"/><tag k="addr:postcode" v="97201"/><tag k="addr:city" v="Portland"/><tag k="addr:street" v="Southwest Market Street"/></node>
<node id="-136" lat="45.516250067" lon="-122.693082117" visible="true"><tag k="addr:housenumber" v="1739"/><tag k="addr:postcode" v="97201"/><tag k="addr:city" v="Portland"/><tag k="addr:street" v="Southwest Market Street"/></node>
<node id="-137" lat="45.518362574" lon="-122.699765949" visible="true"><tag k="addr:housenumber" v="2364"/><tag k="addr:postcode" v="97201"/><tag k="addr:city" v="Portland"/><tag k="addr:street" v="Southwest Market Street Drive"/></node>
<node id="-138" lat="45.518365057" lon="-122.699771857" visible="true"><tag k="addr:housenumber" v="2366"/><tag k="addr:postcode" v="97201"/><tag k="addr:city" v="Portland"/><tag k="addr:street" v="Southwest Market Street Drive"/></node>
<node id="-139" lat="45.515151056" lon="-122.694779369" visible="true"><tag k="addr:housenumber" v="1838"/><tag k="addr:postcode" v="97201"/><tag k="addr:city" v="Portland"/><tag k="addr:street" v="Southwest Mill Street Terrace"/></node>
<node id="-140" lat="45.515157364" lon="-122.694781888" visible="true"><tag k="addr:housenumber" v="1840"/><tag k="addr:postcode" v="97201"/><tag k="addr:city" v="Portland"/><tag k="addr:street" v="Southwest Mill Street Terrace"/></node>
<node id="-141" lat="45.516360763" lon="-122.697634794" visible="true"><tag k="addr:housenumber" v="1777"/><tag k="addr:postcode" v="97201"/><tag k="addr:city" v="Portland"/><tag k="addr:street" v="Southwest Montgomery Drive"/></node>
<node id="-142" lat="45.51356064" lon="-122.691525492" visible="true"><tag k="addr:housenumber" v="1502"/><tag k="addr:postcode" v="97201"/><tag k="addr:city" v="Portland"/><tag k="addr:street" v="Southwest Montgomery Street"/></node>
<node id="-143" lat="45.520057458" lon="-122.682867895" visible="true"><tag k="addr:housenumber" v="1022"/><tag k="addr:postcode" v="97205"/><tag k="addr:city" v="Portland"/><tag k="addr:street" v="Southwest Morrison Street"/></node>
<node id="-144" lat="45.520058178" lon="-122.682866422" visible="true"><tag k="addr:housenumber" v="1026"/><tag k="addr:postcode" v="97205"/><tag k="addr:city" v="Portland"/><tag k="addr:street" v="Southwest Morrison Street"/></node>
<node id="-145" lat="45.520062625" lon="-122.68286002" visible="true"><tag k="addr:housenumber" v="1030"/><tag k="addr:postcode" v="97205"/><tag k="addr:city" v="Portland"/><tag k="addr:street" v="Southwest Morrison Street"/></node>
<node id="-146" lat="45.520055477" lon="-122.682868989" visible="true"><tag k="addr:housenumber" v="1032"/><tag k="addr:postcode" v="97205"/><tag k="addr:city" v="Portland"/><tag k="addr:street" v="Southwest Morrison Street"/></node>
<node id="-147" lat="45.520061454" lon="-122.682864098" visible="true"><tag k="addr:housenumber" v="1038"/><tag k="addr:postcode" v="97205"/><tag k="addr:city" v="Portland"/><tag k="addr:street" v="Southwest Morrison Street"/></node>
<node id="-148" lat="45.521101139" lon="-122.686984077" visible="true"><tag k="addr:housenumber" v="1424"/><tag k="addr:postcode" v="97205"/><tag k="addr:city" v="Portland"/><tag k="addr:street" v="Southwest Morrison Street"/></node>
<node id="-149" lat="45.521095241" lon="-122.686980736" visible="true"><tag k="addr:housenumber" v="1434"/><tag k="addr:postcode" v="97205"/><tag k="addr:city" v="Portland"/><tag k="addr:street" v="Southwest Morrison Street"/></node>
<node id="-150" lat="45.519352719" lon="-122.681035793" visible="true"><tag k="addr:housenumber" v="800"/><tag k="addr:postcode" v="97205"/><tag k="addr:city" v="Portland"/><tag k="addr:street" v="Southwest Morrison Street"/></node>
<node id="-151" lat="45.519347015" lon="-122.681036801" visible="true"><tag k="addr:housenumber" v="816"/><tag k="addr:postcode" v="97205"/><tag k="addr:city" v="Portland"/><tag k="addr:street" v="Southwest Morrison Street"/></node>
<node id="-152" lat="45.519352118" lon="-122.681035961" visible="true"><tag k="addr:housenumber" v="820"/><tag k="addr:postcode" v="97205"/><tag k="addr:city" v="Portland"/><tag k="addr:street" v="Southwest Morrison Street"/></node>
<node id="-153" lat="45.519353458" lon="-122.681036826" visible="true"><tag k="addr:housenumber" v="850"/><tag k="addr:postcode" v="97205"/><tag k="addr:city" v="Portland"/><tag k="addr:street" v="Southwest Morrison Street"/></node>
<node id="-154" lat="45.519194645" lon="-122.681012604" visible="true"><tag k="addr:housenumber" v="723"/><tag k="addr:postcode" v="97205"/><tag k="addr:city" v="Portland"/><tag k="addr:street" v="Southwest Park Avenue"/></node>
<node id="-155" lat="45.519194329" lon="-122.68101015" visible="true"><tag k="addr:housenumber" v="725"/><tag k="addr:postcode" v="97205"/><tag k="addr:city" v="Portland"/><tag k="addr:street" v="Southwest Park Avenue"/></node>
<node id="-156" lat="45.519199448" lon="-122.681014473" visible="true"><tag k="addr:housenumber" v="735"/><tag k="addr:postcode" v="97205"/><tag k="addr:city" v="Portland"/><tag k="addr:street" v="Southwest Park Avenue"/></node>
<node id="-157" lat="45.519192756" lon="-122.681010428" visible="true"><tag k="addr:housenumber" v="739"/><tag k="addr:postcode" v="97205"/><tag k="addr:city" v="Portland"/><tag k="addr:street" v="Southwest Park Avenue"/></node>
<node id="-158" lat="45.516360441" lon="-122.697636087" visible="true"><tag k="addr:housenumber" v="1775"/><tag k="addr:postcode" v="97201"/><tag k="addr:city" v="Portland"/><tag k="addr:street" v="Southwest Prospect Drive"/></node>
<node id="-159" lat="45.516270772" lon="-122.677188561" visible="true"><tag k="addr:housenumber" v="350"/><tag k="addr:postcode" v="97204"/><tag k="addr:city" v="Portland"/><tag k="addr:street" v="Southwest Salmon Street"/></node>
<node id="-160" lat="45.520863539" lon="-122.690318455" visible="true"><tag k="addr:housenumber" v="1710"/><tag k="addr:postcode" v="97205"/><tag k="addr:city" v="Portland"/><tag k="addr:street" v="Southwest Taylor Street"/></node>
<node id="-161" lat="45.520861784" lon="-122.690321082" visible="true"><tag k="addr:housenumber" v="1723"/><tag k="addr:postcode" v="97205"/><tag k="addr:city" v="Portland"/><tag k="addr:street" v="Southwest Taylor Street"/></node>
<node id="-162" lat="45.520866399" lon="-122.69031683" visible="true"><tag k="addr:housenumber" v="1730"/><tag k="addr:postcode" v="97205"/><tag k="addr:city" v="Portland"/><tag k="addr:street" v="Southwest Taylor Street"/></node>
<node id="-163" lat="45.513127591" lon="-122.692270662" visible="true"><tag k="addr:housenumber" v="1511"/><tag k="addr:postcode" v="97201"/><tag k="addr:city" v="Portland"/><tag k="addr:street" v="Southwest Upper Hall Street"/></node>
<node id="-164" lat="45.513125121" lon="-122.692271823" visible="true"><tag k="addr:housenumber" v="1513"/><tag k="addr:postcode" v="97201"/><tag k="addr:city" v="Portland"/><tag k="addr:street" v="Southwest Upper Hall Street"/></node>
<node id="-165" lat="45.515730116" lon="-122.696435525" visible="true"><tag k="addr:housenumber" v="1720"/><tag k="addr:postcode" v="97201"/><tag k="addr:city" v="Portland"/><tag k="addr:street" v="Southwest Vista Avenue"/></node>
<node id="-166" lat="45.51573584" lon="-122.696430735" visible="true"><tag k="addr:housenumber" v="1722"/><tag k="addr:postcode" v="97201"/><tag k="addr:city" v="Portland"/><tag k="addr:street" v="Southwest Vista Avenue"/></node>
<node id="-167" lat="45.519766689" lon="-122.683076452" visible="true"><tag k="addr:housenumber" v="1033"/><tag k="addr:postcode" v="97205"/><tag k="addr:city" v="Portland"/><tag k="addr:street" v="Southwest Yamhill Street"/></node>
<node id="-168" lat="45.519761911" lon="-122.683069904" visible="true"><tag k="addr:housenumber" v="1035"/><tag k="addr:postcode" v="97205"/><tag k="addr:city" v="Portland"/><tag k="addr:street" v="Southwest Yamhill Street"/></node>
<node id="-169" lat="45.519353222" lon="-122.681031074" visible="true"><tag k="addr:housenumber" v="825"/><tag k="addr:postcode" v="97205"/><tag k="addr:city" v="Portland"/><tag k="addr:street" v="Southwest Yamhill Street"/></node>
<node id="-170" lat="45.519354108" lon="-122.681032301" visible="true"><tag k="addr:housenumber" v="855"/><tag k="addr:postcode" v="97205"/><tag k="addr:city" v="Portland"/><tag k="addr:street" v="Southwest Yamhill Street"/></node>
<node id="-171" lat="45.519346491" lon="-122.681039118" visible="true"><tag k="addr:housenumber" v="875"/><tag k="addr:postcode" v="97205"/><tag k="addr:city" v="Portland"/><tag k="addr:street" v="Southwest Yamhill Street"/></node>
<node id="-172" lat="45.522632637" lon="-122.68787352" visible="true"><tag k="addr:housenumber" v="1638"/><tag k="addr:postcode" v="97209"/><tag k="addr:city" v="Portland"/><tag k="addr:street" v="West Burnside Street"/></node>
</osm>