<?xml version="1.0"?>
<osm version="0.6" upload="false" generator="uvmogr2osm">
<node id="-1" lat="45.466205276" lon="-122.715787359" visible="true"><tag k="addr:housenumber" v="8043"/><tag k="addr:postcode" v="97219"/><tag k="addr:city" v="Portland"/><tag k="addr:street" v="Southwest 37th Avenue"/></node>
<node id="-2" lat="45.466204845" lon="-122.715785039" visible="true"><tag k="addr:housenumber" v="8045"/><tag k="addr:postcode" v="97219"/><tag k="addr:city" v="Portland"/><tag k="addr:street" v="Southwest 37th Avenue"/></node>
<node id="-3" lat="45.459080848" lon="-122.715703984" visible="true"><tag k="addr:housenumber" v="9121"/><tag k="addr:postcode" v="97219"/><tag k="addr:city" v="Portland"/><tag k="addr:street" v="Southwest 37th Avenue"/></node>
<node id="-4" lat="45.459084535" lon="-122.715703134" visible="true"><tag k="addr:housenumber" v="9131"/><tag k="addr:postcode" v="97219"/><tag k="addr:city" v="Portland"/><tag k="addr:street" v="Southwest 37th Avenue"/></node>
<node id="-5" lat="45.459743882" lon="-122.716328574" visible="true"><tag k="addr:housenumber" v="9035"/><tag k="addr:postcode" v="97219"/><tag k="addr:city" v="Portland"/><tag k="addr:street" v="Southwest 38th Avenue"/></node>
<node id="-6" lat="45.459740085" lon="-122.715717736" visible="true"><tag k="addr:housenumber" v="9036"/><tag k="addr:postcode" v="97219"/><tag k="addr:city" v="Portland"/><tag k="addr:street" v="Southwest 38th Avenue"/></node>
<node id="-7" lat="45.459748821" lon="-122.716330329" visible="true"><tag k="addr:housenumber" v="9039"/><tag k="addr:postcode" v="97219"/><tag k="addr:city" v="Portland"/><tag k="addr:street" v="Southwest 38th Avenue"/></node>
<node id="-8" lat="45.45973865" lon="-122.71571918" visible="true"><tag k="addr:housenumber" v="9040"/><tag k="addr:postcode" v="97219"/><tag k="addr:city" v="Portland"/><tag k="addr:street" v="Southwest 38th Avenue"/></node>
<node id="-9" lat="45.459536568" lon="-122.715784033" visible="true"><tag k="addr:housenumber" v="9050"/><tag k="addr:postcode" v="97219"/><tag k="addr:city" v="Portland"/><tag k="addr:street" v="Southwest 38th Avenue"/></node>
<node id="-10" lat="45.459538714" lon="-122.715787604" visible="true"><tag k="addr:housenumber" v="9054"/><tag k="addr:postcode" v="97219"/><tag k="addr:city" v="Portland"/><tag k="addr:street" v="Southwest 38th Avenue"/></node>
<node id="-11" lat="45.459551923" lon="-122.716408302" visible="true"><tag k="addr:housenumber" v="9061"/><tag k="addr:postcode" v="97219"/><tag k="addr:city" v="Portland"/><tag k="addr:street" v="Southwest 38th Avenue"/></node>
<node id="-12" lat="45.459552832" lon="-122.716412099" visible="true"><tag k="addr:housenumber" v="9065"/><tag k="addr:postcode" v="97219"/><tag k="addr:city" v="Portland"/><tag k="addr:street" v="Southwest 38th Avenue"/></node>
<node id="-13" lat="45.459350696" lon="-122.715865662" visible="true"><tag k="addr:housenumber" v="9100"/><tag k="addr:postcode" v="97219"/><tag k="addr:city" v="Portland"/><tag k="addr:street" v="Southwest 38th Avenue"/></node>
<node id="-14" lat="45.459350822" lon="-122.715870879" visible="true"><tag k="addr:housenumber" v="9104"/><tag k="addr:postcode" v="97219"/><tag k="addr:city" v="Portland"/><tag k="addr:street" v="Southwest 38th Avenue"/></node>
<node id="-15" lat="45.459174079" lon="-122.71612861" visible="true"><tag k="addr:housenumber" v="9110"/><tag k="addr:postcode" v="97219"/><tag k="addr:city" v="Portland"/><tag k="addr:street" v="Southwest 38th Avenue"/></node>
<node id="-16" lat="45.45917546" lon="-122.716132543" visible="true"><tag k="addr:housenumber" v="9112"/><tag k="addr:postcode" v="97219"/><tag k="addr:city" v="Portland"/><tag k="addr:street" v="Southwest 38th Avenue"/></node>
<node id="-17" lat="45.459146385" lon="-122.71649502" visible="true"><tag k="addr:housenumber" v="9120"/><tag k="addr:postcode" v="97219"/><tag k="addr:city" v="Portland"/><tag k="addr:street" v="Southwest 38th Avenue"/></node>
<node id="-18" lat="45.459148586" lon="-122.716495097" visible="true"><tag k="addr:housenumber" v="9122"/><tag k="addr:postcode" v="97219"/><tag k="addr:city" v="Portland"/><tag k="addr:street" v="Southwest 38th Avenue"/></node>
<node id="-19" lat="45.459704874" lon="-122.718236727" visible="true"><tag k="addr:housenumber" v="9033"/><tag k="addr:postcode" v="97219"/><tag k="addr:city" v="Portland"/><tag k="addr:street" v="Southwest 40th Avenue"/></node>
<node id="-20" lat="45.459701445" lon="-122.718228121" visible="true"><tag k="addr:housenumber" v="9037"/><tag k="addr:postcode" v="97219"/><tag k="addr:city" v="Portland"/><tag k="addr:street" v="Southwest 40th Avenue"/></node>
<node id="-21" lat="45.458622541" lon="-122.718275408" visible="true"><tag k="addr:housenumber" v="9221"/><tag k="addr:postcode" v="97219"/><tag k="addr:city" v="Portland"/><tag k="addr:street" v="Southwest 40th Avenue"/></node>
<node id="-22" lat="45.45580552" lon="-122.718683031" visible="true"><tag k="addr:housenumber" v="9612"/><tag k="addr:postcode" v="97219"/><tag k="addr:city" v="Portland"/><tag k="addr:street" v="Southwest 41st Avenue"/></node>
<node id="-23" lat="45.455807501" lon="-122.718688211" visible="true"><tag k="addr:housenumber" v="9614"/><tag k="addr:postcode" v="97219"/><tag k="addr:city" v="Portland"/><tag k="addr:street" v="Southwest 41st Avenue"/></node>
<node id="-24" lat="45.455670345" lon="-122.718681956" visible="true"><tag k="addr:housenumber" v="9622"/><tag k="addr:postcode" v="97219"/><tag k="addr:city" v="Portland"/><tag k="addr:street" v="Southwest 41st Avenue"/></node>
<node id="-25" lat="45.455669654" lon="-122.718682997" visible="true"><tag k="addr:housenumber" v="9624"/><tag k="addr:postcode" v="97219"/><tag k="addr:city" v="Portland"/><tag k="addr:street" v="Southwest 41st Avenue"/></node>
<node id="-26" lat="45.455669522" lon="-122.718683043" visible="true"><tag k="addr:housenumber" v="9626"/><tag k="addr:postcode" v="97219"/><tag k="addr:city" v="Portland"/><tag k="addr:street" v="Southwest 41st Avenue"/></node>
<node id="-27" lat="45.464002941" lon="-122.720932489" visible="true"><tag k="addr:housenumber" v="8419"/><tag k="addr:postcode" v="97219"/><tag k="addr:city" v="Portland"/><tag k="addr:street" v="Southwest 42nd Avenue"/></node>
<node id="-28" lat="45.463853858" lon="-122.721660902" visible="true"><tag k="addr:housenumber" v="8448"/><tag k="addr:postcode" v="97219"/><tag k="addr:city" v="Portland"/><tag k="addr:street" v="Southwest 43rd Avenue"/></node>
<node id="-29" lat="45.458619973" lon="-122.718272605" visible="true"><tag k="addr:housenumber" v="4015"/><tag k="addr:postcode" v="97219"/><tag k="addr:city" v="Portland"/><tag k="addr:street" v="Southwest Alice Street"/></node>
<node id="-30" lat="45.458180457" lon="-122.719508843" visible="true"><tag k="addr:housenumber" v="4122"/><tag k="addr:postcode" v="97219"/><tag k="addr:city" v="Portland"/><tag k="addr:street" v="Southwest Alice Street"/></node>
<node id="-31" lat="45.458117409" lon="-122.720779796" visible="true"><tag k="addr:housenumber" v="4222"/><tag k="addr:postcode" v="97219"/><tag k="addr:city" v="Portland"/><tag k="addr:street" v="Southwest Alice Street"/></node>
<node id="-32" lat="45.458123433" lon="-122.720784032" visible="true"><tag k="addr:housenumber" v="4224"/><tag k="addr:postcode" v="97219"/><tag k="addr:city" v="Portland"/><tag k="addr:street" v="Southwest Alice Street"/></node>
<node id="-33" lat="45.456871858" lon="-122.714531208" visible="true"><tag k="addr:housenumber" v="3540"/><tag k="addr:postcode" v="97219"/><tag k="addr:city" v="Portland"/><tag k="addr:street" v="Southwest Baird Street"/></node>
<node id="-34" lat="45.457349179" lon="-122.714349001" visible="true"><tag k="addr:housenumber" v="3611"/><tag k="addr:postcode" v="97219"/><tag k="addr:city" v="Portland"/><tag k="addr:street" v="Southwest Baird Street"/></node>
<node id="-35" lat="45.457353075" lon="-122.714343794" visible="true"><tag k="addr:housenumber" v="3613"/><tag k="addr:postcode" v="97219"/><tag k="addr:city" v="Portland"/><tag k="addr:street" v="Southwest Baird Street"/></node>
<node id="-36" lat="45.457355465" lon="-122.71434456" visible="true"><tag k="addr:housenumber" v="3615"/><tag k="addr:postcode" v="97219"/><tag k="addr:city" v="Portland"/><tag k="addr:street" v="Southwest Baird Street"/></node>
<node id="-37" lat="45.457354227" lon="-122.714341947" visible="true"><tag k="addr:housenumber" v="3617"/><tag k="addr:postcode" v="97219"/><tag k="addr:city" v="Portland"/><tag k="addr:street" v="Southwest Baird Street"/></node>
<node id="-38" lat="45.457356909" lon="-122.714340155" visible="true"><tag k="addr:housenumber" v="3619"/><tag k="addr:postcode" v="97219"/><tag k="addr:city" v="Portland"/><tag k="addr:street" v="Southwest Baird Street"/></node>
<node id="-39" lat="45.457354505" lon="-122.714348164" visible="true"><tag k="addr:housenumber" v="3621"/><tag k="addr:postcode" v="97219"/><tag k="addr:city" v="Portland"/><tag k="addr:street" v="Southwest Baird Street"/></node>
<node id="-40" lat="45.457355256" lon="-122.714340699" visible="true"><tag k="addr:housenumber" v="3623"/><tag k="addr:postcode" v="97219"/><tag k="addr:city" v="Portland"/><tag k="addr:street" v="Southwest Baird Street"/></node>
<node id="-41" lat="45.457357202" lon="-122.714341092" visible="true"><tag k="addr:housenumber" v="3625"/><tag k="addr:postcode" v="97219"/><tag k="addr:city" v="Portland"/><tag k="addr:street" v="Southwest Baird Street"/></node>
<node id="-42" lat="45.457355276" lon="-122.714347165" visible="true"><tag k="addr:housenumber" v="3627"/><tag k="addr:postcode" v="97219"/><tag k="addr:city" v="Portland"/><tag k="addr:street" v="Southwest Baird Street"/></node>
<node id="-43" lat="45.457349702" lon="-122.714345838" visible="true"><tag k="addr:housenumber" v="3629"/><tag k="addr:postcode" v="97219"/><tag k="addr:city" v="Portland"/><tag k="addr:street" v="Southwest Baird Street"/></node>
<node id="-44" lat="45.457349908" lon="-122.714348427" visible="true"><tag k="addr:housenumber" v="3631"/><tag k="addr:postcode" v="97219"/><tag k="addr:city" v="Portland"/><tag k="addr:street" v="Southwest Baird Street"/></node>
<node id="-45" lat="45.457357056" lon="-122.714344745" visible="true"><tag k="addr:housenumber" v="3635"/><tag k="addr:postcode" v="97219"/><tag k="addr:city" v="Portland"/><tag k="addr:street" v="Southwest Baird Street"/></node>
<node id="-46" lat="45.457541415" lon="-122.714659891" visible="true"><tag k="addr:housenumber" v="3641"/><tag k="addr:postcode" v="97219"/><tag k="addr:city" v="Portland"/><tag k="addr:street" v="Southwest Baird Street"/></node>
<node id="-47" lat="45.457535579" lon="-122.714658939" visible="true"><tag k="addr:housenumber" v="3645"/><tag k="addr:postcode" v="97219"/><tag k="addr:city" v="Portland"/><tag k="addr:street" v="Southwest Baird Street"/></node>
<node id="-48" lat="45.457277496" lon="-122.714906606" visible="true"><tag k="addr:housenumber" v="3651"/><tag k="addr:postcode" v="97219"/><tag k="addr:city" v="Portland"/><tag k="addr:street" v="Southwest Baird Street"/></node>
<node id="-49" lat="45.457274609" lon="-122.714910493" visible="true"><tag k="addr:housenumber" v="3657"/><tag k="addr:postcode" v="97219"/><tag k="addr:city" v="Portland"/><tag k="addr:street" v="Southwest Baird Street"/></node>
<node id="-50" lat="45.456877339" lon="-122.71453289" visible="true"><tag k="addr:housenumber" v="9511"/><tag k="addr:postcode" v="97219"/><tag k="addr:city" v="Portland"/><tag k="addr:street" v="Southwest Barbur Boulevard"/></node>
<node id="-51" lat="45.455880317" lon="-122.718154422" visible="true"><tag k="addr:housenumber" v="4002"/><tag k="addr:postcode" v="97219"/><tag k="addr:city" v="Portland"/><tag k="addr:street" v="Southwest Brugger Street"/></node>
<node id="-52" lat="45.455878617" lon="-122.71815252" visible="true"><tag k="addr:housenumber" v="4004"/><tag k="addr:postcode" v="97219"/><tag k="addr:city" v="Portland"/><tag k="addr:street" v="Southwest Brugger Street"/></node>
<node id="-53" lat="45.455876489" lon="-122.718393" visible="true"><tag k="addr:housenumber" v="4016"/><tag k="addr:postcode" v="97219"/><tag k="addr:city" v="Portland"/><tag k="addr:street" v="Southwest Brugger Street"/></node>
<node id="-54" lat="45.455878777" lon="-122.718394784" visible="true"><tag k="addr:housenumber" v="4018"/><tag k="addr:postcode" v="97219"/><tag k="addr:city" v="Portland"/><tag k="addr:street" v="Southwest Brugger Street"/></node>
<node id="-55" lat="45.468755803" lon="-122.714910743" visible="true"><tag k="addr:housenumber" v="3634"/><tag k="addr:postcode" v="97219"/><tag k="addr:city" v="Portland"/><tag k="addr:street" v="Southwest Canby Street"/></node>
<node id="-56" lat="45.468759477" lon="-122.71491105" visible="true"><tag k="addr:housenumber" v="3636"/><tag k="addr:postcode" v="97219"/><tag k="addr:city" v="Portland"/><tag k="addr:street" v="Southwest Canby Street"/></node>
<node id="-57" lat="45.459247098" lon="-122.719395931" visible="true"><tag k="addr:housenumber" v="9111"/><tag k="addr:postcode" v="97219"/><tag k="addr:city" v="Portland"/><tag k="addr:street" v="Southwest Capitol Highway"/></node>
<node id="-58" lat="45.459142854" lon="-122.71868867" visible="true"><tag k="addr:housenumber" v="9120"/><tag k="addr:postcode" v="97219"/><tag k="addr:city" v="Portland"/><tag k="addr:street" v="Southwest Capitol Highway"/></node>
<node id="-59" lat="45.459138818" lon="-122.718686026" visible="true"><tag k="addr:housenumber" v="9122"/><tag k="addr:postcode" v="97219"/><tag k="addr:city" v="Portland"/><tag k="addr:street" v="Southwest Capitol Highway"/></node>
<node id="-60" lat="45.458757425" lon="-122.718688041" visible="true"><tag k="addr:housenumber" v="9210"/><tag k="addr:postcode" v="97219"/><tag k="addr:city" v="Portland"/><tag k="addr:street" v="Southwest Capitol Highway"/></node>
<node id="-61" lat="45.45875807" lon="-122.718688144" visible="true"><tag k="addr:housenumber" v="9220"/><tag k="addr:postcode" v="97219"/><tag k="addr:city" v="Portland"/><tag k="addr:street" v="Southwest Capitol Highway"/></node>
<node id="-62" lat="45.458184778" lon="-122.719505201" visible="true"><tag k="addr:housenumber" v="9307"/><tag k="addr:postcode" v="97219"/><tag k="addr:city" v="Portland"/><tag k="addr:street" v="Southwest Capitol Highway"/></node>
<node id="-63" lat="45.454914106" lon="-122.72064434" visible="true"><tag k="addr:housenumber" v="9731"/><tag k="addr:postcode" v="97219"/><tag k="addr:city" v="Portland"/><tag k="addr:street" v="Southwest Capitol Highway"/></node>
<node id="-64" lat="45.454907091" lon="-122.720648519" visible="true"><tag k="addr:housenumber" v="9741"/><tag k="addr:postcode" v="97219"/><tag k="addr:city" v="Portland"/><tag k="addr:street" v="Southwest Capitol Highway"/></node>
<node id="-65" lat="45.464243782" lon="-122.718514015" visible="true"><tag k="addr:housenumber" v="4015"/><tag k="addr:postcode" v="97219"/><tag k="addr:city" v="Portland"/><tag k="addr:street" v="Southwest Carson Street"/></node>
<node id="-66" lat="45.464246603" lon="-122.718515429" visible="true"><tag k="addr:housenumber" v="4023"/><tag k="addr:postcode" v="97219"/><tag k="addr:city" v="Portland"/><tag k="addr:street" v="Southwest Carson Street"/></node>
<node id="-67" lat="45.463997598" lon="-122.720930036" visible="true"><tag k="addr:housenumber" v="4218"/><tag k="addr:postcode" v="97219"/><tag k="addr:city" v="Portland"/><tag k="addr:street" v="Southwest Carson Street"/></node>
<node id="-68" lat="45.463853897" lon="-122.721654428" visible="true"><tag k="addr:housenumber" v="4260"/><tag k="addr:postcode" v="97219"/><tag k="addr:city" v="Portland"/><tag k="addr:street" v="Southwest Carson Street"/></node>
<node id="-69" lat="45.455599416" lon="-122.718154708" visible="true"><tag k="addr:housenumber" v="4001"/><tag k="addr:postcode" v="97219"/><tag k="addr:city" v="Portland"/><tag k="addr:street" v="Southwest Collins Street"/></node>
<node id="-70" lat="45.455602062" lon="-122.718150687" visible="true"><tag k="addr:housenumber" v="4003"/><tag k="addr:postcode" v="97219"/><tag k="addr:city" v="Portland"/><tag k="addr:street" v="Southwest Collins Street"/></node>
<node id="-71" lat="45.4555974" lon="-122.718147132" visible="true"><tag k="addr:housenumber" v="4005"/><tag k="addr:postcode" v="97219"/><tag k="addr:city" v="Portland"/><tag k="addr:street" v="Southwest Collins Street"/></node>
<node id="-72" lat="45.455597624" lon="-122.718153684" visible="true"><tag k="addr:housenumber" v="4007"/><tag k="addr:postcode" v="97219"/><tag k="addr:city" v="Portland"/><tag k="addr:street" v="Southwest Collins Street"/></node>
<node id="-73" lat="45.455597349" lon="-122.71839106" visible="true"><tag k="addr:housenumber" v="4015"/><tag k="addr:postcode" v="97219"/><tag k="addr:city" v="Portland"/><tag k="addr:street" v="Southwest Collins Street"/></node>
<node id="-74" lat="45.455599599" lon="-122.718387374" visible="true"><tag k="addr:housenumber" v="4017"/><tag k="addr:postcode" v="97219"/><tag k="addr:city" v="Portland"/><tag k="addr:street" v="Southwest Collins Street"/></node>
<node id="-75" lat="45.461643996" lon="-122.717724764" visible="true"><tag k="addr:housenumber" v="3972"/><tag k="addr:postcode" v="97219"/><tag k="addr:city" v="Portland"/><tag k="addr:street" v="Southwest Dolph Court"/></node>
<node id="-76" lat="45.461640158" lon="-122.717718396" visible="true"><tag k="addr:housenumber" v="3974"/><tag k="addr:postcode" v="97219"/><tag k="addr:city" v="Portland"/><tag k="addr:street" v="Southwest Dolph Court"/></node>
<node id="-77" lat="45.466604597" lon="-122.71366492" visible="true"><tag k="addr:housenumber" v="3540"/><tag k="addr:postcode" v="97219"/><tag k="addr:city" v="Portland"/><tag k="addr:street" v="Southwest Evans Street"/></node>
<node id="-78" lat="45.466604105" lon="-122.713665043" visible="true"><tag k="addr:housenumber" v="3542"/><tag k="addr:postcode" v="97219"/><tag k="addr:city" v="Portland"/><tag k="addr:street" v="Southwest Evans Street"/></node>
<node id="-79" lat="45.462944492" lon="-122.71714018" visible="true"><tag k="addr:housenumber" v="3915"/><tag k="addr:postcode" v="97219"/><tag k="addr:city" v="Portland"/><tag k="addr:street" v="Southwest Freeman Street"/></node>
<node id="-80" lat="45.462944213" lon="-122.717140121" visible="true"><tag k="addr:housenumber" v="3917"/><tag k="addr:postcode" v="97219"/><tag k="addr:city" v="Portland"/><tag k="addr:street" v="Southwest Freeman Street"/></node>
<node id="-81" lat="45.466807046" lon="-122.718685149" visible="true"><tag k="addr:housenumber" v="4023"/><tag k="addr:postcode" v="97219"/><tag k="addr:city" v="Portland"/><tag k="addr:street" v="Southwest Garden Home Road"/></node>
<node id="-82" lat="45.466804929" lon="-122.718686903" visible="true"><tag k="addr:housenumber" v="4025"/><tag k="addr:postcode" v="97219"/><tag k="addr:city" v="Portland"/><tag k="addr:street" v="Southwest Garden Home Road"/></node>
<node id="-83" lat="45.46680634" lon="-122.7186882" visible="true"><tag k="addr:housenumber" v="4027"/><tag k="addr:postcode" v="97219"/><tag k="addr:city" v="Portland"/><tag k="addr:street" v="Southwest Garden Home Road"/></node>
<node id="-84" lat="45.466584641" lon="-122.719546714" visible="true"><tag k="addr:housenumber" v="4103"/><tag k="addr:postcode" v="97219"/><tag k="addr:city" v="Portland"/><tag k="addr:street" v="Southwest Garden Home Road"/></node>
<node id="-85" lat="45.466589129" lon="-122.719540359" visible="true"><tag k="addr:housenumber" v="4107"/><tag k="addr:postcode" v="97219"/><tag k="addr:city" v="Portland"/><tag k="addr:street" v="Southwest Garden Home Road"/></node>
<node id="-86" lat="45.466582268" lon="-122.719546632" visible="true"><tag k="addr:housenumber" v="4109"/><tag k="addr:postcode" v="97219"/><tag k="addr:city" v="Portland"/><tag k="addr:street" v="Southwest Garden Home Road"/></node>
<node id="-87" lat="45.466585208" lon="-122.719546115" visible="true"><tag k="addr:housenumber" v="4111"/><tag k="addr:postcode" v="97219"/><tag k="addr:city" v="Portland"/><tag k="addr:street" v="Southwest Garden Home Road"/></node>
<node id="-88" lat="45.465952099" lon="-122.722530136" visible="true"><tag k="addr:housenumber" v="4453"/><tag k="addr:postcode" v="97219"/><tag k="addr:city" v="Portland"/><tag k="addr:street" v="Southwest Garden Home Road"/></node>
<node id="-89" lat="45.465948081" lon="-122.722531425" visible="true"><tag k="addr:housenumber" v="4455"/><tag k="addr:postcode" v="97219"/><tag k="addr:city" v="Portland"/><tag k="addr:street" v="Southwest Garden Home Road"/></node>
<node id="-90" lat="45.465586889" lon="-122.721497681" visible="true"><tag k="addr:housenumber" v="4241"/><tag k="addr:postcode" v="97219"/><tag k="addr:city" v="Portland"/><tag k="addr:street" v="Southwest Hume Street"/></node>
<node id="-91" lat="45.465581955" lon="-122.721501166" visible="true"><tag k="addr:housenumber" v="4247"/><tag k="addr:postcode" v="97219"/><tag k="addr:city" v="Portland"/><tag k="addr:street" v="Southwest Hume Street"/></node>
<node id="-92" lat="45.460435378" lon="-122.715795203" visible="true"><tag k="addr:housenumber" v="3711"/><tag k="addr:postcode" v="97219"/><tag k="addr:city" v="Portland"/><tag k="addr:street" v="Southwest Marigold Street"/></node>
<node id="-93" lat="45.460006185" lon="-122.715715446" visible="true"><tag k="addr:housenumber" v="3712"/><tag k="addr:postcode" v="97219"/><tag k="addr:city" v="Portland"/><tag k="addr:street" v="Southwest Marigold Street"/></node>
<node id="-94" lat="45.460431839" lon="-122.715796653" visible="true"><tag k="addr:housenumber" v="3715"/><tag k="addr:postcode" v="97219"/><tag k="addr:city" v="Portland"/><tag k="addr:street" v="Southwest Marigold Street"/></node>
<node id="-95" lat="45.460009783" lon="-122.715713498" visible="true"><tag k="addr:housenumber" v="3718"/><tag k="addr:postcode" v="97219"/><tag k="addr:city" v="Portland"/><tag k="addr:street" v="Southwest Marigold Street"/></node>
<node id="-96" lat="45.460430139" lon="-122.716138466" visible="true"><tag k="addr:housenumber" v="3809"/><tag k="addr:postcode" v="97219"/><tag k="addr:city" v="Portland"/><tag k="addr:street" v="Southwest Marigold Street"/></node>
<node id="-97" lat="45.460437773" lon="-122.716143376" visible="true"><tag k="addr:housenumber" v="3817"/><tag k="addr:postcode" v="97219"/><tag k="addr:city" v="Portland"/><tag k="addr:street" v="Southwest Marigold Street"/></node>
<node id="-98" lat="45.46009106" lon="-122.716359188" visible="true"><tag k="addr:housenumber" v="3824"/><tag k="addr:postcode" v="97219"/><tag k="addr:city" v="Portland"/><tag k="addr:street" v="Southwest Marigold Street"/></node>
<node id="-99" lat="45.460098343" lon="-122.716353478" visible="true"><tag k="addr:housenumber" v="3828"/><tag k="addr:postcode" v="97219"/><tag k="addr:city" v="Portland"/><tag k="addr:street" v="Southwest Marigold Street"/></node>
<node id="-100" lat="45.460433859" lon="-122.716575632" visible="true"><tag k="addr:housenumber" v="3833"/><tag k="addr:postcode" v="97219"/><tag k="addr:city" v="Portland"/><tag k="addr:street" v="Southwest Marigold Street"/></node>
<node id="-101" lat="45.460434025" lon="-122.716572624" visible="true"><tag k="addr:housenumber" v="3839"/><tag k="addr:postcode" v="97219"/><tag k="addr:city" v="Portland"/><tag k="addr:street" v="Southwest Marigold Street"/></node>
<node id="-102" lat="45.46002118" lon="-122.716793736" visible="true"><tag k="addr:housenumber" v="3848"/><tag k="addr:postcode" v="97219"/><tag k="addr:city" v="Portland"/><tag k="addr:street" v="Southwest Marigold Street"/></node>
<node id="-103" lat="45.460020925" lon="-122.716794775" visible="true"><tag k="addr:housenumber" v="3850"/><tag k="addr:postcode" v="97219"/><tag k="addr:city" v="Portland"/><tag k="addr:street" v="Southwest Marigold Street"/></node>
<node id="-104" lat="45.460023797" lon="-122.717230516" visible="true"><tag k="addr:housenumber" v="3922"/><tag k="addr:postcode" v="97219"/><tag k="addr:city" v="Portland"/><tag k="addr:street" v="Southwest Marigold Street"/></node>
<node id="-105" lat="45.460441036" lon="-122.717405671" visible="true"><tag k="addr:housenumber" v="3923"/><tag k="addr:postcode" v="97219"/><tag k="addr:city" v="Portland"/><tag k="addr:street" v="Southwest Marigold Street"/></node>
<node id="-106" lat="45.460024047" lon="-122.717226481" visible="true"><tag k="addr:housenumber" v="3926"/><tag k="addr:postcode" v="97219"/><tag k="addr:city" v="Portland"/><tag k="addr:street" v="Southwest Marigold Street"/></node>
<node id="-107" lat="45.460445112" lon="-122.717406254" visible="true"><tag k="addr:housenumber" v="3929"/><tag k="addr:postcode" v="97219"/><tag k="addr:city" v="Portland"/><tag k="addr:street" v="Southwest Marigold Street"/></node>
<node id="-108" lat="45.46043673" lon="-122.717780445" visible="true"><tag k="addr:housenumber" v="3941"/><tag k="addr:postcode" v="97219"/><tag k="addr:city" v="Portland"/><tag k="addr:street" v="Southwest Marigold Street"/></node>
<node id="-109" lat="45.460437758" lon="-122.717781946" visible="true"><tag k="addr:housenumber" v="3945"/><tag k="addr:postcode" v="97219"/><tag k="addr:city" v="Portland"/><tag k="addr:street" v="Southwest Marigold Street"/></node>
<node id="-110" lat="45.467202044" lon="-122.717383107" visible="true"><tag k="addr:housenumber" v="3910"/><tag k="addr:postcode" v="97219"/><tag k="addr:city" v="Portland"/><tag k="addr:street" v="Southwest Multnomah Boulevard"/></node>
<node id="-111" lat="45.467201288" lon="-122.71738733" visible="true"><tag k="addr:housenumber" v="3912"/><tag k="addr:postcode" v="97219"/><tag k="addr:city" v="Portland"/><tag k="addr:street" v="Southwest Multnomah Boulevard"/></node>
<node id="-112" lat="45.467206344" lon="-122.717379416" visible="true"><tag k="addr:housenumber" v="3922"/><tag k="addr:postcode" v="97219"/><tag k="addr:city" v="Portland"/><tag k="addr:street" v="Southwest Multnomah Boulevard"/></node>
<node id="-113" lat="45.467205582" lon="-122.717382831" visible="true"><tag k="addr:housenumber" v="3925"/><tag k="addr:postcode" v="97219"/><tag k="addr:city" v="Portland"/><tag k="addr:street" v="Southwest Multnomah Boulevard"/></node>
<node id="-114" lat="45.46720296" lon="-122.717384027" visible="true"><tag k="addr:housenumber" v="3926"/><tag k="addr:postcode" v="97219"/><tag k="addr:city" v="Portland"/><tag k="addr:street" v="Southwest Multnomah Boulevard"/></node>
<node id="-115" lat="45.467202859" lon="-122.717386661" visible="true"><tag k="addr:housenumber" v="3928"/><tag k="addr:postcode" v="97219"/><tag k="addr:city" v="Portland"/><tag k="addr:street" v="Southwest Multnomah Boulevard"/></node>
<node id="-116" lat="45.467208574" lon="-122.717378089" visible="true"><tag k="addr:housenumber" v="3930"/><tag k="addr:postcode" v="97219"/><tag k="addr:city" v="Portland"/><tag k="addr:street" v="Southwest Multnomah Boulevard"/></node>
<node id="-117" lat="45.467209393" lon="-122.717379269" visible="true"><tag k="addr:housenumber" v="3934"/><tag k="addr:postcode" v="97219"/><tag k="addr:city" v="Portland"/><tag k="addr:street" v="Southwest Multnomah Boulevard"/></node>
<node id="-118" lat="45.46720523" lon="-122.717382629" visible="true"><tag k="addr:housenumber" v="3936"/><tag k="addr:postcode" v="97219"/><tag k="addr:city" v="Portland"/><tag k="addr:street" v="Southwest Multnomah Boulevard"/></node>
<node id="-119" lat="45.467205712" lon="-122.717379325" visible="true"><tag k="addr:housenumber" v="3948"/><tag k="addr:postcode" v="97219"/><tag k="addr:city" v="Portland"/><tag k="addr:street" v="Southwest Multnomah Boulevard"/></node>
<node id="-120" lat="45.456049215" lon="-122.716832474" visible="true"><tag k="addr:housenumber" v="3824"/><tag k="addr:postcode" v="97219"/><tag k="addr:city" v="Portland"/><tag k="addr:street" v="Southwest Plum Street"/></node>
<node id="-121" lat="45.456043551" lon="-122.71683224" visible="true"><tag k="addr:housenumber" v="3832"/><tag k="addr:postcode" v="97219"/><tag k="addr:city" v="Portland"/><tag k="addr:street" v="Southwest Plum Street"/></node>
<node id="-122" lat="45.456379581" lon="-122.716885114" visible="true"><tag k="addr:housenumber" v="3869"/><tag k="addr:postcode" v="97219"/><tag k="addr:city" v="Portland"/><tag k="addr:street" v="Southwest Plum Street"/></node>
<node id="-123" lat="45.456382304" lon="-122.716892304" visible="true"><tag k="addr:housenumber" v="3901"/><tag k="addr:postcode" v="97219"/><tag k="addr:city" v="Portland"/><tag k="addr:street" v="Southwest Plum Street"/></node>
<node id="-124" lat="45.459242338" lon="-122.719391792" visible="true"><tag k="addr:housenumber" v="4122"/><tag k="addr:postcode" v="97219"/><tag k="addr:city" v="Portland"/><tag k="addr:street" v="Southwest Primrose Street"/></node>
<node id="-125" lat="45.468492081" lon="-122.717190398" visible="true"><tag k="addr:housenumber" v="3919"/><tag k="addr:postcode" v="97219"/><tag k="addr:city" v="Portland"/><tag k="addr:street" v="Southwest Troy Street"/></node>
<node id="-126" lat="45.468495152" lon="-122.717186736" visible="true"><tag k="addr:housenumber" v="3921"/><tag k="addr:postcode" v="97219"/><tag k="addr:city" v="Portland"/><tag k="addr:street" v="Southwest Troy Street"/></node>
<node id="-127" lat="45.468460533" lon="-122.71759826" visible="true"><tag k="addr:housenumber" v="3945"/><tag k="addr:postcode" v="97219"/><tag k="addr:city" v="Portland"/><tag k="addr:street" v="Southwest Troy Street"/></node>
<node id="-128" lat="45.468460422" lon="-122.717593305" visible="true"><tag k="addr:housenumber" v="3946"/><tag k="addr:postcode" v="97219"/><tag k="addr:city" v="Portland"/><tag k="addr:street" v="Southwest Troy Street"/></node>
</osm>