<?xml version="1.0"?>
<osm version="0.6" upload="false" generator="uvmogr2osm">
<node id="-1" lat="45.447212395" lon="-122.633278067" visible="true"><tag k="addr:housenumber" v="10508"/><tag k="addr:postcode" v="97222"/><tag k="addr:city" v="Milwaukie"/><tag k="addr:street" v="Southeast 29th Avenue"/></node>
<node id="-2" lat="45.44713831" lon="-122.633264107" visible="true"><tag k="addr:housenumber" v="10518"/><tag k="addr:postcode" v="97222"/><tag k="addr:city" v="Milwaukie"/><tag k="addr:street" v="Southeast 29th Avenue"/></node>
<node id="-3" lat="45.452018463" lon="-122.631797103" visible="true"><tag k="addr:housenumber" v="2935"/><tag k="addr:postcode" v="97222"/><tag k="addr:city" v="Milwaukie"/><tag k="addr:street" v="Southeast Balfour Street"/></node>
<node id="-4" lat="45.452047582" lon="-122.631797035" visible="true"><tag k="addr:housenumber" v="2937"/><tag k="addr:postcode" v="97222"/><tag k="addr:city" v="Milwaukie"/><tag k="addr:street" v="Southeast Balfour Street"/></node>
<node id="-5" lat="45.460329702" lon="-122.641033941" visible="true"><tag k="addr:housenumber" v="2318"/><tag k="addr:postcode" v="97202"/><tag k="addr:city" v="Portland"/><tag k="addr:street" v="Southeast Clatsop Street"/></node>
<node id="-6" lat="45.460332484" lon="-122.640873053" visible="true"><tag k="addr:housenumber" v="2330"/><tag k="addr:postcode" v="97202"/><tag k="addr:city" v="Portland"/><tag k="addr:street" v="Southeast Clatsop Street"/></node>
<node id="-7" lat="45.449976975" lon="-122.640617145" visible="true"><tag k="addr:housenumber" v="2000"/><tag k="addr:postcode" v="97222"/><tag k="addr:city" v="Milwaukie"/><tag k="addr:street" v="Southeast Hanna Harvester Drive"/></node>
<node id="-8" lat="45.455163446" lon="-122.637194114" visible="true"><tag k="addr:housenumber" v="2515"/><tag k="addr:postcode" v="97222"/><tag k="addr:city" v="Milwaukie"/><tag k="addr:street" v="Southeast Mailwell Drive"/></node>
<node id="-9" lat="45.455177853" lon="-122.636352347" visible="true"><tag k="addr:housenumber" v="2517"/><tag k="addr:postcode" v="97222"/><tag k="addr:city" v="Milwaukie"/><tag k="addr:street" v="Southeast Mailwell Drive"/></node>
<node id="-10" lat="45.452923946" lon="-122.635237943" visible="true"><tag k="addr:housenumber" v="2620"/><tag k="addr:postcode" v="97222"/><tag k="addr:city" v="Milwaukie"/><tag k="addr:street" v="Southeast Mailwell Drive"/></node>
<node id="-11" lat="45.452371702" lon="-122.635147299" visible="true"><tag k="addr:housenumber" v="2640"/><tag k="addr:postcode" v="97222"/><tag k="addr:city" v="Milwaukie"/><tag k="addr:street" v="Southeast Mailwell Drive"/></node>
<node id="-12" lat="45.451555914" lon="-122.635082565" visible="true"><tag k="addr:housenumber" v="2650"/><tag k="addr:postcode" v="97222"/><tag k="addr:city" v="Milwaukie"/><tag k="addr:street" v="Southeast Mailwell Drive"/></node>
<node id="-13" lat="45.450800455" lon="-122.635405498" visible="true"><tag k="addr:housenumber" v="2660"/><tag k="addr:postcode" v="97222"/><tag k="addr:city" v="Milwaukie"/><tag k="addr:street" v="Southeast Mailwell Drive"/></node>
<node id="-14" lat="45.449665548" lon="-122.635618092" visible="true"><tag k="addr:housenumber" v="2690"/><tag k="addr:postcode" v="97222"/><tag k="addr:city" v="Milwaukie"/><tag k="addr:street" v="Southeast Mailwell Drive"/></node>
<node id="-15" lat="45.45030437" lon="-122.634520433" visible="true"><tag k="addr:housenumber" v="2700"/><tag k="addr:postcode" v="97222"/><tag k="addr:city" v="Milwaukie"/><tag k="addr:street" v="Southeast Mailwell Drive"/></node>
<node id="-16" lat="45.449578521" lon="-122.634668373" visible="true"><tag k="addr:housenumber" v="2770"/><tag k="addr:postcode" v="97222"/><tag k="addr:city" v="Milwaukie"/><tag k="addr:street" v="Southeast Mailwell Drive"/></node>
<node id="-17" lat="45.449421465" lon="-122.640648275" visible="true"><tag k="addr:housenumber" v="10100"/><tag k="addr:postcode" v="97222"/><tag k="addr:city" v="Milwaukie"/><tag k="addr:street" v="Southeast Main Street"/></node>
<node id="-18" lat="45.451262333" lon="-122.640399325" visible="true"><tag k="addr:housenumber" v="9800"/><tag k="addr:postcode" v="97222"/><tag k="addr:city" v="Milwaukie"/><tag k="addr:street" v="Southeast Main Street"/></node>
<node id="-19" lat="45.450894812" lon="-122.64053683" visible="true"><tag k="addr:housenumber" v="9850"/><tag k="addr:postcode" v="97222"/><tag k="addr:city" v="Milwaukie"/><tag k="addr:street" v="Southeast Main Street"/></node>
<node id="-20" lat="45.455930719" lon="-122.633203675" visible="true"><tag k="addr:housenumber" v="2856"/><tag k="addr:postcode" v="97222"/><tag k="addr:city" v="Milwaukie"/><tag k="addr:street" v="Southeast Malcolm Street"/></node>
<node id="-21" lat="45.455935317" lon="-122.633145689" visible="true"><tag k="addr:housenumber" v="2858"/><tag k="addr:postcode" v="97222"/><tag k="addr:city" v="Milwaukie"/><tag k="addr:street" v="Southeast Malcolm Street"/></node>
<node id="-22" lat="45.460674849" lon="-122.634822305" visible="true"><tag k="addr:housenumber" v="2772"/><tag k="addr:postcode" v="97222"/><tag k="addr:city" v="Milwaukie"/><tag k="addr:street" v="Southeast Van Water Street"/></node>
<node id="-23" lat="45.460673906" lon="-122.634735285" visible="true"><tag k="addr:housenumber" v="2776"/><tag k="addr:postcode" v="97222"/><tag k="addr:city" v="Milwaukie"/><tag k="addr:street" v="Southeast Van Water Street"/></node>
</osm>