<?xml version="1.0"?>
<osm version="0.6" upload="false" generator="uvmogr2osm">
<node id="-1" lat="45.460198493" lon="-122.763470032" visible="true"><tag k="addr:housenumber" v="8270"/><tag k="addr:postcode" v="97223"/><tag k="addr:city" v="Tigard"/><tag k="addr:street" v="Southwest 85th Avenue"/></node>
<node id="-2" lat="45.460201879" lon="-122.763468378" visible="true"><tag k="addr:housenumber" v="8280"/><tag k="addr:postcode" v="97223"/><tag k="addr:city" v="Tigard"/><tag k="addr:street" v="Southwest 85th Avenue"/></node>
<node id="-3" lat="45.459998066" lon="-122.763472976" visible="true"><tag k="addr:housenumber" v="8290"/><tag k="addr:postcode" v="97223"/><tag k="addr:city" v="Tigard"/><tag k="addr:street" v="Southwest 85th Avenue"/></node>
<node id="-4" lat="45.459994095" lon="-122.763476074" visible="true"><tag k="addr:housenumber" v="8300"/><tag k="addr:postcode" v="97223"/><tag k="addr:city" v="Tigard"/><tag k="addr:street" v="Southwest 85th Avenue"/></node>
<node id="-5" lat="45.452258302" lon="-122.759682612" visible="true"><tag k="addr:housenumber" v="8010"/><tag k="addr:postcode" v="97223"/><tag k="addr:city" v="Tigard"/><tag k="addr:street" v="Southwest Cedarcrest Street"/></node>
<node id="-6" lat="45.452251279" lon="-122.759674706" visible="true"><tag k="addr:housenumber" v="8012"/><tag k="addr:postcode" v="97223"/><tag k="addr:city" v="Tigard"/><tag k="addr:street" v="Southwest Cedarcrest Street"/></node>
<node id="-7" lat="45.452482548" lon="-122.759718075" visible="true"><tag k="addr:housenumber" v="8016"/><tag k="addr:postcode" v="97223"/><tag k="addr:city" v="Tigard"/><tag k="addr:street" v="Southwest Cedarcrest Street"/></node>
<node id="-8" lat="45.45248241" lon="-122.759713475" visible="true"><tag k="addr:housenumber" v="8018"/><tag k="addr:postcode" v="97223"/><tag k="addr:city" v="Tigard"/><tag k="addr:street" v="Southwest Cedarcrest Street"/></node>
</osm>