<?xml version="1.0"?>
<osm version="0.6" upload="false" generator="uvmogr2osm">
<node id="-1" lat="45.462026394" lon="-122.783032252" visible="true"><tag k="addr:housenumber" v="8025"/><tag k="addr:postcode" v="97008"/><tag k="addr:city" v="Beaverton"/><tag k="addr:street" v="Southwest 103rd Avenue"/></node>
<node id="-2" lat="45.462033074" lon="-122.783220528" visible="true"><tag k="addr:housenumber" v="8027"/><tag k="addr:postcode" v="97008"/><tag k="addr:city" v="Beaverton"/><tag k="addr:street" v="Southwest 103rd Avenue"/></node>
<node id="-3" lat="45.462035963" lon="-122.783500872" visible="true"><tag k="addr:housenumber" v="8035"/><tag k="addr:postcode" v="97008"/><tag k="addr:city" v="Beaverton"/><tag k="addr:street" v="Southwest 103rd Avenue"/></node>
<node id="-4" lat="45.462031854" lon="-122.783643267" visible="true"><tag k="addr:housenumber" v="8037"/><tag k="addr:postcode" v="97008"/><tag k="addr:city" v="Beaverton"/><tag k="addr:street" v="Southwest 103rd Avenue"/></node>
<node id="-5" lat="45.461813032" lon="-122.783507307" visible="true"><tag k="addr:housenumber" v="8045"/><tag k="addr:postcode" v="97008"/><tag k="addr:city" v="Beaverton"/><tag k="addr:street" v="Southwest 103rd Avenue"/></node>
<node id="-6" lat="45.46182547" lon="-122.783644785" visible="true"><tag k="addr:housenumber" v="8047"/><tag k="addr:postcode" v="97008"/><tag k="addr:city" v="Beaverton"/><tag k="addr:street" v="Southwest 103rd Avenue"/></node>
<node id="-7" lat="45.46182026" lon="-122.782992484" visible="true"><tag k="addr:housenumber" v="8055"/><tag k="addr:postcode" v="97008"/><tag k="addr:city" v="Beaverton"/><tag k="addr:street" v="Southwest 103rd Avenue"/></node>
<node id="-8" lat="45.461852263" lon="-122.783205176" visible="true"><tag k="addr:housenumber" v="8057"/><tag k="addr:postcode" v="97008"/><tag k="addr:city" v="Beaverton"/><tag k="addr:street" v="Southwest 103rd Avenue"/></node>
<node id="-9" lat="45.465920794" lon="-122.791278012" visible="true"><tag k="addr:housenumber" v="7460"/><tag k="addr:postcode" v="97008"/><tag k="addr:city" v="Beaverton"/><tag k="addr:street" v="Southwest Bel Aire Drive"/></node>
<node id="-10" lat="45.465863193" lon="-122.791208087" visible="true"><tag k="addr:housenumber" v="7470"/><tag k="addr:postcode" v="97008"/><tag k="addr:city" v="Beaverton"/><tag k="addr:street" v="Southwest Bel Aire Drive"/></node>
<node id="-11" lat="45.465517279" lon="-122.791520927" visible="true"><tag k="addr:housenumber" v="7550"/><tag k="addr:postcode" v="97008"/><tag k="addr:city" v="Beaverton"/><tag k="addr:street" v="Southwest Bel Aire Drive"/></node>
<node id="-12" lat="45.465488738" lon="-122.791426017" visible="true"><tag k="addr:housenumber" v="7560"/><tag k="addr:postcode" v="97008"/><tag k="addr:city" v="Beaverton"/><tag k="addr:street" v="Southwest Bel Aire Drive"/></node>
<node id="-13" lat="45.465263779" lon="-122.7915526" visible="true"><tag k="addr:housenumber" v="7570"/><tag k="addr:postcode" v="97008"/><tag k="addr:city" v="Beaverton"/><tag k="addr:street" v="Southwest Bel Aire Drive"/></node>
<node id="-14" lat="45.465291363" lon="-122.791647245" visible="true"><tag k="addr:housenumber" v="7580"/><tag k="addr:postcode" v="97008"/><tag k="addr:city" v="Beaverton"/><tag k="addr:street" v="Southwest Bel Aire Drive"/></node>
<node id="-15" lat="45.465154594" lon="-122.79173089" visible="true"><tag k="addr:housenumber" v="7590"/><tag k="addr:postcode" v="97008"/><tag k="addr:city" v="Beaverton"/><tag k="addr:street" v="Southwest Bel Aire Drive"/></node>
<node id="-16" lat="45.465132867" lon="-122.791652241" visible="true"><tag k="addr:housenumber" v="7600"/><tag k="addr:postcode" v="97008"/><tag k="addr:city" v="Beaverton"/><tag k="addr:street" v="Southwest Bel Aire Drive"/></node>
<node id="-17" lat="45.464946929" lon="-122.791761705" visible="true"><tag k="addr:housenumber" v="7620"/><tag k="addr:postcode" v="97008"/><tag k="addr:city" v="Beaverton"/><tag k="addr:street" v="Southwest Bel Aire Drive"/></node>
<node id="-18" lat="45.464965118" lon="-122.791842948" visible="true"><tag k="addr:housenumber" v="7630"/><tag k="addr:postcode" v="97008"/><tag k="addr:city" v="Beaverton"/><tag k="addr:street" v="Southwest Bel Aire Drive"/></node>
<node id="-19" lat="45.464579198" lon="-122.791944785" visible="true"><tag k="addr:housenumber" v="7670"/><tag k="addr:postcode" v="97008"/><tag k="addr:city" v="Beaverton"/><tag k="addr:street" v="Southwest Bel Aire Drive"/></node>
<node id="-20" lat="45.464571277" lon="-122.792045428" visible="true"><tag k="addr:housenumber" v="7680"/><tag k="addr:postcode" v="97008"/><tag k="addr:city" v="Beaverton"/><tag k="addr:street" v="Southwest Bel Aire Drive"/></node>
<node id="-21" lat="45.463192303" lon="-122.793213803" visible="true"><tag k="addr:housenumber" v="11290"/><tag k="addr:postcode" v="97008"/><tag k="addr:city" v="Beaverton"/><tag k="addr:street" v="Southwest Bel Aire Lane"/></node>
<node id="-22" lat="45.463097229" lon="-122.793332305" visible="true"><tag k="addr:housenumber" v="11294"/><tag k="addr:postcode" v="97008"/><tag k="addr:city" v="Beaverton"/><tag k="addr:street" v="Southwest Bel Aire Lane"/></node>
<node id="-23" lat="45.461929849" lon="-122.780926212" visible="true"><tag k="addr:housenumber" v="10110"/><tag k="addr:postcode" v="97008"/><tag k="addr:city" v="Beaverton"/><tag k="addr:street" v="Southwest Crystal Street"/></node>
<node id="-24" lat="45.461915262" lon="-122.781043488" visible="true"><tag k="addr:housenumber" v="10112"/><tag k="addr:postcode" v="97008"/><tag k="addr:city" v="Beaverton"/><tag k="addr:street" v="Southwest Crystal Street"/></node>
<node id="-25" lat="45.461925339" lon="-122.781187802" visible="true"><tag k="addr:housenumber" v="10140"/><tag k="addr:postcode" v="97008"/><tag k="addr:city" v="Beaverton"/><tag k="addr:street" v="Southwest Crystal Street"/></node>
<node id="-26" lat="45.461920516" lon="-122.781323584" visible="true"><tag k="addr:housenumber" v="10142"/><tag k="addr:postcode" v="97008"/><tag k="addr:city" v="Beaverton"/><tag k="addr:street" v="Southwest Crystal Street"/></node>
<node id="-27" lat="45.461934718" lon="-122.781962893" visible="true"><tag k="addr:housenumber" v="10230"/><tag k="addr:postcode" v="97008"/><tag k="addr:city" v="Beaverton"/><tag k="addr:street" v="Southwest Crystal Street"/></node>
<node id="-28" lat="45.461936334" lon="-122.782095137" visible="true"><tag k="addr:housenumber" v="10232"/><tag k="addr:postcode" v="97008"/><tag k="addr:city" v="Beaverton"/><tag k="addr:street" v="Southwest Crystal Street"/></node>
<node id="-29" lat="45.461936685" lon="-122.782227371" visible="true"><tag k="addr:housenumber" v="10260"/><tag k="addr:postcode" v="97008"/><tag k="addr:city" v="Beaverton"/><tag k="addr:street" v="Southwest Crystal Street"/></node>
<node id="-30" lat="45.461935412" lon="-122.782334732" visible="true"><tag k="addr:housenumber" v="10262"/><tag k="addr:postcode" v="97008"/><tag k="addr:city" v="Beaverton"/><tag k="addr:street" v="Southwest Crystal Street"/></node>
<node id="-31" lat="45.440758117" lon="-122.765906136" visible="true"><tag k="addr:housenumber" v="10969"/><tag k="addr:postcode" v="97223"/><tag k="addr:city" v="Tigard"/><tag k="addr:street" v="Southwest Hall Boulevard"/></node>
<node id="-32" lat="45.440751951" lon="-122.765912526" visible="true"><tag k="addr:housenumber" v="10971"/><tag k="addr:postcode" v="97223"/><tag k="addr:city" v="Tigard"/><tag k="addr:street" v="Southwest Hall Boulevard"/></node>
<node id="-33" lat="45.440783946" lon="-122.766398025" visible="true"><tag k="addr:housenumber" v="10973"/><tag k="addr:postcode" v="97223"/><tag k="addr:city" v="Tigard"/><tag k="addr:street" v="Southwest Hall Boulevard"/></node>
<node id="-34" lat="45.440673257" lon="-122.766415674" visible="true"><tag k="addr:housenumber" v="10975"/><tag k="addr:postcode" v="97223"/><tag k="addr:city" v="Tigard"/><tag k="addr:street" v="Southwest Hall Boulevard"/></node>
<node id="-35" lat="45.457061132" lon="-122.781177146" visible="true"><tag k="addr:housenumber" v="8748"/><tag k="addr:postcode" v="97223"/><tag k="addr:city" v="Tigard"/><tag k="addr:street" v="Southwest Hall Boulevard"/></node>
<node id="-36" lat="45.457061937" lon="-122.781178314" visible="true"><tag k="addr:housenumber" v="8788"/><tag k="addr:postcode" v="97223"/><tag k="addr:city" v="Tigard"/><tag k="addr:street" v="Southwest Hall Boulevard"/></node>
<node id="-37" lat="45.457063718" lon="-122.78118415" visible="true"><tag k="addr:housenumber" v="8804"/><tag k="addr:postcode" v="97223"/><tag k="addr:city" v="Tigard"/><tag k="addr:street" v="Southwest Hall Boulevard"/></node>
<node id="-38" lat="45.457063961" lon="-122.781180414" visible="true"><tag k="addr:housenumber" v="8834"/><tag k="addr:postcode" v="97223"/><tag k="addr:city" v="Tigard"/><tag k="addr:street" v="Southwest Hall Boulevard"/></node>
<node id="-39" lat="45.457066213" lon="-122.781177291" visible="true"><tag k="addr:housenumber" v="8838"/><tag k="addr:postcode" v="97223"/><tag k="addr:city" v="Tigard"/><tag k="addr:street" v="Southwest Hall Boulevard"/></node>
<node id="-40" lat="45.457067003" lon="-122.781181817" visible="true"><tag k="addr:housenumber" v="8840"/><tag k="addr:postcode" v="97223"/><tag k="addr:city" v="Tigard"/><tag k="addr:street" v="Southwest Hall Boulevard"/></node>
<node id="-41" lat="45.449290523" lon="-122.774779975" visible="true"><tag k="addr:housenumber" v="9535"/><tag k="addr:postcode" v="97223"/><tag k="addr:city" v="Tigard"/><tag k="addr:street" v="Southwest Lehman Street"/></node>
<node id="-42" lat="45.449291809" lon="-122.774788821" visible="true"><tag k="addr:housenumber" v="9539"/><tag k="addr:postcode" v="97223"/><tag k="addr:city" v="Tigard"/><tag k="addr:street" v="Southwest Lehman Street"/></node>
<node id="-43" lat="45.446838515" lon="-122.76718689" visible="true"><tag k="addr:housenumber" v="8755"/><tag k="addr:postcode" v="97223"/><tag k="addr:city" v="Tigard"/><tag k="addr:street" v="Southwest Locust Street"/></node>
<node id="-44" lat="45.446844449" lon="-122.767188596" visible="true"><tag k="addr:housenumber" v="8775"/><tag k="addr:postcode" v="97223"/><tag k="addr:city" v="Tigard"/><tag k="addr:street" v="Southwest Locust Street"/></node>
<node id="-45" lat="45.44683813" lon="-122.767191439" visible="true"><tag k="addr:housenumber" v="8815"/><tag k="addr:postcode" v="97223"/><tag k="addr:city" v="Tigard"/><tag k="addr:street" v="Southwest Locust Street"/></node>
<node id="-46" lat="45.44684796" lon="-122.767190298" visible="true"><tag k="addr:housenumber" v="8845"/><tag k="addr:postcode" v="97223"/><tag k="addr:city" v="Tigard"/><tag k="addr:street" v="Southwest Locust Street"/></node>
<node id="-47" lat="45.447504646" lon="-122.77251761" visible="true"><tag k="addr:housenumber" v="9281"/><tag k="addr:postcode" v="97223"/><tag k="addr:city" v="Tigard"/><tag k="addr:street" v="Southwest Locust Street"/></node>
<node id="-48" lat="45.447499957" lon="-122.772513251" visible="true"><tag k="addr:housenumber" v="9283"/><tag k="addr:postcode" v="97223"/><tag k="addr:city" v="Tigard"/><tag k="addr:street" v="Southwest Locust Street"/></node>
<node id="-49" lat="45.454486149" lon="-122.788284776" visible="true"><tag k="addr:housenumber" v="9000"/><tag k="addr:postcode" v="97008"/><tag k="addr:city" v="Beaverton"/><tag k="addr:street" v="Southwest Nimbus Avenue"/></node>
<node id="-50" lat="45.45400734" lon="-122.788484831" visible="true"><tag k="addr:housenumber" v="9100"/><tag k="addr:postcode" v="97008"/><tag k="addr:city" v="Beaverton"/><tag k="addr:street" v="Southwest Nimbus Avenue"/></node>
<node id="-51" lat="45.453122848" lon="-122.788312851" visible="true"><tag k="addr:housenumber" v="9200"/><tag k="addr:postcode" v="97008"/><tag k="addr:city" v="Beaverton"/><tag k="addr:street" v="Southwest Nimbus Avenue"/></node>
<node id="-52" lat="45.45304196" lon="-122.787869011" visible="true"><tag k="addr:housenumber" v="9220"/><tag k="addr:postcode" v="97008"/><tag k="addr:city" v="Beaverton"/><tag k="addr:street" v="Southwest Nimbus Avenue"/></node>
<node id="-53" lat="45.443419204" lon="-122.764974089" visible="true"><tag k="addr:housenumber" v="8609"/><tag k="addr:postcode" v="97223"/><tag k="addr:city" v="Tigard"/><tag k="addr:street" v="Southwest Pine Street"/></node>
<node id="-54" lat="45.443412331" lon="-122.764981407" visible="true"><tag k="addr:housenumber" v="8611"/><tag k="addr:postcode" v="97223"/><tag k="addr:city" v="Tigard"/><tag k="addr:street" v="Southwest Pine Street"/></node>
<node id="-55" lat="45.457066397" lon="-122.781181746" visible="true"><tag k="addr:housenumber" v="8610"/><tag k="addr:postcode" v="97223"/><tag k="addr:city" v="Tigard"/><tag k="addr:street" v="Southwest Scholls Ferry Road"/></node>
<node id="-56" lat="45.45706303" lon="-122.781178825" visible="true"><tag k="addr:housenumber" v="8630"/><tag k="addr:postcode" v="97223"/><tag k="addr:city" v="Tigard"/><tag k="addr:street" v="Southwest Scholls Ferry Road"/></node>
<node id="-57" lat="45.457062958" lon="-122.781178225" visible="true"><tag k="addr:housenumber" v="8640"/><tag k="addr:postcode" v="97223"/><tag k="addr:city" v="Tigard"/><tag k="addr:street" v="Southwest Scholls Ferry Road"/></node>
<node id="-58" lat="45.457067779" lon="-122.781181942" visible="true"><tag k="addr:housenumber" v="8650"/><tag k="addr:postcode" v="97223"/><tag k="addr:city" v="Tigard"/><tag k="addr:street" v="Southwest Scholls Ferry Road"/></node>
<node id="-59" lat="45.457067957" lon="-122.781181499" visible="true"><tag k="addr:housenumber" v="8670"/><tag k="addr:postcode" v="97223"/><tag k="addr:city" v="Tigard"/><tag k="addr:street" v="Southwest Scholls Ferry Road"/></node>
<node id="-60" lat="45.441828591" lon="-122.778241461" visible="true"><tag k="addr:housenumber" v="9800"/><tag k="addr:postcode" v="97223"/><tag k="addr:city" v="Tigard"/><tag k="addr:street" v="Southwest Shady Lane"/></node>
<node id="-61" lat="45.441798331" lon="-122.778073946" visible="true"><tag k="addr:housenumber" v="9802"/><tag k="addr:postcode" v="97223"/><tag k="addr:city" v="Tigard"/><tag k="addr:street" v="Southwest Shady Lane"/></node>
<node id="-62" lat="45.441777998" lon="-122.777830633" visible="true"><tag k="addr:housenumber" v="9804"/><tag k="addr:postcode" v="97223"/><tag k="addr:city" v="Tigard"/><tag k="addr:street" v="Southwest Shady Lane"/></node>
<node id="-63" lat="45.441905568" lon="-122.766318091" visible="true"><tag k="addr:housenumber" v="8770"/><tag k="addr:postcode" v="97223"/><tag k="addr:city" v="Tigard"/><tag k="addr:street" v="Southwest Spruce Street"/></node>
<node id="-64" lat="45.441907858" lon="-122.766311674" visible="true"><tag k="addr:housenumber" v="8780"/><tag k="addr:postcode" v="97223"/><tag k="addr:city" v="Tigard"/><tag k="addr:street" v="Southwest Spruce Street"/></node>
</osm>