<?xml version="1.0"?>
<osm version="0.6" upload="false" generator="uvmogr2osm">
<node id="-1" lat="45.47224206" lon="-122.803294451" visible="true"><tag k="addr:housenumber" v="6567"/><tag k="addr:postcode" v="97008"/><tag k="addr:city" v="Beaverton"/><tag k="addr:street" v="Southwest 123rd Avenue"/></node>
<node id="-2" lat="45.472238654" lon="-122.80330197" visible="true"><tag k="addr:housenumber" v="6569"/><tag k="addr:postcode" v="97008"/><tag k="addr:city" v="Beaverton"/><tag k="addr:street" v="Southwest 123rd Avenue"/></node>
<node id="-3" lat="45.472246444" lon="-122.803296481" visible="true"><tag k="addr:housenumber" v="6571"/><tag k="addr:postcode" v="97008"/><tag k="addr:city" v="Beaverton"/><tag k="addr:street" v="Southwest 123rd Avenue"/></node>
<node id="-4" lat="45.472245952" lon="-122.803294668" visible="true"><tag k="addr:housenumber" v="6573"/><tag k="addr:postcode" v="97008"/><tag k="addr:city" v="Beaverton"/><tag k="addr:street" v="Southwest 123rd Avenue"/></node>
<node id="-5" lat="45.472243868" lon="-122.803296346" visible="true"><tag k="addr:housenumber" v="6575"/><tag k="addr:postcode" v="97008"/><tag k="addr:city" v="Beaverton"/><tag k="addr:street" v="Southwest 123rd Avenue"/></node>
<node id="-6" lat="45.472242169" lon="-122.803295693" visible="true"><tag k="addr:housenumber" v="6577"/><tag k="addr:postcode" v="97008"/><tag k="addr:city" v="Beaverton"/><tag k="addr:street" v="Southwest 123rd Avenue"/></node>
<node id="-7" lat="45.472240735" lon="-122.803303438" visible="true"><tag k="addr:housenumber" v="6583"/><tag k="addr:postcode" v="97008"/><tag k="addr:city" v="Tigard"/><tag k="addr:street" v="Southwest 123rd Avenue"/></node>
<node id="-8" lat="45.472239214" lon="-122.803299819" visible="true"><tag k="addr:housenumber" v="6585"/><tag k="addr:postcode" v="97008"/><tag k="addr:city" v="Beaverton"/><tag k="addr:street" v="Southwest 123rd Avenue"/></node>
<node id="-9" lat="45.472241437" lon="-122.803297981" visible="true"><tag k="addr:housenumber" v="6587"/><tag k="addr:postcode" v="97008"/><tag k="addr:city" v="Beaverton"/><tag k="addr:street" v="Southwest 123rd Avenue"/></node>
<node id="-10" lat="45.472244868" lon="-122.803297557" visible="true"><tag k="addr:housenumber" v="6589"/><tag k="addr:postcode" v="97008"/><tag k="addr:city" v="Beaverton"/><tag k="addr:street" v="Southwest 123rd Avenue"/></node>
<node id="-11" lat="45.472242637" lon="-122.80330261" visible="true"><tag k="addr:housenumber" v="6591"/><tag k="addr:postcode" v="97008"/><tag k="addr:city" v="Beaverton"/><tag k="addr:street" v="Southwest 123rd Avenue"/></node>
<node id="-12" lat="45.472239695" lon="-122.803296596" visible="true"><tag k="addr:housenumber" v="6593"/><tag k="addr:postcode" v="97008"/><tag k="addr:city" v="Beaverton"/><tag k="addr:street" v="Southwest 123rd Avenue"/></node>
<node id="-13" lat="45.472238424" lon="-122.803302548" visible="true"><tag k="addr:housenumber" v="6595"/><tag k="addr:postcode" v="97008"/><tag k="addr:city" v="Beaverton"/><tag k="addr:street" v="Southwest 123rd Avenue"/></node>
<node id="-14" lat="45.472241137" lon="-122.803297578" visible="true"><tag k="addr:housenumber" v="6597"/><tag k="addr:postcode" v="97008"/><tag k="addr:city" v="Beaverton"/><tag k="addr:street" v="Southwest 123rd Avenue"/></node>
<node id="-15" lat="45.471913972" lon="-122.803160737" visible="true"><tag k="addr:housenumber" v="6605"/><tag k="addr:postcode" v="97008"/><tag k="addr:city" v="Beaverton"/><tag k="addr:street" v="Southwest 123rd Avenue"/></node>
<node id="-16" lat="45.471915144" lon="-122.803165635" visible="true"><tag k="addr:housenumber" v="6615"/><tag k="addr:postcode" v="97008"/><tag k="addr:city" v="Beaverton"/><tag k="addr:street" v="Southwest 123rd Avenue"/></node>
<node id="-17" lat="45.472239968" lon="-122.803303985" visible="true"><tag k="addr:housenumber" v="6645"/><tag k="addr:postcode" v="97008"/><tag k="addr:city" v="Beaverton"/><tag k="addr:street" v="Southwest 123rd Avenue"/></node>
<node id="-18" lat="45.472246305" lon="-122.803303067" visible="true"><tag k="addr:housenumber" v="6655"/><tag k="addr:postcode" v="97008"/><tag k="addr:city" v="Tigard"/><tag k="addr:street" v="Southwest 123rd Avenue"/></node>
<node id="-19" lat="45.475659746" lon="-122.804578682" visible="true"><tag k="addr:housenumber" v="6103"/><tag k="addr:postcode" v="97008"/><tag k="addr:city" v="Beaverton"/><tag k="addr:street" v="Southwest 124th Avenue"/></node>
<node id="-20" lat="45.475656702" lon="-122.804578762" visible="true"><tag k="addr:housenumber" v="6109"/><tag k="addr:postcode" v="97008"/><tag k="addr:city" v="Beaverton"/><tag k="addr:street" v="Southwest 124th Avenue"/></node>
<node id="-21" lat="45.47565717" lon="-122.804570399" visible="true"><tag k="addr:housenumber" v="6115"/><tag k="addr:postcode" v="97008"/><tag k="addr:city" v="Beaverton"/><tag k="addr:street" v="Southwest 124th Avenue"/></node>
<node id="-22" lat="45.476153569" lon="-122.803642815" visible="true"><tag k="addr:housenumber" v="12270"/><tag k="addr:postcode" v="97005"/><tag k="addr:city" v="Beaverton"/><tag k="addr:street" v="Southwest Allen Boulevard"/></node>
<node id="-23" lat="45.476151457" lon="-122.803647606" visible="true"><tag k="addr:housenumber" v="12278"/><tag k="addr:postcode" v="97005"/><tag k="addr:city" v="Beaverton"/><tag k="addr:street" v="Southwest Allen Boulevard"/></node>
<node id="-24" lat="45.476181121" lon="-122.803921896" visible="true"><tag k="addr:housenumber" v="12320"/><tag k="addr:postcode" v="97005"/><tag k="addr:city" v="Beaverton"/><tag k="addr:street" v="Southwest Allen Boulevard"/></node>
<node id="-25" lat="45.476186196" lon="-122.803924755" visible="true"><tag k="addr:housenumber" v="12350"/><tag k="addr:postcode" v="97005"/><tag k="addr:city" v="Beaverton"/><tag k="addr:street" v="Southwest Allen Boulevard"/></node>
<node id="-26" lat="45.476179219" lon="-122.803921266" visible="true"><tag k="addr:housenumber" v="12370"/><tag k="addr:postcode" v="97005"/><tag k="addr:city" v="Beaverton"/><tag k="addr:street" v="Southwest Allen Boulevard"/></node>
<node id="-27" lat="45.472687738" lon="-122.850536781" visible="true"><tag k="addr:housenumber" v="12005"/><tag k="addr:postcode" v="97008"/><tag k="addr:city" v="Beaverton"/><tag k="addr:street" v="Southwest Cheshire Road"/></node>
<node id="-28" lat="45.473635059" lon="-122.800848765" visible="true"><tag k="addr:housenumber" v="12025"/><tag k="addr:postcode" v="97008"/><tag k="addr:city" v="Beaverton"/><tag k="addr:street" v="Southwest Cheshire Road"/></node>
<node id="-29" lat="45.472998285" lon="-122.834509923" visible="true"><tag k="addr:housenumber" v="12035"/><tag k="addr:postcode" v="97008"/><tag k="addr:city" v="Beaverton"/><tag k="addr:street" v="Southwest Cheshire Road"/></node>
<node id="-30" lat="45.472580718" lon="-122.851059354" visible="true"><tag k="addr:housenumber" v="12055"/><tag k="addr:postcode" v="97008"/><tag k="addr:city" v="Beaverton"/><tag k="addr:street" v="Southwest Cheshire Road"/></node>
<node id="-31" lat="45.473729062" lon="-122.798234755" visible="true"><tag k="addr:housenumber" v="12065"/><tag k="addr:postcode" v="97008"/><tag k="addr:city" v="Beaverton"/><tag k="addr:street" v="Southwest Cheshire Road"/></node>
<node id="-32" lat="45.473626941" lon="-122.799747625" visible="true"><tag k="addr:housenumber" v="12075"/><tag k="addr:postcode" v="97008"/><tag k="addr:city" v="Beaverton"/><tag k="addr:street" v="Southwest Cheshire Road"/></node>
<node id="-33" lat="45.47268701" lon="-122.845263897" visible="true"><tag k="addr:housenumber" v="12085"/><tag k="addr:postcode" v="97008"/><tag k="addr:city" v="Beaverton"/><tag k="addr:street" v="Southwest Cheshire Road"/></node>
<node id="-34" lat="45.473436593" lon="-122.813537063" visible="true"><tag k="addr:housenumber" v="12095"/><tag k="addr:postcode" v="97008"/><tag k="addr:city" v="Beaverton"/><tag k="addr:street" v="Southwest Cheshire Road"/></node>
<node id="-35" lat="45.47274899" lon="-122.84678873" visible="true"><tag k="addr:housenumber" v="12105"/><tag k="addr:postcode" v="97008"/><tag k="addr:city" v="Beaverton"/><tag k="addr:street" v="Southwest Cheshire Road"/></node>
<node id="-36" lat="45.473314926" lon="-122.814497751" visible="true"><tag k="addr:housenumber" v="12125"/><tag k="addr:postcode" v="97008"/><tag k="addr:city" v="Beaverton"/><tag k="addr:street" v="Southwest Cheshire Road"/></node>
<node id="-37" lat="45.473306414" lon="-122.815191778" visible="true"><tag k="addr:housenumber" v="12135"/><tag k="addr:postcode" v="97008"/><tag k="addr:city" v="Beaverton"/><tag k="addr:street" v="Southwest Cheshire Road"/></node>
<node id="-38" lat="45.47377368" lon="-122.79673514" visible="true"><tag k="addr:housenumber" v="12145"/><tag k="addr:postcode" v="97008"/><tag k="addr:city" v="Beaverton"/><tag k="addr:street" v="Southwest Cheshire Road"/></node>
<node id="-39" lat="45.473700927" lon="-122.80115299" visible="true"><tag k="addr:housenumber" v="12155"/><tag k="addr:postcode" v="97008"/><tag k="addr:city" v="Beaverton"/><tag k="addr:street" v="Southwest Cheshire Road"/></node>
<node id="-40" lat="45.474172264" lon="-122.772272914" visible="true"><tag k="addr:housenumber" v="12165"/><tag k="addr:postcode" v="97008"/><tag k="addr:city" v="Beaverton"/><tag k="addr:street" v="Southwest Cheshire Road"/></node>
<node id="-41" lat="45.473616695" lon="-122.801441018" visible="true"><tag k="addr:housenumber" v="12185"/><tag k="addr:postcode" v="97008"/><tag k="addr:city" v="Beaverton"/><tag k="addr:street" v="Southwest Cheshire Road"/></node>
<node id="-42" lat="45.473709313" lon="-122.800878839" visible="true"><tag k="addr:housenumber" v="12195"/><tag k="addr:postcode" v="97008"/><tag k="addr:city" v="Beaverton"/><tag k="addr:street" v="Southwest Cheshire Road"/></node>
<node id="-43" lat="45.4694327" lon="-122.801867941" visible="true"><tag k="addr:housenumber" v="11625"/><tag k="addr:postcode" v="97008"/><tag k="addr:city" v="Beaverton"/><tag k="addr:street" v="Southwest Denney Road"/></node>
<node id="-44" lat="45.469433602" lon="-122.802232999" visible="true"><tag k="addr:housenumber" v="11655"/><tag k="addr:postcode" v="97008"/><tag k="addr:city" v="Beaverton"/><tag k="addr:street" v="Southwest Denney Road"/></node>
<node id="-45" lat="45.47461517" lon="-122.797906099" visible="true"><tag k="addr:housenumber" v="11800"/><tag k="addr:postcode" v="97008"/><tag k="addr:city" v="Beaverton"/><tag k="addr:street" v="Southwest Iron Horse Lane"/></node>
<node id="-46" lat="45.474614738" lon="-122.797915157" visible="true"><tag k="addr:housenumber" v="11806"/><tag k="addr:postcode" v="97008"/><tag k="addr:city" v="Beaverton"/><tag k="addr:street" v="Southwest Iron Horse Lane"/></node>
<node id="-47" lat="45.474401617" lon="-122.797913123" visible="true"><tag k="addr:housenumber" v="11812"/><tag k="addr:postcode" v="97008"/><tag k="addr:city" v="Beaverton"/><tag k="addr:street" v="Southwest Iron Horse Lane"/></node>
<node id="-48" lat="45.474400496" lon="-122.797910755" visible="true"><tag k="addr:housenumber" v="11818"/><tag k="addr:postcode" v="97008"/><tag k="addr:city" v="Beaverton"/><tag k="addr:street" v="Southwest Iron Horse Lane"/></node>
<node id="-49" lat="45.474144718" lon="-122.797858117" visible="true"><tag k="addr:housenumber" v="11824"/><tag k="addr:postcode" v="97008"/><tag k="addr:city" v="Beaverton"/><tag k="addr:street" v="Southwest Iron Horse Lane"/></node>
<node id="-50" lat="45.47413947" lon="-122.797859099" visible="true"><tag k="addr:housenumber" v="11830"/><tag k="addr:postcode" v="97008"/><tag k="addr:city" v="Beaverton"/><tag k="addr:street" v="Southwest Iron Horse Lane"/></node>
<node id="-51" lat="45.473921696" lon="-122.798025646" visible="true"><tag k="addr:housenumber" v="11836"/><tag k="addr:postcode" v="97008"/><tag k="addr:city" v="Beaverton"/><tag k="addr:street" v="Southwest Iron Horse Lane"/></node>
<node id="-52" lat="45.473925951" lon="-122.798023756" visible="true"><tag k="addr:housenumber" v="11842"/><tag k="addr:postcode" v="97008"/><tag k="addr:city" v="Beaverton"/><tag k="addr:street" v="Southwest Iron Horse Lane"/></node>
<node id="-53" lat="45.473940833" lon="-122.798459415" visible="true"><tag k="addr:housenumber" v="11848"/><tag k="addr:postcode" v="97008"/><tag k="addr:city" v="Beaverton"/><tag k="addr:street" v="Southwest Iron Horse Lane"/></node>
<node id="-54" lat="45.473939092" lon="-122.798464537" visible="true"><tag k="addr:housenumber" v="11854"/><tag k="addr:postcode" v="97008"/><tag k="addr:city" v="Beaverton"/><tag k="addr:street" v="Southwest Iron Horse Lane"/></node>
<node id="-55" lat="45.473958577" lon="-122.798782674" visible="true"><tag k="addr:housenumber" v="11860"/><tag k="addr:postcode" v="97008"/><tag k="addr:city" v="Beaverton"/><tag k="addr:street" v="Southwest Iron Horse Lane"/></node>
<node id="-56" lat="45.473966041" lon="-122.798781135" visible="true"><tag k="addr:housenumber" v="11866"/><tag k="addr:postcode" v="97008"/><tag k="addr:city" v="Beaverton"/><tag k="addr:street" v="Southwest Iron Horse Lane"/></node>
<node id="-57" lat="45.473956809" lon="-122.799068423" visible="true"><tag k="addr:housenumber" v="11872"/><tag k="addr:postcode" v="97008"/><tag k="addr:city" v="Beaverton"/><tag k="addr:street" v="Southwest Iron Horse Lane"/></node>
<node id="-58" lat="45.473953508" lon="-122.799071778" visible="true"><tag k="addr:housenumber" v="11878"/><tag k="addr:postcode" v="97008"/><tag k="addr:city" v="Beaverton"/><tag k="addr:street" v="Southwest Iron Horse Lane"/></node>
<node id="-59" lat="45.473923197" lon="-122.799706594" visible="true"><tag k="addr:housenumber" v="11900"/><tag k="addr:postcode" v="97008"/><tag k="addr:city" v="Beaverton"/><tag k="addr:street" v="Southwest Iron Horse Lane"/></node>
<node id="-60" lat="45.473931397" lon="-122.799705453" visible="true"><tag k="addr:housenumber" v="11920"/><tag k="addr:postcode" v="97008"/><tag k="addr:city" v="Beaverton"/><tag k="addr:street" v="Southwest Iron Horse Lane"/></node>
<node id="-61" lat="45.473945801" lon="-122.8000235" visible="true"><tag k="addr:housenumber" v="11930"/><tag k="addr:postcode" v="97008"/><tag k="addr:city" v="Beaverton"/><tag k="addr:street" v="Southwest Iron Horse Lane"/></node>
<node id="-62" lat="45.473941496" lon="-122.800022601" visible="true"><tag k="addr:housenumber" v="11940"/><tag k="addr:postcode" v="97008"/><tag k="addr:city" v="Beaverton"/><tag k="addr:street" v="Southwest Iron Horse Lane"/></node>
<node id="-63" lat="45.475819288" lon="-122.799864046" visible="true"><tag k="addr:housenumber" v="6100"/><tag k="addr:postcode" v="97008"/><tag k="addr:city" v="Beaverton"/><tag k="addr:street" v="Southwest Lombard Avenue"/></node>
<node id="-64" lat="45.475815021" lon="-122.799859231" visible="true"><tag k="addr:housenumber" v="6110"/><tag k="addr:postcode" v="97008"/><tag k="addr:city" v="Tigard"/><tag k="addr:street" v="Southwest Lombard Avenue"/></node>
<node id="-65" lat="45.475818874" lon="-122.799855137" visible="true"><tag k="addr:housenumber" v="6120"/><tag k="addr:postcode" v="97008"/><tag k="addr:city" v="Beaverton"/><tag k="addr:street" v="Southwest Lombard Avenue"/></node>
<node id="-66" lat="45.475816746" lon="-122.799856871" visible="true"><tag k="addr:housenumber" v="6130"/><tag k="addr:postcode" v="97008"/><tag k="addr:city" v="Beaverton"/><tag k="addr:street" v="Southwest Lombard Avenue"/></node>
<node id="-67" lat="45.47582229" lon="-122.799863171" visible="true"><tag k="addr:housenumber" v="6140"/><tag k="addr:postcode" v="97008"/><tag k="addr:city" v="Beaverton"/><tag k="addr:street" v="Southwest Lombard Avenue"/></node>
<node id="-68" lat="45.47581894" lon="-122.799861409" visible="true"><tag k="addr:housenumber" v="6150"/><tag k="addr:postcode" v="97008"/><tag k="addr:city" v="Beaverton"/><tag k="addr:street" v="Southwest Lombard Avenue"/></node>
<node id="-69" lat="45.471773552" lon="-122.804579287" visible="true"><tag k="addr:housenumber" v="3923"/><tag k="addr:postcode" v="97005"/><tag k="addr:city" v="Beaverton"/><tag k="addr:street" v="Southwest Rose Biggi Avenue"/></node>
<node id="-70" lat="45.470641747" lon="-122.82703026" visible="true"><tag k="addr:housenumber" v="12320"/><tag k="addr:postcode" v="97008"/><tag k="addr:city" v="Beaverton"/><tag k="addr:street" v="Southwest Sussex Street"/></node>
<node id="-71" lat="45.471573166" lon="-122.779579911" visible="true"><tag k="addr:housenumber" v="12324"/><tag k="addr:postcode" v="97008"/><tag k="addr:city" v="Beaverton"/><tag k="addr:street" v="Southwest Sussex Street"/></node>
<node id="-72" lat="45.472246792" lon="-122.803300479" visible="true"><tag k="addr:housenumber" v="12365"/><tag k="addr:postcode" v="97008"/><tag k="addr:city" v="Beaverton"/><tag k="addr:street" v="Southwest Sussex Street"/></node>
<node id="-73" lat="45.472246162" lon="-122.803301297" visible="true"><tag k="addr:housenumber" v="12375"/><tag k="addr:postcode" v="97008"/><tag k="addr:city" v="Beaverton"/><tag k="addr:street" v="Southwest Sussex Street"/></node>
<node id="-74" lat="45.472245198" lon="-122.80329772" visible="true"><tag k="addr:housenumber" v="12385"/><tag k="addr:postcode" v="97008"/><tag k="addr:city" v="Beaverton"/><tag k="addr:street" v="Southwest Sussex Street"/></node>
<node id="-75" lat="45.471772999" lon="-122.804583389" visible="true"><tag k="addr:housenumber" v="12435"/><tag k="addr:postcode" v="97008"/><tag k="addr:city" v="Beaverton"/><tag k="addr:street" v="Southwest Sussex Street"/></node>
</osm>