<?xml version="1.0"?>
<osm version="0.6" upload="false" generator="uvmogr2osm">
<node id="-1" lat="45.488550033" lon="-122.847038053" visible="true"><tag k="addr:housenumber" v="4345"/><tag k="addr:postcode" v="97078"/><tag k="addr:city" v="Beaverton"/><tag k="addr:street" v="Southwest 165th Avenue"/></node>
<node id="-2" lat="45.488542252" lon="-122.847035832" visible="true"><tag k="addr:housenumber" v="4347"/><tag k="addr:postcode" v="97078"/><tag k="addr:city" v="Beaverton"/><tag k="addr:street" v="Southwest 165th Avenue"/></node>
<node id="-3" lat="45.489915362" lon="-122.851437465" visible="true"><tag k="addr:housenumber" v="4126"/><tag k="addr:postcode" v="97078"/><tag k="addr:city" v="Beaverton"/><tag k="addr:street" v="Southwest 170th Avenue"/></node>
<node id="-4" lat="45.489919102" lon="-122.851433391" visible="true"><tag k="addr:housenumber" v="4130"/><tag k="addr:postcode" v="97078"/><tag k="addr:city" v="Beaverton"/><tag k="addr:street" v="Southwest 170th Avenue"/></node>
<node id="-5" lat="45.489920477" lon="-122.85143711" visible="true"><tag k="addr:housenumber" v="4134"/><tag k="addr:postcode" v="97078"/><tag k="addr:city" v="Beaverton"/><tag k="addr:street" v="Southwest 170th Avenue"/></node>
<node id="-6" lat="45.489622094" lon="-122.85143468" visible="true"><tag k="addr:housenumber" v="4170"/><tag k="addr:postcode" v="97078"/><tag k="addr:city" v="Beaverton"/><tag k="addr:street" v="Southwest 170th Avenue"/></node>
<node id="-7" lat="45.489618133" lon="-122.851439465" visible="true"><tag k="addr:housenumber" v="4172"/><tag k="addr:postcode" v="97078"/><tag k="addr:city" v="Beaverton"/><tag k="addr:street" v="Southwest 170th Avenue"/></node>
<node id="-8" lat="45.489432931" lon="-122.851434791" visible="true"><tag k="addr:housenumber" v="4190"/><tag k="addr:postcode" v="97078"/><tag k="addr:city" v="Beaverton"/><tag k="addr:street" v="Southwest 170th Avenue"/></node>
<node id="-9" lat="45.489438275" lon="-122.851429425" visible="true"><tag k="addr:housenumber" v="4192"/><tag k="addr:postcode" v="97078"/><tag k="addr:city" v="Beaverton"/><tag k="addr:street" v="Southwest 170th Avenue"/></node>
<node id="-10" lat="45.49016635" lon="-122.851058939" visible="true"><tag k="addr:housenumber" v="16930"/><tag k="addr:postcode" v="97078"/><tag k="addr:city" v="Beaverton"/><tag k="addr:street" v="Southwest Blanton Street"/></node>
<node id="-11" lat="45.490168026" lon="-122.851050553" visible="true"><tag k="addr:housenumber" v="16932"/><tag k="addr:postcode" v="97078"/><tag k="addr:city" v="Beaverton"/><tag k="addr:street" v="Southwest Blanton Street"/></node>
<node id="-12" lat="45.490794735" lon="-122.852136878" visible="true"><tag k="addr:housenumber" v="17005"/><tag k="addr:postcode" v="97078"/><tag k="addr:city" v="Beaverton"/><tag k="addr:street" v="Southwest Blanton Street"/></node>
<node id="-13" lat="45.490798348" lon="-122.852131309" visible="true"><tag k="addr:housenumber" v="17007"/><tag k="addr:postcode" v="97078"/><tag k="addr:city" v="Beaverton"/><tag k="addr:street" v="Southwest Blanton Street"/></node>
<node id="-14" lat="45.490825373" lon="-122.852434988" visible="true"><tag k="addr:housenumber" v="17055"/><tag k="addr:postcode" v="97078"/><tag k="addr:city" v="Beaverton"/><tag k="addr:street" v="Southwest Blanton Street"/></node>
<node id="-15" lat="45.490826163" lon="-122.852431652" visible="true"><tag k="addr:housenumber" v="17057"/><tag k="addr:postcode" v="97078"/><tag k="addr:city" v="Beaverton"/><tag k="addr:street" v="Southwest Blanton Street"/></node>
<node id="-16" lat="45.490533883" lon="-122.853898597" visible="true"><tag k="addr:housenumber" v="17220"/><tag k="addr:postcode" v="97078"/><tag k="addr:city" v="Beaverton"/><tag k="addr:street" v="Southwest Blanton Street"/></node>
<node id="-17" lat="45.490531638" lon="-122.85389914" visible="true"><tag k="addr:housenumber" v="17222"/><tag k="addr:postcode" v="97078"/><tag k="addr:city" v="Beaverton"/><tag k="addr:street" v="Southwest Blanton Street"/></node>
<node id="-18" lat="45.48728169" lon="-122.847425518" visible="true"><tag k="addr:housenumber" v="16579"/><tag k="addr:postcode" v="97078"/><tag k="addr:city" v="Beaverton"/><tag k="addr:street" v="Southwest Florence Street"/></node>
<node id="-19" lat="45.487281057" lon="-122.847430878" visible="true"><tag k="addr:housenumber" v="16581"/><tag k="addr:postcode" v="97078"/><tag k="addr:city" v="Beaverton"/><tag k="addr:street" v="Southwest Florence Street"/></node>
</osm>