<?xml version="1.0"?>
<osm version="0.6" upload="false" generator="uvmogr2osm">
<node id="-1" lat="45.466761929" lon="-122.857912396" visible="true"><tag k="addr:housenumber" v="17600"/><tag k="addr:postcode" v="97007"/><tag k="addr:city" v="Beaverton"/><tag k="addr:street" v="Southwest Bany Road"/></node>
<node id="-2" lat="45.466756047" lon="-122.857904478" visible="true"><tag k="addr:housenumber" v="17604"/><tag k="addr:postcode" v="97007"/><tag k="addr:city" v="Beaverton"/><tag k="addr:street" v="Southwest Bany Road"/></node>
<node id="-3" lat="45.466747574" lon="-122.858396307" visible="true"><tag k="addr:housenumber" v="17612"/><tag k="addr:postcode" v="97007"/><tag k="addr:city" v="Beaverton"/><tag k="addr:street" v="Southwest Bany Road"/></node>
<node id="-4" lat="45.466738785" lon="-122.858399971" visible="true"><tag k="addr:housenumber" v="17616"/><tag k="addr:postcode" v="97007"/><tag k="addr:city" v="Beaverton"/><tag k="addr:street" v="Southwest Bany Road"/></node>
<node id="-5" lat="45.467957817" lon="-122.867109434" visible="true"><tag k="addr:housenumber" v="18455"/><tag k="addr:postcode" v="97007"/><tag k="addr:city" v="Beaverton"/><tag k="addr:street" v="Southwest Burns Ridge Court"/></node>
<node id="-6" lat="45.467959241" lon="-122.867111104" visible="true"><tag k="addr:housenumber" v="18457"/><tag k="addr:postcode" v="97007"/><tag k="addr:city" v="Beaverton"/><tag k="addr:street" v="Southwest Burns Ridge Court"/></node>
<node id="-7" lat="45.468451939" lon="-122.86714681" visible="true"><tag k="addr:housenumber" v="18424"/><tag k="addr:postcode" v="97007"/><tag k="addr:city" v="Beaverton"/><tag k="addr:street" v="Southwest Castle Court"/></node>
<node id="-8" lat="45.468456447" lon="-122.867146081" visible="true"><tag k="addr:housenumber" v="18428"/><tag k="addr:postcode" v="97007"/><tag k="addr:city" v="Beaverton"/><tag k="addr:street" v="Southwest Castle Court"/></node>
<node id="-9" lat="45.468681842" lon="-122.867049879" visible="true"><tag k="addr:housenumber" v="18440"/><tag k="addr:postcode" v="97007"/><tag k="addr:city" v="Beaverton"/><tag k="addr:street" v="Southwest Castle Court"/></node>
<node id="-10" lat="45.468682093" lon="-122.867043721" visible="true"><tag k="addr:housenumber" v="18444"/><tag k="addr:postcode" v="97007"/><tag k="addr:city" v="Beaverton"/><tag k="addr:street" v="Southwest Castle Court"/></node>
<node id="-11" lat="45.468898206" lon="-122.867017657" visible="true"><tag k="addr:housenumber" v="18460"/><tag k="addr:postcode" v="97007"/><tag k="addr:city" v="Beaverton"/><tag k="addr:street" v="Southwest Castle Court"/></node>
<node id="-12" lat="45.468888633" lon="-122.867016921" visible="true"><tag k="addr:housenumber" v="18462"/><tag k="addr:postcode" v="97007"/><tag k="addr:city" v="Beaverton"/><tag k="addr:street" v="Southwest Castle Court"/></node>
<node id="-13" lat="45.46910652" lon="-122.867125996" visible="true"><tag k="addr:housenumber" v="18478"/><tag k="addr:postcode" v="97007"/><tag k="addr:city" v="Beaverton"/><tag k="addr:street" v="Southwest Castle Court"/></node>
<node id="-14" lat="45.469109549" lon="-122.867129327" visible="true"><tag k="addr:housenumber" v="18480"/><tag k="addr:postcode" v="97007"/><tag k="addr:city" v="Beaverton"/><tag k="addr:street" v="Southwest Castle Court"/></node>
</osm>