<?xml version="1.0"?>
<osm version="0.6" upload="false" generator="uvmogr2osm">
<node id="-1" lat="45.480949923" lon="-122.821343184" visible="true"><tag k="addr:housenumber" v="5330"/><tag k="addr:postcode" v="97005"/><tag k="addr:city" v="Beaverton"/><tag k="addr:street" v="Southwest 141st Avenue"/></node>
<node id="-2" lat="45.48094683" lon="-122.821346161" visible="true"><tag k="addr:housenumber" v="5340"/><tag k="addr:postcode" v="97005"/><tag k="addr:city" v="Beaverton"/><tag k="addr:street" v="Southwest 141st Avenue"/></node>
<node id="-3" lat="45.483074442" lon="-122.819530136" visible="true"><tag k="addr:housenumber" v="13845"/><tag k="addr:postcode" v="97005"/><tag k="addr:city" v="Beaverton"/><tag k="addr:street" v="Southwest 6th Street"/></node>
<node id="-4" lat="45.48307483" lon="-122.819531215" visible="true"><tag k="addr:housenumber" v="13855"/><tag k="addr:postcode" v="97005"/><tag k="addr:city" v="Portland"/><tag k="addr:street" v="Southwest 6th Street"/></node>
<node id="-5" lat="45.476720365" lon="-122.822865079" visible="true"><tag k="addr:housenumber" v="14195"/><tag k="addr:postcode" v="97005"/><tag k="addr:city" v="Beaverton"/><tag k="addr:street" v="Southwest Allen Boulevard"/></node>
<node id="-6" lat="45.476725377" lon="-122.822859977" visible="true"><tag k="addr:housenumber" v="14205"/><tag k="addr:postcode" v="97005"/><tag k="addr:city" v="Beaverton"/><tag k="addr:street" v="Southwest Allen Boulevard"/></node>
<node id="-7" lat="45.478502283" lon="-122.827881842" visible="true"><tag k="addr:housenumber" v="14475"/><tag k="addr:postcode" v="97005"/><tag k="addr:city" v="Beaverton"/><tag k="addr:street" v="Southwest Bonnie Brae Street"/></node>
<node id="-8" lat="45.478259519" lon="-122.839643792" visible="true"><tag k="addr:housenumber" v="14495"/><tag k="addr:postcode" v="97005"/><tag k="addr:city" v="Beaverton"/><tag k="addr:street" v="Southwest Bonnie Brae Street"/></node>
<node id="-9" lat="45.481205032" lon="-122.827959158" visible="true"><tag k="addr:housenumber" v="13700"/><tag k="addr:postcode" v="97005"/><tag k="addr:city" v="Beaverton"/><tag k="addr:street" v="Southwest Hazel Street"/></node>
<node id="-10" lat="45.481083573" lon="-122.827932449" visible="true"><tag k="addr:housenumber" v="13710"/><tag k="addr:postcode" v="97005"/><tag k="addr:city" v="Beaverton"/><tag k="addr:street" v="Southwest Hazel Street"/></node>
<node id="-11" lat="45.48105618" lon="-122.819152112" visible="true"><tag k="addr:housenumber" v="13760"/><tag k="addr:postcode" v="97005"/><tag k="addr:city" v="Beaverton"/><tag k="addr:street" v="Southwest Hazel Street"/></node>
<node id="-12" lat="45.481225762" lon="-122.827569502" visible="true"><tag k="addr:housenumber" v="13765"/><tag k="addr:postcode" v="97005"/><tag k="addr:city" v="Beaverton"/><tag k="addr:street" v="Southwest Hazel Street"/></node>
<node id="-13" lat="45.480886321" lon="-122.821864959" visible="true"><tag k="addr:housenumber" v="13770"/><tag k="addr:postcode" v="97005"/><tag k="addr:city" v="Beaverton"/><tag k="addr:street" v="Southwest Hazel Street"/></node>
<node id="-14" lat="45.481146764" lon="-122.827503959" visible="true"><tag k="addr:housenumber" v="13775"/><tag k="addr:postcode" v="97005"/><tag k="addr:city" v="Beaverton"/><tag k="addr:street" v="Southwest Hazel Street"/></node>
<node id="-15" lat="45.480947269" lon="-122.81733974" visible="true"><tag k="addr:housenumber" v="13800"/><tag k="addr:postcode" v="97005"/><tag k="addr:city" v="Beaverton"/><tag k="addr:street" v="Southwest Hazel Street"/></node>
<node id="-16" lat="45.482355971" lon="-122.746522581" visible="true"><tag k="addr:housenumber" v="13810"/><tag k="addr:postcode" v="97005"/><tag k="addr:city" v="Portland"/><tag k="addr:street" v="Southwest Hazel Street"/></node>
<node id="-17" lat="45.480951738" lon="-122.814262121" visible="true"><tag k="addr:housenumber" v="13830"/><tag k="addr:postcode" v="97005"/><tag k="addr:city" v="Beaverton"/><tag k="addr:street" v="Southwest Hazel Street"/></node>
<node id="-18" lat="45.480829044" lon="-122.822650715" visible="true"><tag k="addr:housenumber" v="13840"/><tag k="addr:postcode" v="97005"/><tag k="addr:city" v="Beaverton"/><tag k="addr:street" v="Southwest Hazel Street"/></node>
<node id="-19" lat="45.481790643" lon="-122.772787387" visible="true"><tag k="addr:housenumber" v="13860"/><tag k="addr:postcode" v="97005"/><tag k="addr:city" v="Beaverton"/><tag k="addr:street" v="Southwest Hazel Street"/></node>
<node id="-20" lat="45.480743305" lon="-122.82759087" visible="true"><tag k="addr:housenumber" v="13870"/><tag k="addr:postcode" v="97005"/><tag k="addr:city" v="Beaverton"/><tag k="addr:street" v="Southwest Hazel Street"/></node>
<node id="-21" lat="45.481747362" lon="-122.77502283" visible="true"><tag k="addr:housenumber" v="13900"/><tag k="addr:postcode" v="97005"/><tag k="addr:city" v="Beaverton"/><tag k="addr:street" v="Southwest Hazel Street"/></node>
<node id="-22" lat="45.480944441" lon="-122.815847307" visible="true"><tag k="addr:housenumber" v="13910"/><tag k="addr:postcode" v="97005"/><tag k="addr:city" v="Beaverton"/><tag k="addr:street" v="Southwest Hazel Street"/></node>
<node id="-23" lat="45.480937115" lon="-122.816121959" visible="true"><tag k="addr:housenumber" v="13930"/><tag k="addr:postcode" v="97005"/><tag k="addr:city" v="Beaverton"/><tag k="addr:street" v="Southwest Hazel Street"/></node>
<node id="-24" lat="45.481136557" lon="-122.806052729" visible="true"><tag k="addr:housenumber" v="13940"/><tag k="addr:postcode" v="97005"/><tag k="addr:city" v="Beaverton"/><tag k="addr:street" v="Southwest Hazel Street"/></node>
<node id="-25" lat="45.480945165" lon="-122.815576352" visible="true"><tag k="addr:housenumber" v="13960"/><tag k="addr:postcode" v="97005"/><tag k="addr:city" v="Beaverton"/><tag k="addr:street" v="Southwest Hazel Street"/></node>
<node id="-26" lat="45.482357236" lon="-122.744964074" visible="true"><tag k="addr:housenumber" v="13970"/><tag k="addr:postcode" v="97005"/><tag k="addr:city" v="Portland"/><tag k="addr:street" v="Southwest Hazel Street"/></node>
<node id="-27" lat="45.480963018" lon="-122.82105986" visible="true"><tag k="addr:housenumber" v="14000"/><tag k="addr:postcode" v="97005"/><tag k="addr:city" v="Beaverton"/><tag k="addr:street" v="Southwest Hazel Street"/></node>
<node id="-28" lat="45.480966286" lon="-122.821057876" visible="true"><tag k="addr:housenumber" v="14010"/><tag k="addr:postcode" v="97005"/><tag k="addr:city" v="Portland"/><tag k="addr:street" v="Southwest Hazel Street"/></node>
<node id="-29" lat="45.482800078" lon="-122.746896445" visible="true"><tag k="addr:housenumber" v="5255"/><tag k="addr:postcode" v="97005"/><tag k="addr:city" v="Portland"/><tag k="addr:street" v="Southwest Menlo Drive"/></node>
<node id="-30" lat="45.537333187" lon="-122.858272239" visible="true"><tag k="addr:housenumber" v="5275"/><tag k="addr:postcode" v="97005"/><tag k="addr:city" v="Beaverton"/><tag k="addr:street" v="Southwest Menlo Drive"/></node>
<node id="-31" lat="45.479795746" lon="-122.816192222" visible="true"><tag k="addr:housenumber" v="5500"/><tag k="addr:postcode" v="97005"/><tag k="addr:city" v="Beaverton"/><tag k="addr:street" v="Southwest Menlo Drive"/></node>
<node id="-32" lat="45.479795973" lon="-122.816188458" visible="true"><tag k="addr:housenumber" v="5520"/><tag k="addr:postcode" v="97005"/><tag k="addr:city" v="Beaverton"/><tag k="addr:street" v="Southwest Menlo Drive"/></node>
</osm>