<?xml version="1.0"?>
<osm version="0.6" upload="false" generator="uvmogr2osm">
<node id="-1" lat="45.506693317" lon="-122.775342308" visible="true"><tag k="addr:housenumber" v="1820"/><tag k="addr:postcode" v="97225"/><tag k="addr:city" v="Portland"/><tag k="addr:street" v="Southwest 96th Avenue"/></node>
<node id="-2" lat="45.506682179" lon="-122.776018571" visible="true"><tag k="addr:housenumber" v="1825"/><tag k="addr:postcode" v="97225"/><tag k="addr:city" v="Portland"/><tag k="addr:street" v="Southwest 96th Avenue"/></node>
<node id="-3" lat="45.505522139" lon="-122.777850604" visible="true"><tag k="addr:housenumber" v="1970"/><tag k="addr:postcode" v="97225"/><tag k="addr:city" v="Portland"/><tag k="addr:street" v="Southwest 98th Avenue"/></node>
<node id="-4" lat="45.50901437" lon="-122.774848719" visible="true"><tag k="addr:housenumber" v="9450"/><tag k="addr:postcode" v="97225"/><tag k="addr:city" v="Portland"/><tag k="addr:street" v="Southwest Barnes Road"/></node>
<node id="-5" lat="45.509017668" lon="-122.774850369" visible="true"><tag k="addr:housenumber" v="9500"/><tag k="addr:postcode" v="97225"/><tag k="addr:city" v="Portland"/><tag k="addr:street" v="Southwest Barnes Road"/></node>
<node id="-6" lat="45.49567265" lon="-122.775252489" visible="true"><tag k="addr:housenumber" v="3297"/><tag k="addr:postcode" v="97225"/><tag k="addr:city" v="Portland"/><tag k="addr:street" v="Southwest Malcolm Court"/></node>
<node id="-7" lat="45.495671933" lon="-122.775258924" visible="true"><tag k="addr:housenumber" v="3299"/><tag k="addr:postcode" v="97225"/><tag k="addr:city" v="Portland"/><tag k="addr:street" v="Southwest Malcolm Court"/></node>
<node id="-8" lat="45.495676406" lon="-122.775252975" visible="true"><tag k="addr:housenumber" v="3301"/><tag k="addr:postcode" v="97225"/><tag k="addr:city" v="Portland"/><tag k="addr:street" v="Southwest Malcolm Court"/></node>
<node id="-9" lat="45.50791315" lon="-122.783313171" visible="true"><tag k="addr:housenumber" v="1600"/><tag k="addr:postcode" v="97225"/><tag k="addr:city" v="Portland"/><tag k="addr:street" v="Southwest Marlow Avenue"/></node>
<node id="-10" lat="45.50847439" lon="-122.780629877" visible="true"><tag k="addr:housenumber" v="10207"/><tag k="addr:postcode" v="97225"/><tag k="addr:city" v="Portland"/><tag k="addr:street" v="Southwest Park Way"/></node>
<node id="-11" lat="45.508476303" lon="-122.780628368" visible="true"><tag k="addr:housenumber" v="10209"/><tag k="addr:postcode" v="97225"/><tag k="addr:city" v="Portland"/><tag k="addr:street" v="Southwest Park Way"/></node>
<node id="-12" lat="45.507916909" lon="-122.783316513" visible="true"><tag k="addr:housenumber" v="10270"/><tag k="addr:postcode" v="97225"/><tag k="addr:city" v="Portland"/><tag k="addr:street" v="Southwest Park Way"/></node>
<node id="-13" lat="45.507915475" lon="-122.783310181" visible="true"><tag k="addr:housenumber" v="10280"/><tag k="addr:postcode" v="97225"/><tag k="addr:city" v="Portland"/><tag k="addr:street" v="Southwest Park Way"/></node>
<node id="-14" lat="45.506693605" lon="-122.775344426" visible="true"><tag k="addr:housenumber" v="9580"/><tag k="addr:postcode" v="97225"/><tag k="addr:city" v="Portland"/><tag k="addr:street" v="Southwest Park Way"/></node>
<node id="-15" lat="45.506676136" lon="-122.776013033" visible="true"><tag k="addr:housenumber" v="9640"/><tag k="addr:postcode" v="97225"/><tag k="addr:city" v="Portland"/><tag k="addr:street" v="Southwest Park Way"/></node>
<node id="-16" lat="45.495821933" lon="-122.780196879" visible="true"><tag k="addr:housenumber" v="3380"/><tag k="addr:postcode" v="97225"/><tag k="addr:city" v="Portland"/><tag k="addr:street" v="Southwest Underwood Drive"/></node>
<node id="-17" lat="45.495820163" lon="-122.780196412" visible="true"><tag k="addr:housenumber" v="3390"/><tag k="addr:postcode" v="97225"/><tag k="addr:city" v="Portland"/><tag k="addr:street" v="Southwest Underwood Drive"/></node>
<node id="-18" lat="45.495167825" lon="-122.780126401" visible="true"><tag k="addr:housenumber" v="10095"/><tag k="addr:postcode" v="97005"/><tag k="addr:city" v="Beaverton"/><tag k="addr:street" v="Southwest Walker Road"/></node>
<node id="-19" lat="45.495168061" lon="-122.780131958" visible="true"><tag k="addr:housenumber" v="10097"/><tag k="addr:postcode" v="97005"/><tag k="addr:city" v="Beaverton"/><tag k="addr:street" v="Southwest Walker Road"/></node>
<node id="-20" lat="45.50551592" lon="-122.777283085" visible="true"><tag k="addr:housenumber" v="9710"/><tag k="addr:postcode" v="97225"/><tag k="addr:city" v="Portland"/><tag k="addr:street" v="Southwest Wilshire Street"/></node>
<node id="-21" lat="45.505518431" lon="-122.777280158" visible="true"><tag k="addr:housenumber" v="9720"/><tag k="addr:postcode" v="97225"/><tag k="addr:city" v="Portland"/><tag k="addr:street" v="Southwest Wilshire Street"/></node>
<node id="-22" lat="45.505545566" lon="-122.777581148" visible="true"><tag k="addr:housenumber" v="9730"/><tag k="addr:postcode" v="97225"/><tag k="addr:city" v="Portland"/><tag k="addr:street" v="Southwest Wilshire Street"/></node>
<node id="-23" lat="45.505543675" lon="-122.777580673" visible="true"><tag k="addr:housenumber" v="9740"/><tag k="addr:postcode" v="97225"/><tag k="addr:city" v="Portland"/><tag k="addr:street" v="Southwest Wilshire Street"/></node>
<node id="-24" lat="45.505514874" lon="-122.777843955" visible="true"><tag k="addr:housenumber" v="9760"/><tag k="addr:postcode" v="97225"/><tag k="addr:city" v="Portland"/><tag k="addr:street" v="Southwest Wilshire Street"/></node>
</osm>