<?xml version="1.0"?>
<osm version="0.6" upload="false" generator="uvmogr2osm">
<node id="-1" lat="45.524399367" lon="-122.828485574" visible="true"><tag k="addr:housenumber" v="14600"/><tag k="addr:postcode" v="97006"/><tag k="addr:city" v="Beaverton"/><tag k="addr:street" v="Northwest Greenbrier Parkway"/></node>
<node id="-2" lat="45.524138713" lon="-122.829009247" visible="true"><tag k="addr:housenumber" v="14670"/><tag k="addr:postcode" v="97006"/><tag k="addr:city" v="Beaverton"/><tag k="addr:street" v="Northwest Greenbrier Parkway"/></node>
<node id="-3" lat="45.523916407" lon="-122.829000167" visible="true"><tag k="addr:housenumber" v="14700"/><tag k="addr:postcode" v="97006"/><tag k="addr:city" v="Beaverton"/><tag k="addr:street" v="Northwest Greenbrier Parkway"/></node>
<node id="-4" lat="45.511391086" lon="-122.856099431" visible="true"><tag k="addr:housenumber" v="1211"/><tag k="addr:postcode" v="97003"/><tag k="addr:city" v="Beaverton"/><tag k="addr:street" v="Southwest 172nd Terrace"/></node>
<node id="-5" lat="45.511392129" lon="-122.856100488" visible="true"><tag k="addr:housenumber" v="1253"/><tag k="addr:postcode" v="97003"/><tag k="addr:city" v="Beaverton"/><tag k="addr:street" v="Southwest 172nd Terrace"/></node>
<node id="-6" lat="45.511393439" lon="-122.856107364" visible="true"><tag k="addr:housenumber" v="1285"/><tag k="addr:postcode" v="97003"/><tag k="addr:city" v="Beaverton"/><tag k="addr:street" v="Southwest 172nd Terrace"/></node>
<node id="-7" lat="45.511394465" lon="-122.856099673" visible="true"><tag k="addr:housenumber" v="17323"/><tag k="addr:postcode" v="97003"/><tag k="addr:city" v="Beaverton"/><tag k="addr:street" v="Southwest Jay Street"/></node>
<node id="-8" lat="45.511395353" lon="-122.856106297" visible="true"><tag k="addr:housenumber" v="17335"/><tag k="addr:postcode" v="97003"/><tag k="addr:city" v="Beaverton"/><tag k="addr:street" v="Southwest Jay Street"/></node>
<node id="-9" lat="45.511394173" lon="-122.856107543" visible="true"><tag k="addr:housenumber" v="17379"/><tag k="addr:postcode" v="97003"/><tag k="addr:city" v="Beaverton"/><tag k="addr:street" v="Southwest Jay Street"/></node>
<node id="-10" lat="45.511394923" lon="-122.856099926" visible="true"><tag k="addr:housenumber" v="17391"/><tag k="addr:postcode" v="97003"/><tag k="addr:city" v="Beaverton"/><tag k="addr:street" v="Southwest Jay Street"/></node>
<node id="-11" lat="45.511396344" lon="-122.85610156" visible="true"><tag k="addr:housenumber" v="17330"/><tag k="addr:postcode" v="97003"/><tag k="addr:city" v="Beaverton"/><tag k="addr:street" v="Southwest Lawton Street"/></node>
<node id="-12" lat="45.511389136" lon="-122.856100469" visible="true"><tag k="addr:housenumber" v="17348"/><tag k="addr:postcode" v="97003"/><tag k="addr:city" v="Beaverton"/><tag k="addr:street" v="Southwest Lawton Street"/></node>
<node id="-13" lat="45.511391395" lon="-122.856101233" visible="true"><tag k="addr:housenumber" v="17372"/><tag k="addr:postcode" v="97003"/><tag k="addr:city" v="Beaverton"/><tag k="addr:street" v="Southwest Lawton Street"/></node>
<node id="-14" lat="45.511391048" lon="-122.856108846" visible="true"><tag k="addr:housenumber" v="17394"/><tag k="addr:postcode" v="97003"/><tag k="addr:city" v="Beaverton"/><tag k="addr:street" v="Southwest Lawton Street"/></node>
<node id="-15" lat="45.505591004" lon="-122.852914727" visible="true"><tag k="addr:housenumber" v="17060"/><tag k="addr:postcode" v="97003"/><tag k="addr:city" v="Beaverton"/><tag k="addr:street" v="Southwest Merlo Road"/></node>
<node id="-16" lat="45.505588546" lon="-122.852914236" visible="true"><tag k="addr:housenumber" v="17062"/><tag k="addr:postcode" v="97003"/><tag k="addr:city" v="Beaverton"/><tag k="addr:street" v="Southwest Merlo Road"/></node>
<node id="-17" lat="45.505590168" lon="-122.852912261" visible="true"><tag k="addr:housenumber" v="17064"/><tag k="addr:postcode" v="97003"/><tag k="addr:city" v="Beaverton"/><tag k="addr:street" v="Southwest Merlo Road"/></node>
<node id="-18" lat="45.505586726" lon="-122.852913665" visible="true"><tag k="addr:housenumber" v="17066"/><tag k="addr:postcode" v="97003"/><tag k="addr:city" v="Beaverton"/><tag k="addr:street" v="Southwest Merlo Road"/></node>
<node id="-19" lat="45.505599042" lon="-122.85329538" visible="true"><tag k="addr:housenumber" v="17110"/><tag k="addr:postcode" v="97003"/><tag k="addr:city" v="Beaverton"/><tag k="addr:street" v="Southwest Merlo Road"/></node>
<node id="-20" lat="45.505601257" lon="-122.853300184" visible="true"><tag k="addr:housenumber" v="17112"/><tag k="addr:postcode" v="97003"/><tag k="addr:city" v="Beaverton"/><tag k="addr:street" v="Southwest Merlo Road"/></node>
<node id="-21" lat="45.505605253" lon="-122.853303268" visible="true"><tag k="addr:housenumber" v="17114"/><tag k="addr:postcode" v="97003"/><tag k="addr:city" v="Beaverton"/><tag k="addr:street" v="Southwest Merlo Road"/></node>
<node id="-22" lat="45.505605348" lon="-122.85329886" visible="true"><tag k="addr:housenumber" v="17116"/><tag k="addr:postcode" v="97003"/><tag k="addr:city" v="Beaverton"/><tag k="addr:street" v="Southwest Merlo Road"/></node>
<node id="-23" lat="45.506071173" lon="-122.853169607" visible="true"><tag k="addr:housenumber" v="17125"/><tag k="addr:postcode" v="97003"/><tag k="addr:city" v="Beaverton"/><tag k="addr:street" v="Southwest Merlo Road"/></node>
<node id="-24" lat="45.506076628" lon="-122.853164813" visible="true"><tag k="addr:housenumber" v="17127"/><tag k="addr:postcode" v="97003"/><tag k="addr:city" v="Beaverton"/><tag k="addr:street" v="Southwest Merlo Road"/></node>
<node id="-25" lat="45.506077396" lon="-122.853166511" visible="true"><tag k="addr:housenumber" v="17129"/><tag k="addr:postcode" v="97003"/><tag k="addr:city" v="Beaverton"/><tag k="addr:street" v="Southwest Merlo Road"/></node>
<node id="-26" lat="45.506074147" lon="-122.853173389" visible="true"><tag k="addr:housenumber" v="17131"/><tag k="addr:postcode" v="97003"/><tag k="addr:city" v="Beaverton"/><tag k="addr:street" v="Southwest Merlo Road"/></node>
</osm>