<?xml version="1.0"?>
<osm version="0.6" upload="false" generator="uvmogr2osm">
<node id="-1" lat="45.471409702" lon="-122.773716197" visible="true"><tag k="addr:housenumber" v="9454"/><tag k="addr:postcode" v="97005"/><tag k="addr:city" v="Beaverton"/><tag k="addr:street" v="Southwest Allen Boulevard"/></node>
<node id="-2" lat="45.47144838" lon="-122.773819772" visible="true"><tag k="addr:housenumber" v="9458"/><tag k="addr:postcode" v="97005"/><tag k="addr:city" v="Beaverton"/><tag k="addr:street" v="Southwest Allen Boulevard"/></node>
<node id="-3" lat="45.47150886" lon="-122.774035752" visible="true"><tag k="addr:housenumber" v="9460"/><tag k="addr:postcode" v="97005"/><tag k="addr:city" v="Beaverton"/><tag k="addr:street" v="Southwest Allen Boulevard"/></node>
<node id="-4" lat="45.482532008" lon="-122.761221901" visible="true"><tag k="addr:housenumber" v="5185"/><tag k="addr:postcode" v="97225"/><tag k="addr:city" v="Portland"/><tag k="addr:street" v="Southwest Laurelwood Avenue"/></node>
<node id="-5" lat="45.482535033" lon="-122.761223468" visible="true"><tag k="addr:housenumber" v="5187"/><tag k="addr:postcode" v="97225"/><tag k="addr:city" v="Portland"/><tag k="addr:street" v="Southwest Laurelwood Avenue"/></node>
<node id="-6" lat="45.48092316" lon="-122.759494942" visible="true"><tag k="addr:housenumber" v="8025"/><tag k="addr:postcode" v="97225"/><tag k="addr:city" v="Portland"/><tag k="addr:street" v="Southwest Northvale Way"/></node>
<node id="-7" lat="45.48092406" lon="-122.759504495" visible="true"><tag k="addr:housenumber" v="8027"/><tag k="addr:postcode" v="97225"/><tag k="addr:city" v="Portland"/><tag k="addr:street" v="Southwest Northvale Way"/></node>
<node id="-8" lat="45.47336553" lon="-122.770488312" visible="true"><tag k="addr:housenumber" v="6430"/><tag k="addr:postcode" v="97223"/><tag k="addr:city" v="Tigard"/><tag k="addr:street" v="Southwest Old Scholls Ferry Road"/></node>
<node id="-9" lat="45.473361995" lon="-122.770485536" visible="true"><tag k="addr:housenumber" v="6440"/><tag k="addr:postcode" v="97223"/><tag k="addr:city" v="Tigard"/><tag k="addr:street" v="Southwest Old Scholls Ferry Road"/></node>
<node id="-10" lat="45.481024916" lon="-122.759110553" visible="true"><tag k="addr:housenumber" v="5330"/><tag k="addr:postcode" v="97225"/><tag k="addr:city" v="Portland"/><tag k="addr:street" v="Southwest Scholls Ferry Road"/></node>
<node id="-11" lat="45.481022951" lon="-122.759116402" visible="true"><tag k="addr:housenumber" v="5334"/><tag k="addr:postcode" v="97225"/><tag k="addr:city" v="Portland"/><tag k="addr:street" v="Southwest Scholls Ferry Road"/></node>
<node id="-12" lat="45.47277312" lon="-122.770449252" visible="true"><tag k="addr:housenumber" v="6525"/><tag k="addr:postcode" v="97223"/><tag k="addr:city" v="Tigard"/><tag k="addr:street" v="Southwest Scholls Ferry Road"/></node>
<node id="-13" lat="45.472776115" lon="-122.770451713" visible="true"><tag k="addr:housenumber" v="6535"/><tag k="addr:postcode" v="97223"/><tag k="addr:city" v="Tigard"/><tag k="addr:street" v="Southwest Scholls Ferry Road"/></node>
</osm>