<?xml version="1.0"?>
<osm version="0.6" upload="false" generator="uvmogr2osm">
<node id="-1" lat="45.51164583" lon="-122.578282237" visible="true"><tag k="addr:housenumber" v="1534"/><tag k="addr:postcode" v="97216"/><tag k="addr:city" v="Portland"/><tag k="addr:street" v="Southeast 82nd Avenue"/></node>
<node id="-2" lat="45.511638295" lon="-122.578276979" visible="true"><tag k="addr:housenumber" v="1550"/><tag k="addr:postcode" v="97216"/><tag k="addr:city" v="Portland"/><tag k="addr:street" v="Southeast 82nd Avenue"/></node>
<node id="-3" lat="45.510886161" lon="-122.578102996" visible="true"><tag k="addr:housenumber" v="1700"/><tag k="addr:postcode" v="97216"/><tag k="addr:city" v="Portland"/><tag k="addr:street" v="Southeast 82nd Avenue"/></node>
<node id="-4" lat="45.510885838" lon="-122.578104744" visible="true"><tag k="addr:housenumber" v="1710"/><tag k="addr:postcode" v="97216"/><tag k="addr:city" v="Portland"/><tag k="addr:street" v="Southeast 82nd Avenue"/></node>
<node id="-5" lat="45.505480041" lon="-122.576854207" visible="true"><tag k="addr:housenumber" v="2419"/><tag k="addr:postcode" v="97216"/><tag k="addr:city" v="Portland"/><tag k="addr:street" v="Southeast 84th Avenue"/></node>
<node id="-6" lat="45.505475261" lon="-122.57684798" visible="true"><tag k="addr:housenumber" v="2421"/><tag k="addr:postcode" v="97216"/><tag k="addr:city" v="Portland"/><tag k="addr:street" v="Southeast 84th Avenue"/></node>
<node id="-7" lat="45.511755215" lon="-122.576431911" visible="true"><tag k="addr:housenumber" v="1531"/><tag k="addr:postcode" v="97216"/><tag k="addr:city" v="Portland"/><tag k="addr:street" v="Southeast 85th Avenue"/></node>
<node id="-8" lat="45.511750254" lon="-122.576434511" visible="true"><tag k="addr:housenumber" v="1535"/><tag k="addr:postcode" v="97216"/><tag k="addr:city" v="Portland"/><tag k="addr:street" v="Southeast 85th Avenue"/></node>
<node id="-9" lat="45.511582624" lon="-122.575813449" visible="true"><tag k="addr:housenumber" v="1542"/><tag k="addr:postcode" v="97216"/><tag k="addr:city" v="Portland"/><tag k="addr:street" v="Southeast 85th Avenue"/></node>
<node id="-10" lat="45.511583075" lon="-122.575812944" visible="true"><tag k="addr:housenumber" v="1546"/><tag k="addr:postcode" v="97216"/><tag k="addr:city" v="Portland"/><tag k="addr:street" v="Southeast 85th Avenue"/></node>
<node id="-11" lat="45.505724598" lon="-122.573909111" visible="true"><tag k="addr:housenumber" v="2404"/><tag k="addr:postcode" v="97216"/><tag k="addr:city" v="Portland"/><tag k="addr:street" v="Southeast 87th Avenue"/></node>
<node id="-12" lat="45.505718012" lon="-122.57390175" visible="true"><tag k="addr:housenumber" v="2406"/><tag k="addr:postcode" v="97216"/><tag k="addr:city" v="Portland"/><tag k="addr:street" v="Southeast 87th Avenue"/></node>
<node id="-13" lat="45.505709691" lon="-122.573461256" visible="true"><tag k="addr:housenumber" v="2408"/><tag k="addr:postcode" v="97216"/><tag k="addr:city" v="Portland"/><tag k="addr:street" v="Southeast 87th Avenue"/></node>
<node id="-14" lat="45.505709457" lon="-122.573465358" visible="true"><tag k="addr:housenumber" v="2410"/><tag k="addr:postcode" v="97216"/><tag k="addr:city" v="Portland"/><tag k="addr:street" v="Southeast 87th Avenue"/></node>
<node id="-15" lat="45.504977053" lon="-122.573947772" visible="true"><tag k="addr:housenumber" v="2446"/><tag k="addr:postcode" v="97216"/><tag k="addr:city" v="Portland"/><tag k="addr:street" v="Southeast 87th Avenue"/></node>
<node id="-16" lat="45.511153767" lon="-122.573315672" visible="true"><tag k="addr:housenumber" v="1623"/><tag k="addr:postcode" v="97216"/><tag k="addr:city" v="Portland"/><tag k="addr:street" v="Southeast 88th Avenue"/></node>
<node id="-17" lat="45.511160375" lon="-122.57331452" visible="true"><tag k="addr:housenumber" v="1625"/><tag k="addr:postcode" v="97216"/><tag k="addr:city" v="Portland"/><tag k="addr:street" v="Southeast 88th Avenue"/></node>
<node id="-18" lat="45.509253323" lon="-122.572548226" visible="true"><tag k="addr:housenumber" v="1905"/><tag k="addr:postcode" v="97216"/><tag k="addr:city" v="Portland"/><tag k="addr:street" v="Southeast 89th Avenue"/></node>
<node id="-19" lat="45.507741863" lon="-122.571921073" visible="true"><tag k="addr:housenumber" v="2038"/><tag k="addr:postcode" v="97216"/><tag k="addr:city" v="Portland"/><tag k="addr:street" v="Southeast 89th Avenue"/></node>
<node id="-20" lat="45.507048444" lon="-122.571748325" visible="true"><tag k="addr:housenumber" v="2206"/><tag k="addr:postcode" v="97216"/><tag k="addr:city" v="Portland"/><tag k="addr:street" v="Southeast 89th Avenue"/></node>
<node id="-21" lat="45.506277029" lon="-122.572931694" visible="true"><tag k="addr:housenumber" v="2315"/><tag k="addr:postcode" v="97216"/><tag k="addr:city" v="Portland"/><tag k="addr:street" v="Southeast 89th Avenue"/></node>
<node id="-22" lat="45.506276631" lon="-122.5729276" visible="true"><tag k="addr:housenumber" v="2319"/><tag k="addr:postcode" v="97216"/><tag k="addr:city" v="Portland"/><tag k="addr:street" v="Southeast 89th Avenue"/></node>
<node id="-23" lat="45.508192576" lon="-122.570102479" visible="true"><tag k="addr:housenumber" v="2002"/><tag k="addr:postcode" v="97216"/><tag k="addr:city" v="Portland"/><tag k="addr:street" v="Southeast 90th Avenue"/></node>
<node id="-24" lat="45.508186971" lon="-122.570103853" visible="true"><tag k="addr:housenumber" v="2014"/><tag k="addr:postcode" v="97216"/><tag k="addr:city" v="Portland"/><tag k="addr:street" v="Southeast 90th Avenue"/></node>
<node id="-25" lat="45.507045244" lon="-122.570743749" visible="true"><tag k="addr:housenumber" v="2135"/><tag k="addr:postcode" v="97216"/><tag k="addr:city" v="Portland"/><tag k="addr:street" v="Southeast 90th Avenue"/></node>
<node id="-26" lat="45.507046963" lon="-122.570735911" visible="true"><tag k="addr:housenumber" v="2137"/><tag k="addr:postcode" v="97216"/><tag k="addr:city" v="Portland"/><tag k="addr:street" v="Southeast 90th Avenue"/></node>
<node id="-27" lat="45.507018572" lon="-122.57107342" visible="true"><tag k="addr:housenumber" v="2141"/><tag k="addr:postcode" v="97216"/><tag k="addr:city" v="Portland"/><tag k="addr:street" v="Southeast 90th Avenue"/></node>
<node id="-28" lat="45.507022113" lon="-122.571071934" visible="true"><tag k="addr:housenumber" v="2143"/><tag k="addr:postcode" v="97216"/><tag k="addr:city" v="Portland"/><tag k="addr:street" v="Southeast 90th Avenue"/></node>
<node id="-29" lat="45.511096563" lon="-122.568755839" visible="true"><tag k="addr:housenumber" v="1630"/><tag k="addr:postcode" v="97216"/><tag k="addr:city" v="Portland"/><tag k="addr:street" v="Southeast 92nd Avenue"/></node>
<node id="-30" lat="45.507793074" lon="-122.568733324" visible="true"><tag k="addr:housenumber" v="2020"/><tag k="addr:postcode" v="97216"/><tag k="addr:city" v="Portland"/><tag k="addr:street" v="Southeast 92nd Avenue"/></node>
<node id="-31" lat="45.507750306" lon="-122.568729247" visible="true"><tag k="addr:housenumber" v="2022"/><tag k="addr:postcode" v="97216"/><tag k="addr:city" v="Portland"/><tag k="addr:street" v="Southeast 92nd Avenue"/></node>
<node id="-32" lat="45.507473948" lon="-122.568539409" visible="true"><tag k="addr:housenumber" v="2114"/><tag k="addr:postcode" v="97216"/><tag k="addr:city" v="Portland"/><tag k="addr:street" v="Southeast 92nd Avenue"/></node>
<node id="-33" lat="45.507478542" lon="-122.568533706" visible="true"><tag k="addr:housenumber" v="2116"/><tag k="addr:postcode" v="97216"/><tag k="addr:city" v="Portland"/><tag k="addr:street" v="Southeast 92nd Avenue"/></node>
<node id="-34" lat="45.506763536" lon="-122.569589957" visible="true"><tag k="addr:housenumber" v="2219"/><tag k="addr:postcode" v="97216"/><tag k="addr:city" v="Portland"/><tag k="addr:street" v="Southeast 92nd Avenue"/></node>
<node id="-35" lat="45.506765309" lon="-122.569596812" visible="true"><tag k="addr:housenumber" v="2221"/><tag k="addr:postcode" v="97216"/><tag k="addr:city" v="Portland"/><tag k="addr:street" v="Southeast 92nd Avenue"/></node>
<node id="-36" lat="45.506762602" lon="-122.569594059" visible="true"><tag k="addr:housenumber" v="2223"/><tag k="addr:postcode" v="97216"/><tag k="addr:city" v="Portland"/><tag k="addr:street" v="Southeast 92nd Avenue"/></node>
<node id="-37" lat="45.504937156" lon="-122.577740303" visible="true"><tag k="addr:housenumber" v="8243"/><tag k="addr:postcode" v="97266"/><tag k="addr:city" v="Portland"/><tag k="addr:street" v="Southeast Division Street"/></node>
<node id="-38" lat="45.504943888" lon="-122.57774388" visible="true"><tag k="addr:housenumber" v="8245"/><tag k="addr:postcode" v="97266"/><tag k="addr:city" v="Portland"/><tag k="addr:street" v="Southeast Division Street"/></node>
<node id="-39" lat="45.504943776" lon="-122.57774211" visible="true"><tag k="addr:housenumber" v="8247"/><tag k="addr:postcode" v="97266"/><tag k="addr:city" v="Portland"/><tag k="addr:street" v="Southeast Division Street"/></node>
<node id="-40" lat="45.504796421" lon="-122.575457581" visible="true"><tag k="addr:housenumber" v="8505"/><tag k="addr:postcode" v="97266"/><tag k="addr:city" v="Portland"/><tag k="addr:street" v="Southeast Division Street"/></node>
<node id="-41" lat="45.50480066" lon="-122.575455819" visible="true"><tag k="addr:housenumber" v="8507"/><tag k="addr:postcode" v="97266"/><tag k="addr:city" v="Portland"/><tag k="addr:street" v="Southeast Division Street"/></node>
<node id="-42" lat="45.50480196" lon="-122.575453153" visible="true"><tag k="addr:housenumber" v="8509"/><tag k="addr:postcode" v="97266"/><tag k="addr:city" v="Portland"/><tag k="addr:street" v="Southeast Division Street"/></node>
<node id="-43" lat="45.504800335" lon="-122.575452605" visible="true"><tag k="addr:housenumber" v="8511"/><tag k="addr:postcode" v="97266"/><tag k="addr:city" v="Portland"/><tag k="addr:street" v="Southeast Division Street"/></node>
<node id="-44" lat="45.504975117" lon="-122.573947467" visible="true"><tag k="addr:housenumber" v="8707"/><tag k="addr:postcode" v="97266"/><tag k="addr:city" v="Portland"/><tag k="addr:street" v="Southeast Division Street"/></node>
<node id="-45" lat="45.504917953" lon="-122.57111189" visible="true"><tag k="addr:housenumber" v="8955"/><tag k="addr:postcode" v="97266"/><tag k="addr:city" v="Portland"/><tag k="addr:street" v="Southeast Division Street"/></node>
<node id="-46" lat="45.504915621" lon="-122.571103625" visible="true"><tag k="addr:housenumber" v="8957"/><tag k="addr:postcode" v="97266"/><tag k="addr:city" v="Portland"/><tag k="addr:street" v="Southeast Division Street"/></node>
<node id="-47" lat="45.507011608" lon="-122.571681813" visible="true"><tag k="addr:housenumber" v="8926"/><tag k="addr:postcode" v="97216"/><tag k="addr:city" v="Portland"/><tag k="addr:street" v="Southeast Grant Court"/></node>
<node id="-48" lat="45.50821241" lon="-122.577299658" visible="true"><tag k="addr:housenumber" v="8308"/><tag k="addr:postcode" v="97216"/><tag k="addr:city" v="Portland"/><tag k="addr:street" v="Southeast Harrison Street"/></node>
<node id="-49" lat="45.508214664" lon="-122.57730337" visible="true"><tag k="addr:housenumber" v="8310"/><tag k="addr:postcode" v="97216"/><tag k="addr:city" v="Portland"/><tag k="addr:street" v="Southeast Harrison Street"/></node>
<node id="-50" lat="45.507748891" lon="-122.571912777" visible="true"><tag k="addr:housenumber" v="8907"/><tag k="addr:postcode" v="97216"/><tag k="addr:city" v="Portland"/><tag k="addr:street" v="Southeast Lincoln Street"/></node>
<node id="-51" lat="45.511095038" lon="-122.568751167" visible="true"><tag k="addr:housenumber" v="9209"/><tag k="addr:postcode" v="97216"/><tag k="addr:city" v="Portland"/><tag k="addr:street" v="Southeast Market Street"/></node>
<node id="-52" lat="45.509251751" lon="-122.572551613" visible="true"><tag k="addr:housenumber" v="8858"/><tag k="addr:postcode" v="97216"/><tag k="addr:city" v="Portland"/><tag k="addr:street" v="Southeast Stephens Street"/></node>
</osm>