<?xml version="1.0"?>
<osm version="0.6" upload="false" generator="uvmogr2osm">
<node id="-1" lat="45.51099317" lon="-122.537307371" visible="true"><tag k="addr:housenumber" v="1720"/><tag k="addr:postcode" v="97233"/><tag k="addr:city" v="Portland"/><tag k="addr:street" v="Southeast 122nd Avenue"/></node>
<node id="-2" lat="45.510992617" lon="-122.537309372" visible="true"><tag k="addr:housenumber" v="1721"/><tag k="addr:postcode" v="97233"/><tag k="addr:city" v="Portland"/><tag k="addr:street" v="Southeast 122nd Avenue"/></node>
<node id="-3" lat="45.510987393" lon="-122.537308714" visible="true"><tag k="addr:housenumber" v="1731"/><tag k="addr:postcode" v="97233"/><tag k="addr:city" v="Portland"/><tag k="addr:street" v="Southeast 122nd Avenue"/></node>
<node id="-4" lat="45.504786729" lon="-122.536984698" visible="true"><tag k="addr:housenumber" v="2356"/><tag k="addr:postcode" v="97233"/><tag k="addr:city" v="Portland"/><tag k="addr:street" v="Southeast 122nd Avenue"/></node>
<node id="-5" lat="45.50477965" lon="-122.536982988" visible="true"><tag k="addr:housenumber" v="2400"/><tag k="addr:postcode" v="97233"/><tag k="addr:city" v="Portland"/><tag k="addr:street" v="Southeast 122nd Avenue"/></node>
<node id="-6" lat="45.504785955" lon="-122.536984359" visible="true"><tag k="addr:housenumber" v="2410"/><tag k="addr:postcode" v="97233"/><tag k="addr:city" v="Portland"/><tag k="addr:street" v="Southeast 122nd Avenue"/></node>
<node id="-7" lat="45.504780558" lon="-122.536978602" visible="true"><tag k="addr:housenumber" v="2365"/><tag k="addr:postcode" v="97233"/><tag k="addr:city" v="Portland"/><tag k="addr:street" v="Southeast 124th Avenue"/></node>
<node id="-8" lat="45.51040788" lon="-122.530250897" visible="true"><tag k="addr:housenumber" v="1767"/><tag k="addr:postcode" v="97233"/><tag k="addr:city" v="Portland"/><tag k="addr:street" v="Southeast 130th Avenue"/></node>
<node id="-9" lat="45.510402492" lon="-122.53061297" visible="true"><tag k="addr:housenumber" v="1771"/><tag k="addr:postcode" v="97233"/><tag k="addr:city" v="Portland"/><tag k="addr:street" v="Southeast 130th Avenue"/></node>
<node id="-10" lat="45.509886777" lon="-122.530612032" visible="true"><tag k="addr:housenumber" v="1817"/><tag k="addr:postcode" v="97233"/><tag k="addr:city" v="Portland"/><tag k="addr:street" v="Southeast 130th Avenue"/></node>
<node id="-11" lat="45.509879331" lon="-122.530609112" visible="true"><tag k="addr:housenumber" v="1819"/><tag k="addr:postcode" v="97233"/><tag k="addr:city" v="Portland"/><tag k="addr:street" v="Southeast 130th Avenue"/></node>
<node id="-12" lat="45.509198412" lon="-122.53073408" visible="true"><tag k="addr:housenumber" v="1925"/><tag k="addr:postcode" v="97233"/><tag k="addr:city" v="Portland"/><tag k="addr:street" v="Southeast 130th Avenue"/></node>
<node id="-13" lat="45.509193902" lon="-122.530734577" visible="true"><tag k="addr:housenumber" v="1935"/><tag k="addr:postcode" v="97233"/><tag k="addr:city" v="Portland"/><tag k="addr:street" v="Southeast 130th Avenue"/></node>
<node id="-14" lat="45.505690433" lon="-122.529615022" visible="true"><tag k="addr:housenumber" v="2308"/><tag k="addr:postcode" v="97233"/><tag k="addr:city" v="Portland"/><tag k="addr:street" v="Southeast 130th Avenue"/></node>
<node id="-15" lat="45.505694462" lon="-122.529615752" visible="true"><tag k="addr:housenumber" v="2312"/><tag k="addr:postcode" v="97233"/><tag k="addr:city" v="Portland"/><tag k="addr:street" v="Southeast 130th Avenue"/></node>
<node id="-16" lat="45.504621175" lon="-122.530191689" visible="true"><tag k="addr:housenumber" v="2417"/><tag k="addr:postcode" v="97233"/><tag k="addr:city" v="Portland"/><tag k="addr:street" v="Southeast 130th Avenue"/></node>
<node id="-17" lat="45.504626971" lon="-122.530196159" visible="true"><tag k="addr:housenumber" v="2419"/><tag k="addr:postcode" v="97233"/><tag k="addr:city" v="Portland"/><tag k="addr:street" v="Southeast 130th Avenue"/></node>
<node id="-18" lat="45.504401365" lon="-122.534991466" visible="true"><tag k="addr:housenumber" v="12433"/><tag k="addr:postcode" v="97236"/><tag k="addr:city" v="Portland"/><tag k="addr:street" v="Southeast Division Street"/></node>
<node id="-19" lat="45.504407169" lon="-122.534984481" visible="true"><tag k="addr:housenumber" v="12437"/><tag k="addr:postcode" v="97236"/><tag k="addr:city" v="Portland"/><tag k="addr:street" v="Southeast Division Street"/></node>
<node id="-20" lat="45.504501567" lon="-122.532045031" visible="true"><tag k="addr:housenumber" v="12723"/><tag k="addr:postcode" v="97236"/><tag k="addr:city" v="Portland"/><tag k="addr:street" v="Southeast Division Street"/></node>
<node id="-21" lat="45.504461725" lon="-122.532013429" visible="true"><tag k="addr:housenumber" v="12725"/><tag k="addr:postcode" v="97236"/><tag k="addr:city" v="Portland"/><tag k="addr:street" v="Southeast Division Street"/></node>
<node id="-22" lat="45.504651919" lon="-122.529091875" visible="true"><tag k="addr:housenumber" v="13021"/><tag k="addr:postcode" v="97236"/><tag k="addr:city" v="Portland"/><tag k="addr:street" v="Southeast Division Street"/></node>
<node id="-23" lat="45.50465983" lon="-122.529086815" visible="true"><tag k="addr:housenumber" v="13023"/><tag k="addr:postcode" v="97236"/><tag k="addr:city" v="Portland"/><tag k="addr:street" v="Southeast Division Street"/></node>
<node id="-24" lat="45.504659179" lon="-122.529091198" visible="true"><tag k="addr:housenumber" v="13025"/><tag k="addr:postcode" v="97236"/><tag k="addr:city" v="Portland"/><tag k="addr:street" v="Southeast Division Street"/></node>
<node id="-25" lat="45.504655079" lon="-122.529092154" visible="true"><tag k="addr:housenumber" v="13027"/><tag k="addr:postcode" v="97236"/><tag k="addr:city" v="Portland"/><tag k="addr:street" v="Southeast Division Street"/></node>
<node id="-26" lat="45.504657912" lon="-122.529092887" visible="true"><tag k="addr:housenumber" v="13029"/><tag k="addr:postcode" v="97236"/><tag k="addr:city" v="Portland"/><tag k="addr:street" v="Southeast Division Street"/></node>
<node id="-27" lat="45.508463881" lon="-122.528566879" visible="true"><tag k="addr:housenumber" v="13101"/><tag k="addr:postcode" v="97233"/><tag k="addr:city" v="Portland"/><tag k="addr:street" v="Southeast Lincoln Street"/></node>
<node id="-28" lat="45.5084706" lon="-122.528567972" visible="true"><tag k="addr:housenumber" v="13103"/><tag k="addr:postcode" v="97233"/><tag k="addr:city" v="Portland"/><tag k="addr:street" v="Southeast Lincoln Street"/></node>
<node id="-29" lat="45.5104006" lon="-122.530617225" visible="true"><tag k="addr:housenumber" v="12909"/><tag k="addr:postcode" v="97233"/><tag k="addr:city" v="Portland"/><tag k="addr:street" v="Southeast Mill Street"/></node>
<node id="-30" lat="45.510404909" lon="-122.530258892" visible="true"><tag k="addr:housenumber" v="12923"/><tag k="addr:postcode" v="97233"/><tag k="addr:city" v="Portland"/><tag k="addr:street" v="Southeast Mill Street"/></node>
<node id="-31" lat="45.506448254" lon="-122.531393048" visible="true"><tag k="addr:housenumber" v="12825"/><tag k="addr:postcode" v="97233"/><tag k="addr:city" v="Portland"/><tag k="addr:street" v="Southeast Sherman Street"/></node>
<node id="-32" lat="45.506434814" lon="-122.531388377" visible="true"><tag k="addr:housenumber" v="12855"/><tag k="addr:postcode" v="97233"/><tag k="addr:city" v="Portland"/><tag k="addr:street" v="Southeast Sherman Street"/></node>
<node id="-33" lat="45.505692451" lon="-122.529618828" visible="true"><tag k="addr:housenumber" v="13008"/><tag k="addr:postcode" v="97233"/><tag k="addr:city" v="Portland"/><tag k="addr:street" v="Southeast Sherman Street"/></node>
<node id="-34" lat="45.506062747" lon="-122.529163562" visible="true"><tag k="addr:housenumber" v="13015"/><tag k="addr:postcode" v="97233"/><tag k="addr:city" v="Portland"/><tag k="addr:street" v="Southeast Sherman Street"/></node>
<node id="-35" lat="45.506058845" lon="-122.529163927" visible="true"><tag k="addr:housenumber" v="13035"/><tag k="addr:postcode" v="97233"/><tag k="addr:city" v="Portland"/><tag k="addr:street" v="Southeast Sherman Street"/></node>
<node id="-36" lat="45.509257625" lon="-122.534865004" visible="true"><tag k="addr:housenumber" v="12439"/><tag k="addr:postcode" v="97233"/><tag k="addr:city" v="Portland"/><tag k="addr:street" v="Southeast Stephens Street"/></node>
<node id="-37" lat="45.509249629" lon="-122.534866273" visible="true"><tag k="addr:housenumber" v="12441"/><tag k="addr:postcode" v="97233"/><tag k="addr:city" v="Portland"/><tag k="addr:street" v="Southeast Stephens Street"/></node>
</osm>