<?xml version="1.0"?>
<osm version="0.6" upload="false" generator="uvmogr2osm">
<node id="-1" lat="45.497236032" lon="-122.506237194" visible="true"><tag k="addr:housenumber" v="3503"/><tag k="addr:postcode" v="97236"/><tag k="addr:city" v="Portland"/><tag k="addr:street" v="Southeast 153rd Avenue"/></node>
<node id="-2" lat="45.497238212" lon="-122.506235727" visible="true"><tag k="addr:housenumber" v="3505"/><tag k="addr:postcode" v="97236"/><tag k="addr:city" v="Portland"/><tag k="addr:street" v="Southeast 153rd Avenue"/></node>
<node id="-3" lat="45.503863852" lon="-122.504436913" visible="true"><tag k="addr:housenumber" v="2530"/><tag k="addr:postcode" v="97236"/><tag k="addr:city" v="Portland"/><tag k="addr:street" v="Southeast 154th Avenue"/></node>
<node id="-4" lat="45.503862704" lon="-122.504438339" visible="true"><tag k="addr:housenumber" v="2532"/><tag k="addr:postcode" v="97236"/><tag k="addr:city" v="Portland"/><tag k="addr:street" v="Southeast 154th Avenue"/></node>
<node id="-5" lat="45.501064981" lon="-122.498343839" visible="true"><tag k="addr:housenumber" v="2940"/><tag k="addr:postcode" v="97236"/><tag k="addr:city" v="Portland"/><tag k="addr:street" v="Southeast 160th Avenue"/></node>
<node id="-6" lat="45.501066285" lon="-122.498341155" visible="true"><tag k="addr:housenumber" v="16017"/><tag k="addr:postcode" v="97236"/><tag k="addr:city" v="Portland"/><tag k="addr:street" v="Southeast Brooklyn Street"/></node>
<node id="-7" lat="45.504014456" lon="-122.49930814" visible="true"><tag k="addr:housenumber" v="15908"/><tag k="addr:postcode" v="97236"/><tag k="addr:city" v="Portland"/><tag k="addr:street" v="Southeast Division Street"/></node>
<node id="-8" lat="45.504014792" lon="-122.499307044" visible="true"><tag k="addr:housenumber" v="15920"/><tag k="addr:postcode" v="97236"/><tag k="addr:city" v="Portland"/><tag k="addr:street" v="Southeast Division Street"/></node>
<node id="-9" lat="45.504031262" lon="-122.497075876" visible="true"><tag k="addr:housenumber" v="16002"/><tag k="addr:postcode" v="97236"/><tag k="addr:city" v="Portland"/><tag k="addr:street" v="Southeast Division Street"/></node>
<node id="-10" lat="45.504024656" lon="-122.497076213" visible="true"><tag k="addr:housenumber" v="16100"/><tag k="addr:postcode" v="97236"/><tag k="addr:city" v="Portland"/><tag k="addr:street" v="Southeast Division Street"/></node>
<node id="-11" lat="45.504030194" lon="-122.497073315" visible="true"><tag k="addr:housenumber" v="16104"/><tag k="addr:postcode" v="97236"/><tag k="addr:city" v="Portland"/><tag k="addr:street" v="Southeast Division Street"/></node>
<node id="-12" lat="45.504033262" lon="-122.497077353" visible="true"><tag k="addr:housenumber" v="16106"/><tag k="addr:postcode" v="97236"/><tag k="addr:city" v="Portland"/><tag k="addr:street" v="Southeast Division Street"/></node>
<node id="-13" lat="45.504029049" lon="-122.49707584" visible="true"><tag k="addr:housenumber" v="16108"/><tag k="addr:postcode" v="97236"/><tag k="addr:city" v="Portland"/><tag k="addr:street" v="Southeast Division Street"/></node>
<node id="-14" lat="45.504030389" lon="-122.4970746" visible="true"><tag k="addr:housenumber" v="16120"/><tag k="addr:postcode" v="97236"/><tag k="addr:city" v="Portland"/><tag k="addr:street" v="Southeast Division Street"/></node>
<node id="-15" lat="45.504029902" lon="-122.497077974" visible="true"><tag k="addr:housenumber" v="16140"/><tag k="addr:postcode" v="97236"/><tag k="addr:city" v="Portland"/><tag k="addr:street" v="Southeast Division Street"/></node>
</osm>