<?xml version="1.0"?>
<osm version="0.6" upload="false" generator="uvmogr2osm">
<node id="-1" lat="45.454448649" lon="-122.581903822" visible="true"><tag k="addr:housenumber" v="7997"/><tag k="addr:postcode" v="97222"/><tag k="addr:city" v="Milwaukie"/><tag k="addr:street" v="Southeast 80th Avenue"/></node>
<node id="-2" lat="45.454446791" lon="-122.581825589" visible="true"><tag k="addr:housenumber" v="7999"/><tag k="addr:postcode" v="97222"/><tag k="addr:city" v="Milwaukie"/><tag k="addr:street" v="Southeast 80th Avenue"/></node>
<node id="-3" lat="45.456754104" lon="-122.581358711" visible="true"><tag k="addr:housenumber" v="9165"/><tag k="addr:postcode" v="97206"/><tag k="addr:city" v="Portland"/><tag k="addr:street" v="Southeast 80th Avenue"/></node>
<node id="-4" lat="45.456649052" lon="-122.581374005" visible="true"><tag k="addr:housenumber" v="9167"/><tag k="addr:postcode" v="97206"/><tag k="addr:city" v="Portland"/><tag k="addr:street" v="Southeast 80th Avenue"/></node>
<node id="-5" lat="45.45506507" lon="-122.58259439" visible="true"><tag k="addr:housenumber" v="7920"/><tag k="addr:postcode" v="97222"/><tag k="addr:city" v="Milwaukie"/><tag k="addr:street" v="Southeast Clackamas Street"/></node>
<node id="-6" lat="45.455003241" lon="-122.582614507" visible="true"><tag k="addr:housenumber" v="7922"/><tag k="addr:postcode" v="97222"/><tag k="addr:city" v="Milwaukie"/><tag k="addr:street" v="Southeast Clackamas Street"/></node>
<node id="-7" lat="45.455075816" lon="-122.582178813" visible="true"><tag k="addr:housenumber" v="7936"/><tag k="addr:postcode" v="97222"/><tag k="addr:city" v="Milwaukie"/><tag k="addr:street" v="Southeast Clackamas Street"/></node>
<node id="-8" lat="45.454993083" lon="-122.582176827" visible="true"><tag k="addr:housenumber" v="7938"/><tag k="addr:postcode" v="97222"/><tag k="addr:city" v="Milwaukie"/><tag k="addr:street" v="Southeast Clackamas Street"/></node>
<node id="-9" lat="45.455010171" lon="-122.58179003" visible="true"><tag k="addr:housenumber" v="7940"/><tag k="addr:postcode" v="97222"/><tag k="addr:city" v="Milwaukie"/><tag k="addr:street" v="Southeast Clackamas Street"/></node>
<node id="-10" lat="45.455004177" lon="-122.581879823" visible="true"><tag k="addr:housenumber" v="7942"/><tag k="addr:postcode" v="97222"/><tag k="addr:city" v="Milwaukie"/><tag k="addr:street" v="Southeast Clackamas Street"/></node>
<node id="-11" lat="45.455010336" lon="-122.581983991" visible="true"><tag k="addr:housenumber" v="7944"/><tag k="addr:postcode" v="97222"/><tag k="addr:city" v="Milwaukie"/><tag k="addr:street" v="Southeast Clackamas Street"/></node>
<node id="-12" lat="45.454983464" lon="-122.587143454" visible="true"><tag k="addr:housenumber" v="7406"/><tag k="addr:postcode" v="97222"/><tag k="addr:city" v="Portland"/><tag k="addr:street" v="Southeast Johnson Creek Boulevard"/></node>
<node id="-13" lat="45.454777075" lon="-122.587152989" visible="true"><tag k="addr:housenumber" v="7410"/><tag k="addr:postcode" v="97222"/><tag k="addr:city" v="Portland"/><tag k="addr:street" v="Southeast Johnson Creek Boulevard"/></node>
<node id="-14" lat="45.457654542" lon="-122.583111131" visible="true"><tag k="addr:housenumber" v="7833"/><tag k="addr:postcode" v="97206"/><tag k="addr:city" v="Portland"/><tag k="addr:street" v="Southeast Johnson Creek Boulevard"/></node>
<node id="-15" lat="45.457687783" lon="-122.583107468" visible="true"><tag k="addr:housenumber" v="7835"/><tag k="addr:postcode" v="97206"/><tag k="addr:city" v="Portland"/><tag k="addr:street" v="Southeast Johnson Creek Boulevard"/></node>
<node id="-16" lat="45.457731383" lon="-122.583113596" visible="true"><tag k="addr:housenumber" v="7837"/><tag k="addr:postcode" v="97206"/><tag k="addr:city" v="Portland"/><tag k="addr:street" v="Southeast Johnson Creek Boulevard"/></node>
<node id="-17" lat="45.457765011" lon="-122.583110652" visible="true"><tag k="addr:housenumber" v="7839"/><tag k="addr:postcode" v="97206"/><tag k="addr:city" v="Portland"/><tag k="addr:street" v="Southeast Johnson Creek Boulevard"/></node>
<node id="-18" lat="45.457842723" lon="-122.582933981" visible="true"><tag k="addr:housenumber" v="7841"/><tag k="addr:postcode" v="97206"/><tag k="addr:city" v="Portland"/><tag k="addr:street" v="Southeast Johnson Creek Boulevard"/></node>
<node id="-19" lat="45.457851228" lon="-122.582883905" visible="true"><tag k="addr:housenumber" v="7843"/><tag k="addr:postcode" v="97206"/><tag k="addr:city" v="Portland"/><tag k="addr:street" v="Southeast Johnson Creek Boulevard"/></node>
<node id="-20" lat="45.45784877" lon="-122.582836674" visible="true"><tag k="addr:housenumber" v="7845"/><tag k="addr:postcode" v="97206"/><tag k="addr:city" v="Portland"/><tag k="addr:street" v="Southeast Johnson Creek Boulevard"/></node>
<node id="-21" lat="45.457844207" lon="-122.582777403" visible="true"><tag k="addr:housenumber" v="7847"/><tag k="addr:postcode" v="97206"/><tag k="addr:city" v="Portland"/><tag k="addr:street" v="Southeast Johnson Creek Boulevard"/></node>
<node id="-22" lat="45.457665859" lon="-122.58272573" visible="true"><tag k="addr:housenumber" v="7849"/><tag k="addr:postcode" v="97206"/><tag k="addr:city" v="Portland"/><tag k="addr:street" v="Southeast Johnson Creek Boulevard"/></node>
<node id="-23" lat="45.457658971" lon="-122.582654695" visible="true"><tag k="addr:housenumber" v="7851"/><tag k="addr:postcode" v="97206"/><tag k="addr:city" v="Portland"/><tag k="addr:street" v="Southeast Johnson Creek Boulevard"/></node>
<node id="-24" lat="45.457846949" lon="-122.582569231" visible="true"><tag k="addr:housenumber" v="7853"/><tag k="addr:postcode" v="97206"/><tag k="addr:city" v="Portland"/><tag k="addr:street" v="Southeast Johnson Creek Boulevard"/></node>
<node id="-25" lat="45.457843599" lon="-122.58251825" visible="true"><tag k="addr:housenumber" v="7855"/><tag k="addr:postcode" v="97206"/><tag k="addr:city" v="Portland"/><tag k="addr:street" v="Southeast Johnson Creek Boulevard"/></node>
<node id="-26" lat="45.457846048" lon="-122.582488465" visible="true"><tag k="addr:housenumber" v="7857"/><tag k="addr:postcode" v="97206"/><tag k="addr:city" v="Portland"/><tag k="addr:street" v="Southeast Johnson Creek Boulevard"/></node>
<node id="-27" lat="45.457844577" lon="-122.582432557" visible="true"><tag k="addr:housenumber" v="7859"/><tag k="addr:postcode" v="97206"/><tag k="addr:city" v="Portland"/><tag k="addr:street" v="Southeast Johnson Creek Boulevard"/></node>
<node id="-28" lat="45.457771261" lon="-122.582256051" visible="true"><tag k="addr:housenumber" v="7861"/><tag k="addr:postcode" v="97206"/><tag k="addr:city" v="Portland"/><tag k="addr:street" v="Southeast Johnson Creek Boulevard"/></node>
<node id="-29" lat="45.457733932" lon="-122.582261651" visible="true"><tag k="addr:housenumber" v="7863"/><tag k="addr:postcode" v="97206"/><tag k="addr:city" v="Portland"/><tag k="addr:street" v="Southeast Johnson Creek Boulevard"/></node>
<node id="-30" lat="45.457700388" lon="-122.58226135" visible="true"><tag k="addr:housenumber" v="7865"/><tag k="addr:postcode" v="97206"/><tag k="addr:city" v="Portland"/><tag k="addr:street" v="Southeast Johnson Creek Boulevard"/></node>
<node id="-31" lat="45.457665835" lon="-122.582271238" visible="true"><tag k="addr:housenumber" v="7867"/><tag k="addr:postcode" v="97206"/><tag k="addr:city" v="Portland"/><tag k="addr:street" v="Southeast Johnson Creek Boulevard"/></node>
<node id="-32" lat="45.457481394" lon="-122.582413991" visible="true"><tag k="addr:housenumber" v="7869"/><tag k="addr:postcode" v="97206"/><tag k="addr:city" v="Portland"/><tag k="addr:street" v="Southeast Johnson Creek Boulevard"/></node>
<node id="-33" lat="45.457484048" lon="-122.582359862" visible="true"><tag k="addr:housenumber" v="7871"/><tag k="addr:postcode" v="97206"/><tag k="addr:city" v="Portland"/><tag k="addr:street" v="Southeast Johnson Creek Boulevard"/></node>
<node id="-34" lat="45.45748184" lon="-122.582324499" visible="true"><tag k="addr:housenumber" v="7873"/><tag k="addr:postcode" v="97206"/><tag k="addr:city" v="Portland"/><tag k="addr:street" v="Southeast Johnson Creek Boulevard"/></node>
<node id="-35" lat="45.457483211" lon="-122.582275855" visible="true"><tag k="addr:housenumber" v="7875"/><tag k="addr:postcode" v="97206"/><tag k="addr:city" v="Portland"/><tag k="addr:street" v="Southeast Johnson Creek Boulevard"/></node>
<node id="-36" lat="45.44724399" lon="-122.600386368" visible="true"><tag k="addr:housenumber" v="6100"/><tag k="addr:postcode" v="97222"/><tag k="addr:city" v="Milwaukie"/><tag k="addr:street" v="Southeast King Road"/></node>
<node id="-37" lat="45.447256712" lon="-122.600077184" visible="true"><tag k="addr:housenumber" v="6104"/><tag k="addr:postcode" v="97222"/><tag k="addr:city" v="Milwaukie"/><tag k="addr:street" v="Southeast King Road"/></node>
<node id="-38" lat="45.447260313" lon="-122.599920258" visible="true"><tag k="addr:housenumber" v="6106"/><tag k="addr:postcode" v="97222"/><tag k="addr:city" v="Milwaukie"/><tag k="addr:street" v="Southeast King Road"/></node>
<node id="-39" lat="45.447253594" lon="-122.599774912" visible="true"><tag k="addr:housenumber" v="6110"/><tag k="addr:postcode" v="97222"/><tag k="addr:city" v="Milwaukie"/><tag k="addr:street" v="Southeast King Road"/></node>
<node id="-40" lat="45.447245377" lon="-122.599532911" visible="true"><tag k="addr:housenumber" v="6114"/><tag k="addr:postcode" v="97222"/><tag k="addr:city" v="Milwaukie"/><tag k="addr:street" v="Southeast King Road"/></node>
<node id="-41" lat="45.441775208" lon="-122.598958979" visible="true"><tag k="addr:housenumber" v="11316"/><tag k="addr:postcode" v="97222"/><tag k="addr:city" v="Milwaukie"/><tag k="addr:street" v="Southeast Linwood Avenue"/></node>
<node id="-42" lat="45.441664435" lon="-122.598960563" visible="true"><tag k="addr:housenumber" v="11326"/><tag k="addr:postcode" v="97222"/><tag k="addr:city" v="Milwaukie"/><tag k="addr:street" v="Southeast Linwood Avenue"/></node>
<node id="-43" lat="45.454709522" lon="-122.58185907" visible="true"><tag k="addr:housenumber" v="8001"/><tag k="addr:postcode" v="97222"/><tag k="addr:city" v="Milwaukie"/><tag k="addr:street" v="Southeast Overland Street"/></node>
<node id="-44" lat="45.454774427" lon="-122.581865584" visible="true"><tag k="addr:housenumber" v="8003"/><tag k="addr:postcode" v="97222"/><tag k="addr:city" v="Milwaukie"/><tag k="addr:street" v="Southeast Overland Street"/></node>
<node id="-45" lat="45.454844067" lon="-122.581856268" visible="true"><tag k="addr:housenumber" v="8005"/><tag k="addr:postcode" v="97222"/><tag k="addr:city" v="Milwaukie"/><tag k="addr:street" v="Southeast Overland Street"/></node>
<node id="-46" lat="45.455982896" lon="-122.582097827" visible="true"><tag k="addr:housenumber" v="9306"/><tag k="addr:postcode" v="97222"/><tag k="addr:city" v="Milwaukie"/><tag k="addr:street" v="Southeast Sherrianne Court"/></node>
<node id="-47" lat="45.455997975" lon="-122.582056917" visible="true"><tag k="addr:housenumber" v="9308"/><tag k="addr:postcode" v="97222"/><tag k="addr:city" v="Milwaukie"/><tag k="addr:street" v="Southeast Sherrianne Court"/></node>
<node id="-48" lat="45.455841357" lon="-122.581917379" visible="true"><tag k="addr:housenumber" v="9310"/><tag k="addr:postcode" v="97222"/><tag k="addr:city" v="Milwaukie"/><tag k="addr:street" v="Southeast Sherrianne Court"/></node>
<node id="-49" lat="45.455870426" lon="-122.581876327" visible="true"><tag k="addr:housenumber" v="9312"/><tag k="addr:postcode" v="97222"/><tag k="addr:city" v="Milwaukie"/><tag k="addr:street" v="Southeast Sherrianne Court"/></node>
<node id="-50" lat="45.455634371" lon="-122.581888685" visible="true"><tag k="addr:housenumber" v="9314"/><tag k="addr:postcode" v="97222"/><tag k="addr:city" v="Milwaukie"/><tag k="addr:street" v="Southeast Sherrianne Court"/></node>
<node id="-51" lat="45.455589041" lon="-122.581884477" visible="true"><tag k="addr:housenumber" v="9316"/><tag k="addr:postcode" v="97222"/><tag k="addr:city" v="Milwaukie"/><tag k="addr:street" v="Southeast Sherrianne Court"/></node>
<node id="-52" lat="45.455426352" lon="-122.581918931" visible="true"><tag k="addr:housenumber" v="9318"/><tag k="addr:postcode" v="97222"/><tag k="addr:city" v="Milwaukie"/><tag k="addr:street" v="Southeast Sherrianne Court"/></node>
<node id="-53" lat="45.455377918" lon="-122.581911352" visible="true"><tag k="addr:housenumber" v="9320"/><tag k="addr:postcode" v="97222"/><tag k="addr:city" v="Milwaukie"/><tag k="addr:street" v="Southeast Sherrianne Court"/></node>
</osm>