<?xml version="1.0"?>
<osm version="0.6" upload="false" generator="uvmogr2osm">
<node id="-1" lat="45.517857475" lon="-122.544873401" visible="true"><tag k="addr:housenumber" v="620"/><tag k="addr:postcode" v="97216"/><tag k="addr:city" v="Portland"/><tag k="addr:street" v="Southeast 115th Avenue"/></node>
<node id="-2" lat="45.516374" lon="-122.5426738" visible="true"><tag k="addr:housenumber" v="844"/><tag k="addr:postcode" v="97216"/><tag k="addr:city" v="Portland"/><tag k="addr:street" v="Southeast 117th Avenue"/></node>
<node id="-3" lat="45.518321676" lon="-122.540175337" visible="true"><tag k="addr:housenumber" v="540"/><tag k="addr:postcode" v="97216"/><tag k="addr:city" v="Portland"/><tag k="addr:street" v="Southeast 119th Avenue"/></node>
<node id="-4" lat="45.518330451" lon="-122.540178272" visible="true"><tag k="addr:housenumber" v="542"/><tag k="addr:postcode" v="97216"/><tag k="addr:city" v="Portland"/><tag k="addr:street" v="Southeast 119th Avenue"/></node>
<node id="-5" lat="45.518123121" lon="-122.540166252" visible="true"><tag k="addr:housenumber" v="604"/><tag k="addr:postcode" v="97216"/><tag k="addr:city" v="Portland"/><tag k="addr:street" v="Southeast 119th Avenue"/></node>
<node id="-6" lat="45.518120743" lon="-122.540166269" visible="true"><tag k="addr:housenumber" v="608"/><tag k="addr:postcode" v="97216"/><tag k="addr:city" v="Portland"/><tag k="addr:street" v="Southeast 119th Avenue"/></node>
<node id="-7" lat="45.518122754" lon="-122.540165809" visible="true"><tag k="addr:housenumber" v="612"/><tag k="addr:postcode" v="97216"/><tag k="addr:city" v="Portland"/><tag k="addr:street" v="Southeast 119th Avenue"/></node>
<node id="-8" lat="45.518114517" lon="-122.540170627" visible="true"><tag k="addr:housenumber" v="616"/><tag k="addr:postcode" v="97216"/><tag k="addr:city" v="Portland"/><tag k="addr:street" v="Southeast 119th Avenue"/></node>
<node id="-9" lat="45.518115626" lon="-122.540171734" visible="true"><tag k="addr:housenumber" v="620"/><tag k="addr:postcode" v="97216"/><tag k="addr:city" v="Portland"/><tag k="addr:street" v="Southeast 119th Avenue"/></node>
<node id="-10" lat="45.518123427" lon="-122.540171977" visible="true"><tag k="addr:housenumber" v="624"/><tag k="addr:postcode" v="97216"/><tag k="addr:city" v="Portland"/><tag k="addr:street" v="Southeast 119th Avenue"/></node>
<node id="-11" lat="45.517466359" lon="-122.538121468" visible="true"><tag k="addr:housenumber" v="707"/><tag k="addr:postcode" v="97233"/><tag k="addr:city" v="Portland"/><tag k="addr:street" v="Southeast 122nd Avenue"/></node>
<node id="-12" lat="45.517468793" lon="-122.538127203" visible="true"><tag k="addr:housenumber" v="709"/><tag k="addr:postcode" v="97233"/><tag k="addr:city" v="Portland"/><tag k="addr:street" v="Southeast 122nd Avenue"/></node>
<node id="-13" lat="45.517461433" lon="-122.538125912" visible="true"><tag k="addr:housenumber" v="711"/><tag k="addr:postcode" v="97233"/><tag k="addr:city" v="Portland"/><tag k="addr:street" v="Southeast 122nd Avenue"/></node>
<node id="-14" lat="45.51779425" lon="-122.54394976" visible="true"><tag k="addr:housenumber" v="11155"/><tag k="addr:postcode" v="97216"/><tag k="addr:city" v="Portland"/><tag k="addr:street" v="Southeast Alder Street"/></node>
<node id="-15" lat="45.517858405" lon="-122.544879068" visible="true"><tag k="addr:housenumber" v="11511"/><tag k="addr:postcode" v="97216"/><tag k="addr:city" v="Portland"/><tag k="addr:street" v="Southeast Alder Street"/></node>
<node id="-16" lat="45.517789901" lon="-122.5439469" visible="true"><tag k="addr:housenumber" v="11555"/><tag k="addr:postcode" v="97216"/><tag k="addr:city" v="Portland"/><tag k="addr:street" v="Southeast Alder Street"/></node>
<node id="-17" lat="45.517800494" lon="-122.541320692" visible="true"><tag k="addr:housenumber" v="11807"/><tag k="addr:postcode" v="97216"/><tag k="addr:city" v="Portland"/><tag k="addr:street" v="Southeast Alder Street"/></node>
<node id="-18" lat="45.51780295" lon="-122.541326378" visible="true"><tag k="addr:housenumber" v="11817"/><tag k="addr:postcode" v="97216"/><tag k="addr:city" v="Portland"/><tag k="addr:street" v="Southeast Alder Street"/></node>
<node id="-19" lat="45.513902236" lon="-122.543338632" visible="true"><tag k="addr:housenumber" v="11618"/><tag k="addr:postcode" v="97216"/><tag k="addr:city" v="Portland"/><tag k="addr:street" v="Southeast Main Street"/></node>
<node id="-20" lat="45.513898805" lon="-122.54333948" visible="true"><tag k="addr:housenumber" v="11620"/><tag k="addr:postcode" v="97216"/><tag k="addr:city" v="Portland"/><tag k="addr:street" v="Southeast Main Street"/></node>
<node id="-21" lat="45.511881679" lon="-122.539326635" visible="true"><tag k="addr:housenumber" v="12011"/><tag k="addr:postcode" v="97216"/><tag k="addr:city" v="Portland"/><tag k="addr:street" v="Southeast Market Street"/></node>
<node id="-22" lat="45.511875086" lon="-122.539331459" visible="true"><tag k="addr:housenumber" v="12015"/><tag k="addr:postcode" v="97216"/><tag k="addr:city" v="Portland"/><tag k="addr:street" v="Southeast Market Street"/></node>
<node id="-23" lat="45.511873397" lon="-122.539325342" visible="true"><tag k="addr:housenumber" v="12017"/><tag k="addr:postcode" v="97216"/><tag k="addr:city" v="Portland"/><tag k="addr:street" v="Southeast Market Street"/></node>
<node id="-24" lat="45.511851471" lon="-122.539167585" visible="true"><tag k="addr:housenumber" v="12025"/><tag k="addr:postcode" v="97216"/><tag k="addr:city" v="Portland"/><tag k="addr:street" v="Southeast Market Street"/></node>
<node id="-25" lat="45.511844643" lon="-122.539159124" visible="true"><tag k="addr:housenumber" v="12027"/><tag k="addr:postcode" v="97216"/><tag k="addr:city" v="Portland"/><tag k="addr:street" v="Southeast Market Street"/></node>
<node id="-26" lat="45.511852479" lon="-122.53916541" visible="true"><tag k="addr:housenumber" v="12029"/><tag k="addr:postcode" v="97216"/><tag k="addr:city" v="Portland"/><tag k="addr:street" v="Southeast Market Street"/></node>
<node id="-27" lat="45.517076383" lon="-122.543461406" visible="true"><tag k="addr:housenumber" v="11633"/><tag k="addr:postcode" v="97216"/><tag k="addr:city" v="Portland"/><tag k="addr:street" v="Southeast Morrison Street"/></node>
<node id="-28" lat="45.517084425" lon="-122.543463145" visible="true"><tag k="addr:housenumber" v="11645"/><tag k="addr:postcode" v="97216"/><tag k="addr:city" v="Portland"/><tag k="addr:street" v="Southeast Morrison Street"/></node>
<node id="-29" lat="45.518779045" lon="-122.540180532" visible="true"><tag k="addr:housenumber" v="11902"/><tag k="addr:postcode" v="97216"/><tag k="addr:city" v="Portland"/><tag k="addr:street" v="Southeast Stark Street"/></node>
<node id="-30" lat="45.518779214" lon="-122.540179759" visible="true"><tag k="addr:housenumber" v="11904"/><tag k="addr:postcode" v="97216"/><tag k="addr:city" v="Portland"/><tag k="addr:street" v="Southeast Stark Street"/></node>
<node id="-31" lat="45.518499494" lon="-122.544928132" visible="true"><tag k="addr:housenumber" v="11505"/><tag k="addr:postcode" v="97216"/><tag k="addr:city" v="Portland"/><tag k="addr:street" v="Southeast Washington Street"/></node>
<node id="-32" lat="45.518497511" lon="-122.544931027" visible="true"><tag k="addr:housenumber" v="11511"/><tag k="addr:postcode" v="97216"/><tag k="addr:city" v="Portland"/><tag k="addr:street" v="Southeast Washington Street"/></node>
<node id="-33" lat="45.516375004" lon="-122.542669232" visible="true"><tag k="addr:housenumber" v="11703"/><tag k="addr:postcode" v="97216"/><tag k="addr:city" v="Portland"/><tag k="addr:street" v="Southeast Yamhill Street"/></node>
<node id="-34" lat="45.516374824" lon="-122.541943235" visible="true"><tag k="addr:housenumber" v="11739"/><tag k="addr:postcode" v="97216"/><tag k="addr:city" v="Portland"/><tag k="addr:street" v="Southeast Yamhill Street"/></node>
<node id="-35" lat="45.516373445" lon="-122.541936439" visible="true"><tag k="addr:housenumber" v="11741"/><tag k="addr:postcode" v="97216"/><tag k="addr:city" v="Portland"/><tag k="addr:street" v="Southeast Yamhill Street"/></node>
</osm>