<?xml version="1.0"?>
<osm version="0.6" upload="false" generator="uvmogr2osm">
<node id="-1" lat="45.461673519" lon="-122.576526753" visible="true"><tag k="addr:housenumber" v="8421"/><tag k="addr:postcode" v="97266"/><tag k="addr:city" v="Portland"/><tag k="addr:street" v="Southeast Clatsop Street"/></node>
<node id="-2" lat="45.461678696" lon="-122.576530007" visible="true"><tag k="addr:housenumber" v="8425"/><tag k="addr:postcode" v="97266"/><tag k="addr:city" v="Portland"/><tag k="addr:street" v="Southeast Clatsop Street"/></node>
<node id="-3" lat="45.468210017" lon="-122.577154998" visible="true"><tag k="addr:housenumber" v="8324"/><tag k="addr:postcode" v="97266"/><tag k="addr:city" v="Portland"/><tag k="addr:street" v="Southeast Flavel Street"/></node>
<node id="-4" lat="45.468210928" lon="-122.577159118" visible="true"><tag k="addr:housenumber" v="8346"/><tag k="addr:postcode" v="97266"/><tag k="addr:city" v="Portland"/><tag k="addr:street" v="Southeast Flavel Street"/></node>
<node id="-5" lat="45.464182146" lon="-122.577350946" visible="true"><tag k="addr:housenumber" v="8325"/><tag k="addr:postcode" v="97266"/><tag k="addr:city" v="Portland"/><tag k="addr:street" v="Southeast Harney Street"/></node>
<node id="-6" lat="45.464181412" lon="-122.577351757" visible="true"><tag k="addr:housenumber" v="8331"/><tag k="addr:postcode" v="97266"/><tag k="addr:city" v="Portland"/><tag k="addr:street" v="Southeast Harney Street"/></node>
<node id="-7" lat="45.464176467" lon="-122.577346276" visible="true"><tag k="addr:housenumber" v="8333"/><tag k="addr:postcode" v="97266"/><tag k="addr:city" v="Portland"/><tag k="addr:street" v="Southeast Harney Street"/></node>
<node id="-8" lat="45.46418188" lon="-122.577348911" visible="true"><tag k="addr:housenumber" v="8345"/><tag k="addr:postcode" v="97266"/><tag k="addr:city" v="Portland"/><tag k="addr:street" v="Southeast Harney Street"/></node>
<node id="-9" lat="45.463043321" lon="-122.575985496" visible="true"><tag k="addr:housenumber" v="8450"/><tag k="addr:postcode" v="97266"/><tag k="addr:city" v="Portland"/><tag k="addr:street" v="Southeast Harney Street"/></node>
<node id="-10" lat="45.467605833" lon="-122.57461888" visible="true"><tag k="addr:housenumber" v="8633"/><tag k="addr:postcode" v="97266"/><tag k="addr:city" v="Portland"/><tag k="addr:street" v="Southeast Malden Court"/></node>
<node id="-11" lat="45.467609823" lon="-122.574619915" visible="true"><tag k="addr:housenumber" v="8637"/><tag k="addr:postcode" v="97266"/><tag k="addr:city" v="Portland"/><tag k="addr:street" v="Southeast Malden Court"/></node>
<node id="-12" lat="45.463039393" lon="-122.57598122" visible="true"><tag k="addr:housenumber" v="8439"/><tag k="addr:postcode" v="97266"/><tag k="addr:city" v="Portland"/><tag k="addr:street" v="Southeast Sherrett Street"/></node>
</osm>