<?xml version="1.0"?>
<osm version="0.6" upload="false" generator="uvmogr2osm">
<node id="-1" lat="45.499878657" lon="-122.609800661" visible="true"><tag k="addr:housenumber" v="3122"/><tag k="addr:postcode" v="97206"/><tag k="addr:city" v="Portland"/><tag k="addr:street" v="Southeast 51st Avenue"/></node>
<node id="-2" lat="45.499880431" lon="-122.60980051" visible="true"><tag k="addr:housenumber" v="3124"/><tag k="addr:postcode" v="97206"/><tag k="addr:city" v="Portland"/><tag k="addr:street" v="Southeast 51st Avenue"/></node>
<node id="-3" lat="45.497958175" lon="-122.609507267" visible="true"><tag k="addr:housenumber" v="3415"/><tag k="addr:postcode" v="97206"/><tag k="addr:city" v="Portland"/><tag k="addr:street" v="Southeast 52nd Avenue"/></node>
<node id="-4" lat="45.49795384" lon="-122.609507031" visible="true"><tag k="addr:housenumber" v="3417"/><tag k="addr:postcode" v="97206"/><tag k="addr:city" v="Portland"/><tag k="addr:street" v="Southeast 52nd Avenue"/></node>
<node id="-5" lat="45.500008338" lon="-122.607737931" visible="true"><tag k="addr:housenumber" v="3112"/><tag k="addr:postcode" v="97206"/><tag k="addr:city" v="Portland"/><tag k="addr:street" v="Southeast 53rd Avenue"/></node>
<node id="-6" lat="45.500012175" lon="-122.607742101" visible="true"><tag k="addr:housenumber" v="3114"/><tag k="addr:postcode" v="97206"/><tag k="addr:city" v="Portland"/><tag k="addr:street" v="Southeast 53rd Avenue"/></node>
<node id="-7" lat="45.499599947" lon="-122.608328909" visible="true"><tag k="addr:housenumber" v="3207"/><tag k="addr:postcode" v="97206"/><tag k="addr:city" v="Portland"/><tag k="addr:street" v="Southeast 53rd Avenue"/></node>
<node id="-8" lat="45.499603618" lon="-122.608327852" visible="true"><tag k="addr:housenumber" v="3209"/><tag k="addr:postcode" v="97206"/><tag k="addr:city" v="Portland"/><tag k="addr:street" v="Southeast 53rd Avenue"/></node>
<node id="-9" lat="45.498782549" lon="-122.6077453" visible="true"><tag k="addr:housenumber" v="3308"/><tag k="addr:postcode" v="97206"/><tag k="addr:city" v="Portland"/><tag k="addr:street" v="Southeast 53rd Avenue"/></node>
<node id="-10" lat="45.498644317" lon="-122.608325304" visible="true"><tag k="addr:housenumber" v="3315"/><tag k="addr:postcode" v="97206"/><tag k="addr:city" v="Portland"/><tag k="addr:street" v="Southeast 53rd Avenue"/></node>
<node id="-11" lat="45.498636806" lon="-122.608334008" visible="true"><tag k="addr:housenumber" v="3319"/><tag k="addr:postcode" v="97206"/><tag k="addr:city" v="Portland"/><tag k="addr:street" v="Southeast 53rd Avenue"/></node>
<node id="-12" lat="45.49849603" lon="-122.608331683" visible="true"><tag k="addr:housenumber" v="3323"/><tag k="addr:postcode" v="97206"/><tag k="addr:city" v="Portland"/><tag k="addr:street" v="Southeast 53rd Avenue"/></node>
<node id="-13" lat="45.498498861" lon="-122.608333039" visible="true"><tag k="addr:housenumber" v="3325"/><tag k="addr:postcode" v="97206"/><tag k="addr:city" v="Portland"/><tag k="addr:street" v="Southeast 53rd Avenue"/></node>
<node id="-14" lat="45.497751506" lon="-122.60784804" visible="true"><tag k="addr:housenumber" v="3426"/><tag k="addr:postcode" v="97206"/><tag k="addr:city" v="Portland"/><tag k="addr:street" v="Southeast 53rd Avenue"/></node>
<node id="-15" lat="45.497754473" lon="-122.607844917" visible="true"><tag k="addr:housenumber" v="3428"/><tag k="addr:postcode" v="97206"/><tag k="addr:city" v="Portland"/><tag k="addr:street" v="Southeast 53rd Avenue"/></node>
<node id="-16" lat="45.497749883" lon="-122.607845223" visible="true"><tag k="addr:housenumber" v="3430"/><tag k="addr:postcode" v="97206"/><tag k="addr:city" v="Portland"/><tag k="addr:street" v="Southeast 53rd Avenue"/></node>
<node id="-17" lat="45.500409792" lon="-122.606389574" visible="true"><tag k="addr:housenumber" v="3031"/><tag k="addr:postcode" v="97206"/><tag k="addr:city" v="Portland"/><tag k="addr:street" v="Southeast 55th Avenue"/></node>
<node id="-18" lat="45.499939157" lon="-122.605701816" visible="true"><tag k="addr:housenumber" v="3110"/><tag k="addr:postcode" v="97206"/><tag k="addr:city" v="Portland"/><tag k="addr:street" v="Southeast 55th Avenue"/></node>
<node id="-19" lat="45.499937074" lon="-122.605696441" visible="true"><tag k="addr:housenumber" v="3112"/><tag k="addr:postcode" v="97206"/><tag k="addr:city" v="Portland"/><tag k="addr:street" v="Southeast 55th Avenue"/></node>
<node id="-20" lat="45.498292645" lon="-122.605708256" visible="true"><tag k="addr:housenumber" v="3334"/><tag k="addr:postcode" v="97206"/><tag k="addr:city" v="Portland"/><tag k="addr:street" v="Southeast 55th Avenue"/></node>
<node id="-21" lat="45.498290091" lon="-122.605710864" visible="true"><tag k="addr:housenumber" v="3336"/><tag k="addr:postcode" v="97206"/><tag k="addr:city" v="Portland"/><tag k="addr:street" v="Southeast 55th Avenue"/></node>
<node id="-22" lat="45.498296819" lon="-122.605704688" visible="true"><tag k="addr:housenumber" v="3404"/><tag k="addr:postcode" v="97206"/><tag k="addr:city" v="Portland"/><tag k="addr:street" v="Southeast 55th Avenue"/></node>
<node id="-23" lat="45.498298696" lon="-122.605711551" visible="true"><tag k="addr:housenumber" v="3406"/><tag k="addr:postcode" v="97206"/><tag k="addr:city" v="Portland"/><tag k="addr:street" v="Southeast 55th Avenue"/></node>
<node id="-24" lat="45.49829804" lon="-122.605706002" visible="true"><tag k="addr:housenumber" v="3408"/><tag k="addr:postcode" v="97206"/><tag k="addr:city" v="Portland"/><tag k="addr:street" v="Southeast 55th Avenue"/></node>
<node id="-25" lat="45.497745251" lon="-122.605856277" visible="true"><tag k="addr:housenumber" v="3440"/><tag k="addr:postcode" v="97206"/><tag k="addr:city" v="Portland"/><tag k="addr:street" v="Southeast 55th Avenue"/></node>
<node id="-26" lat="45.497745501" lon="-122.605858684" visible="true"><tag k="addr:housenumber" v="3444"/><tag k="addr:postcode" v="97206"/><tag k="addr:city" v="Portland"/><tag k="addr:street" v="Southeast 55th Avenue"/></node>
<node id="-27" lat="45.498632917" lon="-122.604362218" visible="true"><tag k="addr:housenumber" v="3315"/><tag k="addr:postcode" v="97206"/><tag k="addr:city" v="Portland"/><tag k="addr:street" v="Southeast 57th Avenue"/></node>
<node id="-28" lat="45.498630344" lon="-122.604355806" visible="true"><tag k="addr:housenumber" v="3317"/><tag k="addr:postcode" v="97206"/><tag k="addr:city" v="Portland"/><tag k="addr:street" v="Southeast 57th Avenue"/></node>
<node id="-29" lat="45.504715232" lon="-122.602826292" visible="true"><tag k="addr:housenumber" v="2510"/><tag k="addr:postcode" v="97206"/><tag k="addr:city" v="Portland"/><tag k="addr:street" v="Southeast 58th Avenue"/></node>
<node id="-30" lat="45.504710723" lon="-122.602827379" visible="true"><tag k="addr:housenumber" v="2512"/><tag k="addr:postcode" v="97206"/><tag k="addr:city" v="Portland"/><tag k="addr:street" v="Southeast 58th Avenue"/></node>
<node id="-31" lat="45.497948274" lon="-122.603383534" visible="true"><tag k="addr:housenumber" v="3423"/><tag k="addr:postcode" v="97206"/><tag k="addr:city" v="Portland"/><tag k="addr:street" v="Southeast 58th Avenue"/></node>
<node id="-32" lat="45.497947437" lon="-122.603384109" visible="true"><tag k="addr:housenumber" v="3425"/><tag k="addr:postcode" v="97206"/><tag k="addr:city" v="Portland"/><tag k="addr:street" v="Southeast 58th Avenue"/></node>
<node id="-33" lat="45.497944711" lon="-122.603388545" visible="true"><tag k="addr:housenumber" v="3427"/><tag k="addr:postcode" v="97206"/><tag k="addr:city" v="Portland"/><tag k="addr:street" v="Southeast 58th Avenue"/></node>
<node id="-34" lat="45.498631997" lon="-122.602242473" visible="true"><tag k="addr:housenumber" v="3313"/><tag k="addr:postcode" v="97206"/><tag k="addr:city" v="Portland"/><tag k="addr:street" v="Southeast 59th Avenue"/></node>
<node id="-35" lat="45.498632752" lon="-122.602235271" visible="true"><tag k="addr:housenumber" v="3317"/><tag k="addr:postcode" v="97206"/><tag k="addr:city" v="Portland"/><tag k="addr:street" v="Southeast 59th Avenue"/></node>
<node id="-36" lat="45.501011249" lon="-122.600857622" visible="true"><tag k="addr:housenumber" v="6015"/><tag k="addr:postcode" v="97206"/><tag k="addr:city" v="Portland"/><tag k="addr:street" v="Southeast Brooklyn Street"/></node>
<node id="-37" lat="45.501010731" lon="-122.600854704" visible="true"><tag k="addr:housenumber" v="6019"/><tag k="addr:postcode" v="97206"/><tag k="addr:city" v="Portland"/><tag k="addr:street" v="Southeast Brooklyn Street"/></node>
<node id="-38" lat="45.497741564" lon="-122.605378009" visible="true"><tag k="addr:housenumber" v="5535"/><tag k="addr:postcode" v="97206"/><tag k="addr:city" v="Portland"/><tag k="addr:street" v="Southeast Carlton Street"/></node>
<node id="-39" lat="45.497767184" lon="-122.603645193" visible="true"><tag k="addr:housenumber" v="5705"/><tag k="addr:postcode" v="97206"/><tag k="addr:city" v="Portland"/><tag k="addr:street" v="Southeast Carlton Street"/></node>
<node id="-40" lat="45.503233569" lon="-122.608297183" visible="true"><tag k="addr:housenumber" v="5226"/><tag k="addr:postcode" v="97206"/><tag k="addr:city" v="Portland"/><tag k="addr:street" v="Southeast Clinton Street"/></node>
<node id="-41" lat="45.503232298" lon="-122.608292698" visible="true"><tag k="addr:housenumber" v="5234"/><tag k="addr:postcode" v="97206"/><tag k="addr:city" v="Portland"/><tag k="addr:street" v="Southeast Clinton Street"/></node>
<node id="-42" lat="45.503307885" lon="-122.600909279" visible="true"><tag k="addr:housenumber" v="6006"/><tag k="addr:postcode" v="97206"/><tag k="addr:city" v="Portland"/><tag k="addr:street" v="Southeast Clinton Street"/></node>
<node id="-43" lat="45.50330611" lon="-122.600911201" visible="true"><tag k="addr:housenumber" v="6012"/><tag k="addr:postcode" v="97206"/><tag k="addr:city" v="Portland"/><tag k="addr:street" v="Southeast Clinton Street"/></node>
<node id="-44" lat="45.498781736" lon="-122.608331143" visible="true"><tag k="addr:housenumber" v="5230"/><tag k="addr:postcode" v="97206"/><tag k="addr:city" v="Portland"/><tag k="addr:street" v="Southeast Franklin Street"/></node>
<node id="-45" lat="45.498780485" lon="-122.608325839" visible="true"><tag k="addr:housenumber" v="5234"/><tag k="addr:postcode" v="97206"/><tag k="addr:city" v="Portland"/><tag k="addr:street" v="Southeast Franklin Street"/></node>
<node id="-46" lat="45.49877404" lon="-122.607743436" visible="true"><tag k="addr:housenumber" v="5310"/><tag k="addr:postcode" v="97206"/><tag k="addr:city" v="Portland"/><tag k="addr:street" v="Southeast Franklin Street"/></node>
<node id="-47" lat="45.498788454" lon="-122.606394541" visible="true"><tag k="addr:housenumber" v="5442"/><tag k="addr:postcode" v="97206"/><tag k="addr:city" v="Portland"/><tag k="addr:street" v="Southeast Franklin Street"/></node>
<node id="-48" lat="45.498785898" lon="-122.606397057" visible="true"><tag k="addr:housenumber" v="5444"/><tag k="addr:postcode" v="97206"/><tag k="addr:city" v="Portland"/><tag k="addr:street" v="Southeast Franklin Street"/></node>
<node id="-49" lat="45.498787196" lon="-122.606395096" visible="true"><tag k="addr:housenumber" v="5446"/><tag k="addr:postcode" v="97206"/><tag k="addr:city" v="Portland"/><tag k="addr:street" v="Southeast Franklin Street"/></node>
<node id="-50" lat="45.49878756" lon="-122.606399874" visible="true"><tag k="addr:housenumber" v="5448"/><tag k="addr:postcode" v="97206"/><tag k="addr:city" v="Portland"/><tag k="addr:street" v="Southeast Franklin Street"/></node>
<node id="-51" lat="45.497790607" lon="-122.606336833" visible="true"><tag k="addr:housenumber" v="5441"/><tag k="addr:postcode" v="97206"/><tag k="addr:city" v="Portland"/><tag k="addr:street" v="Southeast Powell Boulevard"/></node>
<node id="-52" lat="45.497784239" lon="-122.60633305" visible="true"><tag k="addr:housenumber" v="5445"/><tag k="addr:postcode" v="97206"/><tag k="addr:city" v="Portland"/><tag k="addr:street" v="Southeast Powell Boulevard"/></node>
<node id="-53" lat="45.497746544" lon="-122.605604525" visible="true"><tag k="addr:housenumber" v="5525"/><tag k="addr:postcode" v="97206"/><tag k="addr:city" v="Portland"/><tag k="addr:street" v="Southeast Powell Boulevard"/></node>
<node id="-54" lat="45.497745003" lon="-122.605606494" visible="true"><tag k="addr:housenumber" v="5529"/><tag k="addr:postcode" v="97206"/><tag k="addr:city" v="Portland"/><tag k="addr:street" v="Southeast Powell Boulevard"/></node>
<node id="-55" lat="45.497747026" lon="-122.605383642" visible="true"><tag k="addr:housenumber" v="5535"/><tag k="addr:postcode" v="97206"/><tag k="addr:city" v="Portland"/><tag k="addr:street" v="Southeast Powell Boulevard"/></node>
<node id="-56" lat="45.497658021" lon="-122.604846555" visible="true"><tag k="addr:housenumber" v="5607"/><tag k="addr:postcode" v="97206"/><tag k="addr:city" v="Portland"/><tag k="addr:street" v="Southeast Powell Boulevard"/></node>
<node id="-57" lat="45.497660734" lon="-122.604848122" visible="true"><tag k="addr:housenumber" v="5611"/><tag k="addr:postcode" v="97206"/><tag k="addr:city" v="Portland"/><tag k="addr:street" v="Southeast Powell Boulevard"/></node>
<node id="-58" lat="45.497745666" lon="-122.604309988" visible="true"><tag k="addr:housenumber" v="5625"/><tag k="addr:postcode" v="97206"/><tag k="addr:city" v="Portland"/><tag k="addr:street" v="Southeast Powell Boulevard"/></node>
<node id="-59" lat="45.497745201" lon="-122.604317793" visible="true"><tag k="addr:housenumber" v="5629"/><tag k="addr:postcode" v="97206"/><tag k="addr:city" v="Portland"/><tag k="addr:street" v="Southeast Powell Boulevard"/></node>
<node id="-60" lat="45.497763047" lon="-122.603647963" visible="true"><tag k="addr:housenumber" v="5705"/><tag k="addr:postcode" v="97206"/><tag k="addr:city" v="Portland"/><tag k="addr:street" v="Southeast Powell Boulevard"/></node>
<node id="-61" lat="45.497706603" lon="-122.60225459" visible="true"><tag k="addr:housenumber" v="5823"/><tag k="addr:postcode" v="97206"/><tag k="addr:city" v="Portland"/><tag k="addr:street" v="Southeast Powell Boulevard"/></node>
<node id="-62" lat="45.497708685" lon="-122.602247201" visible="true"><tag k="addr:housenumber" v="5831"/><tag k="addr:postcode" v="97206"/><tag k="addr:city" v="Portland"/><tag k="addr:street" v="Southeast Powell Boulevard"/></node>
<node id="-63" lat="45.497709194" lon="-122.602254816" visible="true"><tag k="addr:housenumber" v="5835"/><tag k="addr:postcode" v="97206"/><tag k="addr:city" v="Portland"/><tag k="addr:street" v="Southeast Powell Boulevard"/></node>
<node id="-64" lat="45.497653164" lon="-122.600945112" visible="true"><tag k="addr:housenumber" v="6011"/><tag k="addr:postcode" v="97206"/><tag k="addr:city" v="Portland"/><tag k="addr:street" v="Southeast Powell Boulevard"/></node>
<node id="-65" lat="45.497658532" lon="-122.600937667" visible="true"><tag k="addr:housenumber" v="6015"/><tag k="addr:postcode" v="97206"/><tag k="addr:city" v="Portland"/><tag k="addr:street" v="Southeast Powell Boulevard"/></node>
<node id="-66" lat="45.500404448" lon="-122.606393727" visible="true"><tag k="addr:housenumber" v="5427"/><tag k="addr:postcode" v="97206"/><tag k="addr:city" v="Portland"/><tag k="addr:street" v="Southeast Tibbetts Street"/></node>
<node id="-67" lat="45.500408964" lon="-122.606390846" visible="true"><tag k="addr:housenumber" v="5429"/><tag k="addr:postcode" v="97206"/><tag k="addr:city" v="Portland"/><tag k="addr:street" v="Southeast Tibbetts Street"/></node>
<node id="-68" lat="45.500402889" lon="-122.606396406" visible="true"><tag k="addr:housenumber" v="5431"/><tag k="addr:postcode" v="97206"/><tag k="addr:city" v="Portland"/><tag k="addr:street" v="Southeast Tibbetts Street"/></node>
<node id="-69" lat="45.501719545" lon="-122.609322531" visible="true"><tag k="addr:housenumber" v="5125"/><tag k="addr:postcode" v="97206"/><tag k="addr:city" v="Portland"/><tag k="addr:street" v="Southeast Woodward Street"/></node>
<node id="-70" lat="45.50172189" lon="-122.60932151" visible="true"><tag k="addr:housenumber" v="5127"/><tag k="addr:postcode" v="97206"/><tag k="addr:city" v="Portland"/><tag k="addr:street" v="Southeast Woodward Street"/></node>
<node id="-71" lat="45.501715313" lon="-122.609321252" visible="true"><tag k="addr:housenumber" v="5131"/><tag k="addr:postcode" v="97206"/><tag k="addr:city" v="Portland"/><tag k="addr:street" v="Southeast Woodward Street"/></node>
<node id="-72" lat="45.501720955" lon="-122.609318173" visible="true"><tag k="addr:housenumber" v="5133"/><tag k="addr:postcode" v="97206"/><tag k="addr:city" v="Portland"/><tag k="addr:street" v="Southeast Woodward Street"/></node>
</osm>