<?xml version="1.0"?>
<osm version="0.6" upload="false" generator="uvmogr2osm">
<node id="-1" lat="45.519218277" lon="-122.974137047" visible="true"><tag k="addr:housenumber" v="315"/><tag k="addr:postcode" v="97123"/><tag k="addr:city" v="Hillsboro"/><tag k="addr:street" v="Southeast 10th Avenue"/></node>
<node id="-2" lat="45.519181428" lon="-122.974139206" visible="true"><tag k="addr:housenumber" v="345"/><tag k="addr:postcode" v="97123"/><tag k="addr:city" v="Hillsboro"/><tag k="addr:street" v="Southeast 10th Avenue"/></node>
<node id="-3" lat="45.519142188" lon="-122.974131925" visible="true"><tag k="addr:housenumber" v="347"/><tag k="addr:postcode" v="97123"/><tag k="addr:city" v="Hillsboro"/><tag k="addr:street" v="Southeast 10th Avenue"/></node>
<node id="-4" lat="45.519116439" lon="-122.974136167" visible="true"><tag k="addr:housenumber" v="353"/><tag k="addr:postcode" v="97123"/><tag k="addr:city" v="Hillsboro"/><tag k="addr:street" v="Southeast 10th Avenue"/></node>
<node id="-5" lat="45.519083763" lon="-122.974129746" visible="true"><tag k="addr:housenumber" v="355"/><tag k="addr:postcode" v="97123"/><tag k="addr:city" v="Hillsboro"/><tag k="addr:street" v="Southeast 10th Avenue"/></node>
<node id="-6" lat="45.519061001" lon="-122.974132065" visible="true"><tag k="addr:housenumber" v="357"/><tag k="addr:postcode" v="97123"/><tag k="addr:city" v="Hillsboro"/><tag k="addr:street" v="Southeast 10th Avenue"/></node>
<node id="-7" lat="45.519026057" lon="-122.974122741" visible="true"><tag k="addr:housenumber" v="359"/><tag k="addr:postcode" v="97123"/><tag k="addr:city" v="Hillsboro"/><tag k="addr:street" v="Southeast 10th Avenue"/></node>
<node id="-8" lat="45.518991986" lon="-122.974128775" visible="true"><tag k="addr:housenumber" v="361"/><tag k="addr:postcode" v="97123"/><tag k="addr:city" v="Hillsboro"/><tag k="addr:street" v="Southeast 10th Avenue"/></node>
<node id="-9" lat="45.51895755" lon="-122.974136527" visible="true"><tag k="addr:housenumber" v="363"/><tag k="addr:postcode" v="97123"/><tag k="addr:city" v="Hillsboro"/><tag k="addr:street" v="Southeast 10th Avenue"/></node>
<node id="-10" lat="45.518923663" lon="-122.97412955" visible="true"><tag k="addr:housenumber" v="365"/><tag k="addr:postcode" v="97123"/><tag k="addr:city" v="Hillsboro"/><tag k="addr:street" v="Southeast 10th Avenue"/></node>
<node id="-11" lat="45.518895951" lon="-122.974132845" visible="true"><tag k="addr:housenumber" v="367"/><tag k="addr:postcode" v="97123"/><tag k="addr:city" v="Hillsboro"/><tag k="addr:street" v="Southeast 10th Avenue"/></node>
<node id="-12" lat="45.5188671" lon="-122.974131199" visible="true"><tag k="addr:housenumber" v="369"/><tag k="addr:postcode" v="97123"/><tag k="addr:city" v="Hillsboro"/><tag k="addr:street" v="Southeast 10th Avenue"/></node>
<node id="-13" lat="45.51779471" lon="-122.973675797" visible="true"><tag k="addr:housenumber" v="460"/><tag k="addr:postcode" v="97123"/><tag k="addr:city" v="Hillsboro"/><tag k="addr:street" v="Southeast 10th Avenue"/></node>
<node id="-14" lat="45.515870276" lon="-122.97285528" visible="true"><tag k="addr:housenumber" v="622"/><tag k="addr:postcode" v="97123"/><tag k="addr:city" v="Hillsboro"/><tag k="addr:street" v="Southeast 10th Avenue"/></node>
<node id="-15" lat="45.515872498" lon="-122.97285927" visible="true"><tag k="addr:housenumber" v="640"/><tag k="addr:postcode" v="97123"/><tag k="addr:city" v="Hillsboro"/><tag k="addr:street" v="Southeast 10th Avenue"/></node>
<node id="-16" lat="45.516431931" lon="-122.972521227" visible="true"><tag k="addr:housenumber" v="565"/><tag k="addr:postcode" v="97123"/><tag k="addr:city" v="Hillsboro"/><tag k="addr:street" v="Southeast 11th Avenue"/></node>
<node id="-17" lat="45.516329917" lon="-122.972522078" visible="true"><tag k="addr:housenumber" v="573"/><tag k="addr:postcode" v="97123"/><tag k="addr:city" v="Hillsboro"/><tag k="addr:street" v="Southeast 11th Avenue"/></node>
<node id="-18" lat="45.51513831" lon="-122.971591853" visible="true"><tag k="addr:housenumber" v="673"/><tag k="addr:postcode" v="97123"/><tag k="addr:city" v="Hillsboro"/><tag k="addr:street" v="Southeast 11th Place"/></node>
<node id="-19" lat="45.515176987" lon="-122.971701159" visible="true"><tag k="addr:housenumber" v="675"/><tag k="addr:postcode" v="97123"/><tag k="addr:city" v="Hillsboro"/><tag k="addr:street" v="Southeast 11th Place"/></node>
<node id="-20" lat="45.519579576" lon="-122.970522513" visible="true"><tag k="addr:housenumber" v="327"/><tag k="addr:postcode" v="97123"/><tag k="addr:city" v="Hillsboro"/><tag k="addr:street" v="Southeast 12th Avenue"/></node>
<node id="-21" lat="45.51940839" lon="-122.970528039" visible="true"><tag k="addr:housenumber" v="341"/><tag k="addr:postcode" v="97123"/><tag k="addr:city" v="Hillsboro"/><tag k="addr:street" v="Southeast 12th Avenue"/></node>
<node id="-22" lat="45.517177198" lon="-122.970534357" visible="true"><tag k="addr:housenumber" v="515"/><tag k="addr:postcode" v="97123"/><tag k="addr:city" v="Hillsboro"/><tag k="addr:street" v="Southeast 12th Avenue"/></node>
<node id="-23" lat="45.517238407" lon="-122.970645811" visible="true"><tag k="addr:housenumber" v="515"/><tag k="addr:postcode" v="97123"/><tag k="addr:city" v="Hillsboro"/><tag k="addr:street" v="Southeast 12th Street"/></node>
<node id="-24" lat="45.518957711" lon="-122.980116024" visible="true"><tag k="addr:housenumber" v="342"/><tag k="addr:postcode" v="97123"/><tag k="addr:city" v="Hillsboro"/><tag k="addr:street" v="Southeast 6th Avenue"/></node>
<node id="-25" lat="45.518953493" lon="-122.980120865" visible="true"><tag k="addr:housenumber" v="356"/><tag k="addr:postcode" v="97123"/><tag k="addr:city" v="Hillsboro"/><tag k="addr:street" v="Southeast 6th Avenue"/></node>
<node id="-26" lat="45.5189531" lon="-122.980114667" visible="true"><tag k="addr:housenumber" v="372"/><tag k="addr:postcode" v="97123"/><tag k="addr:city" v="Hillsboro"/><tag k="addr:street" v="Southeast 6th Avenue"/></node>
<node id="-27" lat="45.515693089" lon="-122.980277705" visible="true"><tag k="addr:housenumber" v="636"/><tag k="addr:postcode" v="97123"/><tag k="addr:city" v="Hillsboro"/><tag k="addr:street" v="Southeast 6th Avenue"/></node>
<node id="-28" lat="45.519747281" lon="-122.979550869" visible="true"><tag k="addr:housenumber" v="303"/><tag k="addr:postcode" v="97123"/><tag k="addr:city" v="Hillsboro"/><tag k="addr:street" v="Southeast 7th Avenue"/></node>
<node id="-29" lat="45.519745538" lon="-122.979557165" visible="true"><tag k="addr:housenumber" v="333"/><tag k="addr:postcode" v="97123"/><tag k="addr:city" v="Hillsboro"/><tag k="addr:street" v="Southeast 7th Avenue"/></node>
<node id="-30" lat="45.515717213" lon="-122.979361292" visible="true"><tag k="addr:housenumber" v="631"/><tag k="addr:postcode" v="97123"/><tag k="addr:city" v="Hillsboro"/><tag k="addr:street" v="Southeast 7th Avenue"/></node>
<node id="-31" lat="45.515646679" lon="-122.979358224" visible="true"><tag k="addr:housenumber" v="637"/><tag k="addr:postcode" v="97123"/><tag k="addr:city" v="Hillsboro"/><tag k="addr:street" v="Southeast 7th Avenue"/></node>
<node id="-32" lat="45.51660604" lon="-122.977060056" visible="true"><tag k="addr:housenumber" v="554"/><tag k="addr:postcode" v="97123"/><tag k="addr:city" v="Hillsboro"/><tag k="addr:street" v="Southeast 8th Avenue"/></node>
<node id="-33" lat="45.516627129" lon="-122.977156209" visible="true"><tag k="addr:housenumber" v="556"/><tag k="addr:postcode" v="97123"/><tag k="addr:city" v="Hillsboro"/><tag k="addr:street" v="Southeast 8th Avenue"/></node>
<node id="-34" lat="45.515288492" lon="-122.976353619" visible="true"><tag k="addr:housenumber" v="638"/><tag k="addr:postcode" v="97123"/><tag k="addr:city" v="Hillsboro"/><tag k="addr:street" v="Southeast 8th Avenue"/></node>
<node id="-35" lat="45.515288542" lon="-122.976361258" visible="true"><tag k="addr:housenumber" v="652"/><tag k="addr:postcode" v="97123"/><tag k="addr:city" v="Hillsboro"/><tag k="addr:street" v="Southeast 8th Avenue"/></node>
<node id="-36" lat="45.514053445" lon="-122.978129589" visible="true"><tag k="addr:housenumber" v="765"/><tag k="addr:postcode" v="97123"/><tag k="addr:city" v="Hillsboro"/><tag k="addr:street" v="Southeast 8th Avenue"/></node>
<node id="-37" lat="45.513992513" lon="-122.978125401" visible="true"><tag k="addr:housenumber" v="767"/><tag k="addr:postcode" v="97123"/><tag k="addr:city" v="Hillsboro"/><tag k="addr:street" v="Southeast 8th Avenue"/></node>
<node id="-38" lat="45.519107735" lon="-122.975866345" visible="true"><tag k="addr:housenumber" v="349"/><tag k="addr:postcode" v="97123"/><tag k="addr:city" v="Hillsboro"/><tag k="addr:street" v="Southeast 9th Avenue"/></node>
<node id="-39" lat="45.517109192" lon="-122.975219176" visible="true"><tag k="addr:housenumber" v="526"/><tag k="addr:postcode" v="97123"/><tag k="addr:city" v="Hillsboro"/><tag k="addr:street" v="Southeast 9th Avenue"/></node>
<node id="-40" lat="45.5169903" lon="-122.9758448" visible="true"><tag k="addr:housenumber" v="527"/><tag k="addr:postcode" v="97123"/><tag k="addr:city" v="Hillsboro"/><tag k="addr:street" v="Southeast 9th Avenue"/></node>
<node id="-41" lat="45.516992402" lon="-122.975846224" visible="true"><tag k="addr:housenumber" v="531"/><tag k="addr:postcode" v="97123"/><tag k="addr:city" v="Hillsboro"/><tag k="addr:street" v="Southeast 9th Avenue"/></node>
<node id="-42" lat="45.516990208" lon="-122.975844596" visible="true"><tag k="addr:housenumber" v="533"/><tag k="addr:postcode" v="97123"/><tag k="addr:city" v="Hillsboro"/><tag k="addr:street" v="Southeast 9th Avenue"/></node>
<node id="-43" lat="45.51974584" lon="-122.979552699" visible="true"><tag k="addr:housenumber" v="650"/><tag k="addr:postcode" v="97123"/><tag k="addr:city" v="Hillsboro"/><tag k="addr:street" v="Southeast Baseline Street"/></node>
<node id="-44" lat="45.51974559" lon="-122.97955645" visible="true"><tag k="addr:housenumber" v="672"/><tag k="addr:postcode" v="97123"/><tag k="addr:city" v="Hillsboro"/><tag k="addr:street" v="Southeast Baseline Street"/></node>
<node id="-45" lat="45.510796455" lon="-122.936328128" visible="true"><tag k="addr:housenumber" v="1200"/><tag k="addr:postcode" v="97123"/><tag k="addr:city" v="Hillsboro"/><tag k="addr:street" v="Southeast Brookwood Avenue"/></node>
<node id="-46" lat="45.515772634" lon="-122.976703087" visible="true"><tag k="addr:housenumber" v="820"/><tag k="addr:postcode" v="97123"/><tag k="addr:city" v="Hillsboro"/><tag k="addr:street" v="Southeast Cedar Street"/></node>
<node id="-47" lat="45.515682804" lon="-122.976718651" visible="true"><tag k="addr:housenumber" v="822"/><tag k="addr:postcode" v="97123"/><tag k="addr:city" v="Hillsboro"/><tag k="addr:street" v="Southeast Cedar Street"/></node>
<node id="-48" lat="45.51595502" lon="-122.976680703" visible="true"><tag k="addr:housenumber" v="828"/><tag k="addr:postcode" v="97123"/><tag k="addr:city" v="Hillsboro"/><tag k="addr:street" v="Southeast Cedar Street"/></node>
<node id="-49" lat="45.516008383" lon="-122.976691054" visible="true"><tag k="addr:housenumber" v="830"/><tag k="addr:postcode" v="97123"/><tag k="addr:city" v="Hillsboro"/><tag k="addr:street" v="Southeast Cedar Street"/></node>
<node id="-50" lat="45.513217718" lon="-122.978893636" visible="true"><tag k="addr:housenumber" v="710"/><tag k="addr:postcode" v="97123"/><tag k="addr:city" v="Hillsboro"/><tag k="addr:street" v="Southeast Englewood Drive"/></node>
<node id="-51" lat="45.51317277" lon="-122.978893437" visible="true"><tag k="addr:housenumber" v="716"/><tag k="addr:postcode" v="97123"/><tag k="addr:city" v="Hillsboro"/><tag k="addr:street" v="Southeast Englewood Drive"/></node>
<node id="-52" lat="45.510802415" lon="-122.936320954" visible="true"><tag k="addr:housenumber" v="4500"/><tag k="addr:postcode" v="97123"/><tag k="addr:city" v="Hillsboro"/><tag k="addr:street" v="Southeast Mair Street"/></node>
<node id="-53" lat="45.515112024" lon="-122.972894063" visible="true"><tag k="addr:housenumber" v="1045"/><tag k="addr:postcode" v="97123"/><tag k="addr:city" v="Hillsboro"/><tag k="addr:street" v="Southeast Maple Street"/></node>
<node id="-54" lat="45.515168756" lon="-122.972893413" visible="true"><tag k="addr:housenumber" v="1047"/><tag k="addr:postcode" v="97123"/><tag k="addr:city" v="Hillsboro"/><tag k="addr:street" v="Southeast Maple Street"/></node>
<node id="-55" lat="45.514464477" lon="-122.971679071" visible="true"><tag k="addr:housenumber" v="1112-B"/><tag k="addr:postcode" v="97123"/><tag k="addr:city" v="Hillsboro"/><tag k="addr:street" v="Southeast Maple Street"/></node>
<node id="-56" lat="45.514464012" lon="-122.971670365" visible="true"><tag k="addr:housenumber" v="1112-C"/><tag k="addr:postcode" v="97123"/><tag k="addr:city" v="Hillsboro"/><tag k="addr:street" v="Southeast Maple Street"/></node>
<node id="-57" lat="45.515087837" lon="-122.971684859" visible="true"><tag k="addr:housenumber" v="1117"/><tag k="addr:postcode" v="97123"/><tag k="addr:city" v="Hillsboro"/><tag k="addr:street" v="Southeast Maple Street"/></node>
<node id="-58" lat="45.515082922" lon="-122.971542928" visible="true"><tag k="addr:housenumber" v="1123"/><tag k="addr:postcode" v="97123"/><tag k="addr:city" v="Hillsboro"/><tag k="addr:street" v="Southeast Maple Street"/></node>
<node id="-59" lat="45.515152677" lon="-122.978382956" visible="true"><tag k="addr:housenumber" v="719"/><tag k="addr:postcode" v="97123"/><tag k="addr:city" v="Hillsboro"/><tag k="addr:street" v="Southeast Maple Street"/></node>
<node id="-60" lat="45.515183123" lon="-122.978305487" visible="true"><tag k="addr:housenumber" v="721"/><tag k="addr:postcode" v="97123"/><tag k="addr:city" v="Hillsboro"/><tag k="addr:street" v="Southeast Maple Street"/></node>
<node id="-61" lat="45.519089918" lon="-122.976119005" visible="true"><tag k="addr:housenumber" v="831"/><tag k="addr:postcode" v="97123"/><tag k="addr:city" v="Hillsboro"/><tag k="addr:street" v="Southeast Oak Street"/></node>
<node id="-62" lat="45.518426915" lon="-122.975930725" visible="true"><tag k="addr:housenumber" v="876"/><tag k="addr:postcode" v="97123"/><tag k="addr:city" v="Hillsboro"/><tag k="addr:street" v="Southeast Oak Street"/></node>
<node id="-63" lat="45.518405032" lon="-122.975822887" visible="true"><tag k="addr:housenumber" v="880"/><tag k="addr:postcode" v="97123"/><tag k="addr:city" v="Hillsboro"/><tag k="addr:street" v="Southeast Oak Street"/></node>
<node id="-64" lat="45.515693152" lon="-122.980272168" visible="true"><tag k="addr:housenumber" v="623"/><tag k="addr:postcode" v="97123"/><tag k="addr:city" v="Hillsboro"/><tag k="addr:street" v="Southeast Shega Court"/></node>
<node id="-65" lat="45.517754655" lon="-122.973377349" visible="true"><tag k="addr:housenumber" v="1011"/><tag k="addr:postcode" v="97123"/><tag k="addr:city" v="Hillsboro"/><tag k="addr:street" v="Southeast Walnut Street"/></node>
<node id="-66" lat="45.517724477" lon="-122.970964812" visible="true"><tag k="addr:housenumber" v="1123"/><tag k="addr:postcode" v="97123"/><tag k="addr:city" v="Hillsboro"/><tag k="addr:street" v="Southeast Walnut Street"/></node>
<node id="-67" lat="45.517632812" lon="-122.970685604" visible="true"><tag k="addr:housenumber" v="1165"/><tag k="addr:postcode" v="97123"/><tag k="addr:city" v="Hillsboro"/><tag k="addr:street" v="Southeast Walnut Street"/></node>
<node id="-68" lat="45.51710235" lon="-122.975156322" visible="true"><tag k="addr:housenumber" v="922"/><tag k="addr:postcode" v="97123"/><tag k="addr:city" v="Hillsboro"/><tag k="addr:street" v="Southeast Walnut Street"/></node>
</osm>