<?xml version="1.0"?>
<osm version="0.6" upload="false" generator="uvmogr2osm">
<node id="-1" lat="45.497398195" lon="-122.923246585" visible="true"><tag k="addr:housenumber" v="5800"/><tag k="addr:postcode" v="97123"/><tag k="addr:city" v="Hillsboro"/><tag k="addr:street" v="Southeast Alexander Street"/></node>
<node id="-2" lat="45.497406101" lon="-122.923242771" visible="true"><tag k="addr:housenumber" v="5880"/><tag k="addr:postcode" v="97123"/><tag k="addr:city" v="Hillsboro"/><tag k="addr:street" v="Southeast Alexander Street"/></node>
<node id="-3" lat="45.496261386" lon="-122.913935693" visible="true"><tag k="addr:housenumber" v="6550"/><tag k="addr:postcode" v="97123"/><tag k="addr:city" v="Hillsboro"/><tag k="addr:street" v="Southeast Alexander Street"/></node>
<node id="-4" lat="45.496422349" lon="-122.913748538" visible="true"><tag k="addr:housenumber" v="6556"/><tag k="addr:postcode" v="97123"/><tag k="addr:city" v="Hillsboro"/><tag k="addr:street" v="Southeast Alexander Street"/></node>
<node id="-5" lat="45.494323157" lon="-122.920008739" visible="true"><tag k="addr:housenumber" v="6093"/><tag k="addr:postcode" v="97123"/><tag k="addr:city" v="Hillsboro"/><tag k="addr:street" v="Southeast Davis Road"/></node>
<node id="-6" lat="45.494321862" lon="-122.920005447" visible="true"><tag k="addr:housenumber" v="6105"/><tag k="addr:postcode" v="97123"/><tag k="addr:city" v="Hillsboro"/><tag k="addr:street" v="Southeast Davis Road"/></node>
<node id="-7" lat="45.495920549" lon="-122.921774965" visible="true"><tag k="addr:housenumber" v="3371"/><tag k="addr:postcode" v="97123"/><tag k="addr:city" v="Hillsboro"/><tag k="addr:street" v="Southeast Hare Way"/></node>
<node id="-8" lat="45.494749059" lon="-122.917797042" visible="true"><tag k="addr:housenumber" v="6341"/><tag k="addr:postcode" v="97123"/><tag k="addr:city" v="Hillsboro"/><tag k="addr:street" v="Southeast Imagine Way"/></node>
<node id="-9" lat="45.49523595" lon="-122.920357152" visible="true"><tag k="addr:housenumber" v="3400"/><tag k="addr:postcode" v="97123"/><tag k="addr:city" v="Hillsboro"/><tag k="addr:street" v="Southeast Little Valley Avenue"/></node>
<node id="-10" lat="45.495237128" lon="-122.920356871" visible="true"><tag k="addr:housenumber" v="3452"/><tag k="addr:postcode" v="97123"/><tag k="addr:city" v="Hillsboro"/><tag k="addr:street" v="Southeast Little Valley Avenue"/></node>
<node id="-11" lat="45.494622059" lon="-122.920126348" visible="true"><tag k="addr:housenumber" v="6092"/><tag k="addr:postcode" v="97123"/><tag k="addr:city" v="Hillsboro"/><tag k="addr:street" v="Southeast Thornapple Street"/></node>
<node id="-12" lat="45.494627344" lon="-122.920001905" visible="true"><tag k="addr:housenumber" v="6104"/><tag k="addr:postcode" v="97123"/><tag k="addr:city" v="Hillsboro"/><tag k="addr:street" v="Southeast Thornapple Street"/></node>
<node id="-13" lat="45.495361093" lon="-122.913598401" visible="true"><tag k="addr:housenumber" v="3325"/><tag k="addr:postcode" v="97123"/><tag k="addr:city" v="Hillsboro"/><tag k="addr:street" v="Southwest 229th Avenue"/></node>
<node id="-14" lat="45.495363977" lon="-122.913595492" visible="true"><tag k="addr:housenumber" v="3355"/><tag k="addr:postcode" v="97123"/><tag k="addr:city" v="Hillsboro"/><tag k="addr:street" v="Southwest 229th Avenue"/></node>
<node id="-15" lat="45.494731613" lon="-122.917785716" visible="true"><tag k="addr:housenumber" v="3450"/><tag k="addr:postcode" v="97123"/><tag k="addr:city" v="Hillsboro"/><tag k="addr:street" v="Southwest 234th Avenue"/></node>
<node id="-16" lat="45.495885025" lon="-122.921782929" visible="true"><tag k="addr:housenumber" v="23805"/><tag k="addr:postcode" v="97123"/><tag k="addr:city" v="Hillsboro"/><tag k="addr:street" v="Southwest Davis Road"/></node>
</osm>