<?xml version="1.0"?>
<osm version="0.6" upload="false" generator="uvmogr2osm">
<node id="-1" lat="45.49556352" lon="-122.935369118" visible="true"><tag k="addr:housenumber" v="3351"/><tag k="addr:postcode" v="97123"/><tag k="addr:city" v="Hillsboro"/><tag k="addr:street" v="Southeast Cottonwood Avenue"/></node>
<node id="-2" lat="45.494946991" lon="-122.935306202" visible="true"><tag k="addr:housenumber" v="3475"/><tag k="addr:postcode" v="97123"/><tag k="addr:city" v="Hillsboro"/><tag k="addr:street" v="Southeast Cottonwood Avenue"/></node>
<node id="-3" lat="45.494828625" lon="-122.933845637" visible="true"><tag k="addr:housenumber" v="3495"/><tag k="addr:postcode" v="97123"/><tag k="addr:city" v="Hillsboro"/><tag k="addr:street" v="Southeast Ironwood Avenue"/></node>
<node id="-4" lat="45.496325624" lon="-122.934928276" visible="true"><tag k="addr:housenumber" v="4601"/><tag k="addr:postcode" v="97123"/><tag k="addr:city" v="Hillsboro"/><tag k="addr:street" v="Southeast Lone Oak Street"/></node>
<node id="-5" lat="45.496331481" lon="-122.934190014" visible="true"><tag k="addr:housenumber" v="4661"/><tag k="addr:postcode" v="97123"/><tag k="addr:city" v="Hillsboro"/><tag k="addr:street" v="Southeast Lone Oak Street"/></node>
<node id="-6" lat="45.491543844" lon="-122.939194512" visible="true"><tag k="addr:housenumber" v="4263"/><tag k="addr:postcode" v="97123"/><tag k="addr:city" v="Hillsboro"/><tag k="addr:street" v="Southeast Oakhurst Street"/></node>
<node id="-7" lat="45.49556727" lon="-122.935366389" visible="true"><tag k="addr:housenumber" v="4597"/><tag k="addr:postcode" v="97123"/><tag k="addr:city" v="Hillsboro"/><tag k="addr:street" v="Southeast Olivewood Street"/></node>
<node id="-8" lat="45.495155344" lon="-122.931778074" visible="true"><tag k="addr:housenumber" v="3475"/><tag k="addr:postcode" v="97123"/><tag k="addr:city" v="Hillsboro"/><tag k="addr:street" v="Southeast Pepperwood Way"/></node>
<node id="-9" lat="45.495151341" lon="-122.931778931" visible="true"><tag k="addr:housenumber" v="3483"/><tag k="addr:postcode" v="97123"/><tag k="addr:city" v="Hillsboro"/><tag k="addr:street" v="Southeast Pepperwood Way"/></node>
<node id="-10" lat="45.4931966" lon="-122.939054579" visible="true"><tag k="addr:housenumber" v="4295"/><tag k="addr:postcode" v="97123"/><tag k="addr:city" v="Hillsboro"/><tag k="addr:street" v="Southeast Rose Petal Place"/></node>
<node id="-11" lat="45.496639712" lon="-122.932295803" visible="true"><tag k="addr:housenumber" v="3150"/><tag k="addr:postcode" v="97123"/><tag k="addr:city" v="Hillsboro"/><tag k="addr:street" v="Southeast Rosewood Avenue"/></node>
<node id="-12" lat="45.496643344" lon="-122.932293546" visible="true"><tag k="addr:housenumber" v="4802"/><tag k="addr:postcode" v="97123"/><tag k="addr:city" v="Hillsboro"/><tag k="addr:street" v="Southeast Sandalwood Street"/></node>
<node id="-13" lat="45.491783845" lon="-122.939204937" visible="true"><tag k="addr:housenumber" v="4260"/><tag k="addr:postcode" v="97123"/><tag k="addr:city" v="Hillsboro"/><tag k="addr:street" v="Southeast Stargazer Place"/></node>
<node id="-14" lat="45.497925031" lon="-122.933880314" visible="true"><tag k="addr:housenumber" v="4801"/><tag k="addr:postcode" v="97123"/><tag k="addr:city" v="Hillsboro"/><tag k="addr:street" v="Southeast Stewart Court"/></node>
<node id="-15" lat="45.497926846" lon="-122.933877179" visible="true"><tag k="addr:housenumber" v="4805"/><tag k="addr:postcode" v="97123"/><tag k="addr:city" v="Hillsboro"/><tag k="addr:street" v="Southeast Stewart Court"/></node>
<node id="-16" lat="45.494943985" lon="-122.93530584" visible="true"><tag k="addr:housenumber" v="4599"/><tag k="addr:postcode" v="97123"/><tag k="addr:city" v="Hillsboro"/><tag k="addr:street" v="Southeast Teakwood Street"/></node>
<node id="-17" lat="45.494836944" lon="-122.933842873" visible="true"><tag k="addr:housenumber" v="4697"/><tag k="addr:postcode" v="97123"/><tag k="addr:city" v="Hillsboro"/><tag k="addr:street" v="Southeast Teakwood Street"/></node>
<node id="-18" lat="45.496332945" lon="-122.934194778" visible="true"><tag k="addr:housenumber" v="24985"/><tag k="addr:postcode" v="97123"/><tag k="addr:city" v="Hillsboro"/><tag k="addr:street" v="Southwest Lone Oak Street"/></node>
<node id="-19" lat="45.496321955" lon="-122.934928402" visible="true"><tag k="addr:housenumber" v="25065"/><tag k="addr:postcode" v="97123"/><tag k="addr:city" v="Hillsboro"/><tag k="addr:street" v="Southwest Lone Oak Street"/></node>
<node id="-20" lat="45.49319421" lon="-122.939052334" visible="true"><tag k="addr:housenumber" v="3745"/><tag k="addr:postcode" v="97123"/><tag k="addr:city" v="Hillsboro"/><tag k="addr:street" v="Southwest River Road"/></node>
<node id="-21" lat="45.491780715" lon="-122.939209141" visible="true"><tag k="addr:housenumber" v="3860"/><tag k="addr:postcode" v="97123"/><tag k="addr:city" v="Hillsboro"/><tag k="addr:street" v="Southwest River Road"/></node>
<node id="-22" lat="45.491542955" lon="-122.939193104" visible="true"><tag k="addr:housenumber" v="3940"/><tag k="addr:postcode" v="97123"/><tag k="addr:city" v="Hillsboro"/><tag k="addr:street" v="Southwest River Road"/></node>
</osm>