<?xml version="1.0"?>
<osm version="0.6" upload="false" generator="uvmogr2osm">
<node id="-1" lat="45.512341169" lon="-122.97679822" visible="true"><tag k="addr:housenumber" v="911"/><tag k="addr:postcode" v="97123"/><tag k="addr:city" v="Hillsboro"/><tag k="addr:street" v="Southeast 8th Avenue"/></node>
<node id="-2" lat="45.512473627" lon="-122.976326872" visible="true"><tag k="addr:housenumber" v="912"/><tag k="addr:postcode" v="97123"/><tag k="addr:city" v="Hillsboro"/><tag k="addr:street" v="Southeast 8th Avenue"/></node>
<node id="-3" lat="45.51222714" lon="-122.976807368" visible="true"><tag k="addr:housenumber" v="913"/><tag k="addr:postcode" v="97123"/><tag k="addr:city" v="Hillsboro"/><tag k="addr:street" v="Southeast 8th Avenue"/></node>
<node id="-4" lat="45.512471126" lon="-122.976320532" visible="true"><tag k="addr:housenumber" v="907"/><tag k="addr:postcode" v="97123"/><tag k="addr:city" v="Hillsboro"/><tag k="addr:street" v="Southeast Albertine Street"/></node>
<node id="-5" lat="45.511781589" lon="-122.975236237" visible="true"><tag k="addr:housenumber" v="988"/><tag k="addr:postcode" v="97123"/><tag k="addr:city" v="Hillsboro"/><tag k="addr:street" v="Southeast Albertine Street"/></node>
<node id="-6" lat="45.508408641" lon="-122.97395598" visible="true"><tag k="addr:housenumber" v="1050"/><tag k="addr:postcode" v="97123"/><tag k="addr:city" v="Hillsboro"/><tag k="addr:street" v="Southeast Bianca Street"/></node>
<node id="-7" lat="45.508405579" lon="-122.973957458" visible="true"><tag k="addr:housenumber" v="1110"/><tag k="addr:postcode" v="97123"/><tag k="addr:city" v="Hillsboro"/><tag k="addr:street" v="Southeast Bianca Street"/></node>
<node id="-8" lat="45.508305284" lon="-122.975791282" visible="true"><tag k="addr:housenumber" v="947"/><tag k="addr:postcode" v="97123"/><tag k="addr:city" v="Hillsboro"/><tag k="addr:street" v="Southeast Bianca Street"/></node>
<node id="-9" lat="45.507602836" lon="-122.973810756" visible="true"><tag k="addr:housenumber" v="1198"/><tag k="addr:postcode" v="97123"/><tag k="addr:city" v="Hillsboro"/><tag k="addr:street" v="Southeast Handel Avenue"/></node>
<node id="-10" lat="45.507597473" lon="-122.973802346" visible="true"><tag k="addr:housenumber" v="1200"/><tag k="addr:postcode" v="97123"/><tag k="addr:city" v="Hillsboro"/><tag k="addr:street" v="Southeast Handel Avenue"/></node>
<node id="-11" lat="45.512302866" lon="-122.978261633" visible="true"><tag k="addr:housenumber" v="758"/><tag k="addr:postcode" v="97123"/><tag k="addr:city" v="Hillsboro"/><tag k="addr:street" v="Southeast High Street"/></node>
<node id="-12" lat="45.51224848" lon="-122.978149266" visible="true"><tag k="addr:housenumber" v="762"/><tag k="addr:postcode" v="97123"/><tag k="addr:city" v="Hillsboro"/><tag k="addr:street" v="Southeast High Street"/></node>
<node id="-13" lat="45.512506482" lon="-122.977823885" visible="true"><tag k="addr:housenumber" v="788"/><tag k="addr:postcode" v="97123"/><tag k="addr:city" v="Hillsboro"/><tag k="addr:street" v="Southeast High Street"/></node>
<node id="-14" lat="45.51250608" lon="-122.977677305" visible="true"><tag k="addr:housenumber" v="790"/><tag k="addr:postcode" v="97123"/><tag k="addr:city" v="Hillsboro"/><tag k="addr:street" v="Southeast High Street"/></node>
<node id="-15" lat="45.50963742" lon="-122.975691541" visible="true"><tag k="addr:housenumber" v="1049"/><tag k="addr:postcode" v="97123"/><tag k="addr:city" v="Hillsboro"/><tag k="addr:street" v="Southeast Portlandia Avenue"/></node>
<node id="-16" lat="45.50963723" lon="-122.975688588" visible="true"><tag k="addr:housenumber" v="1051"/><tag k="addr:postcode" v="97123"/><tag k="addr:city" v="Hillsboro"/><tag k="addr:street" v="Southeast Portlandia Avenue"/></node>
<node id="-17" lat="45.511775935" lon="-122.975232819" visible="true"><tag k="addr:housenumber" v="901"/><tag k="addr:postcode" v="97123"/><tag k="addr:city" v="Hillsboro"/><tag k="addr:street" v="Southeast Portlandia Avenue"/></node>
<node id="-18" lat="45.509906972" lon="-122.976187612" visible="true"><tag k="addr:housenumber" v="955"/><tag k="addr:postcode" v="97123"/><tag k="addr:city" v="Hillsboro"/><tag k="addr:street" v="Southeast Tamango Street"/></node>
<node id="-19" lat="45.509988173" lon="-122.976217828" visible="true"><tag k="addr:housenumber" v="1170"/><tag k="addr:postcode" v="97123"/><tag k="addr:city" v="Hillsboro"/><tag k="addr:street" v="Southeast Tualatin Valley Highway"/></node>
<node id="-20" lat="45.508307229" lon="-122.975791915" visible="true"><tag k="addr:housenumber" v="1137"/><tag k="addr:postcode" v="97123"/><tag k="addr:city" v="Hillsboro"/><tag k="addr:street" v="Southeast Wenlock Avenue"/></node>
</osm>