<?xml version="1.0"?>
<osm version="0.6" upload="false" generator="uvmogr2osm">
<node id="-1" lat="45.507962317" lon="-122.907535896" visible="true"><tag k="addr:housenumber" v="1582"/><tag k="addr:postcode" v="97123"/><tag k="addr:city" v="Hillsboro"/><tag k="addr:street" v="Southeast 72nd Way"/></node>
<node id="-2" lat="45.512092053" lon="-122.907279759" visible="true"><tag k="addr:housenumber" v="7176"/><tag k="addr:postcode" v="97123"/><tag k="addr:city" v="Hillsboro"/><tag k="addr:street" v="Southeast Lois Street"/></node>
<node id="-3" lat="45.512096451" lon="-122.907203867" visible="true"><tag k="addr:housenumber" v="7178"/><tag k="addr:postcode" v="97123"/><tag k="addr:city" v="Hillsboro"/><tag k="addr:street" v="Southeast Lois Street"/></node>
<node id="-4" lat="45.506687584" lon="-122.902757989" visible="true"><tag k="addr:housenumber" v="1831"/><tag k="addr:postcode" v="97123"/><tag k="addr:city" v="Hillsboro"/><tag k="addr:street" v="Southwest Cornelius Pass Road"/></node>
<node id="-5" lat="45.506613599" lon="-122.902760331" visible="true"><tag k="addr:housenumber" v="1833"/><tag k="addr:postcode" v="97123"/><tag k="addr:city" v="Hillsboro"/><tag k="addr:street" v="Southwest Cornelius Pass Road"/></node>
<node id="-6" lat="45.506283264" lon="-122.902677514" visible="true"><tag k="addr:housenumber" v="1875"/><tag k="addr:postcode" v="97123"/><tag k="addr:city" v="Hillsboro"/><tag k="addr:street" v="Southwest Cornelius Pass Road"/></node>
<node id="-7" lat="45.506218031" lon="-122.902663314" visible="true"><tag k="addr:housenumber" v="1877"/><tag k="addr:postcode" v="97123"/><tag k="addr:city" v="Hillsboro"/><tag k="addr:street" v="Southwest Cornelius Pass Road"/></node>
<node id="-8" lat="45.507957019" lon="-122.907537312" visible="true"><tag k="addr:housenumber" v="22450"/><tag k="addr:postcode" v="97123"/><tag k="addr:city" v="Hillsboro"/><tag k="addr:street" v="Southwest Frances Street"/></node>
</osm>