<?xml version="1.0"?>
<osm version="0.6" upload="false" generator="uvmogr2osm">
<node id="-1" lat="45.50495995" lon="-122.949326788" visible="true"><tag k="addr:housenumber" v="1952"/><tag k="addr:postcode" v="97123"/><tag k="addr:city" v="Hillsboro"/><tag k="addr:street" v="Southeast 32nd Avenue"/></node>
<node id="-2" lat="45.504961803" lon="-122.949321595" visible="true"><tag k="addr:housenumber" v="1958"/><tag k="addr:postcode" v="97123"/><tag k="addr:city" v="Hillsboro"/><tag k="addr:street" v="Southeast 32nd Avenue"/></node>
<node id="-3" lat="45.49808043" lon="-122.942936064" visible="true"><tag k="addr:housenumber" v="2900"/><tag k="addr:postcode" v="97123"/><tag k="addr:city" v="Hillsboro"/><tag k="addr:street" v="Southeast 38th Court"/></node>
<node id="-4" lat="45.498028803" lon="-122.94290696" visible="true"><tag k="addr:housenumber" v="2902"/><tag k="addr:postcode" v="97123"/><tag k="addr:city" v="Hillsboro"/><tag k="addr:street" v="Southeast 38th Court"/></node>
<node id="-5" lat="45.497933077" lon="-122.9434602" visible="true"><tag k="addr:housenumber" v="2907"/><tag k="addr:postcode" v="97123"/><tag k="addr:city" v="Hillsboro"/><tag k="addr:street" v="Southeast 38th Court"/></node>
<node id="-6" lat="45.49787114" lon="-122.943442259" visible="true"><tag k="addr:housenumber" v="2909"/><tag k="addr:postcode" v="97123"/><tag k="addr:city" v="Hillsboro"/><tag k="addr:street" v="Southeast 38th Court"/></node>
<node id="-7" lat="45.497912649" lon="-122.942903142" visible="true"><tag k="addr:housenumber" v="2912"/><tag k="addr:postcode" v="97123"/><tag k="addr:city" v="Hillsboro"/><tag k="addr:street" v="Southeast 38th Court"/></node>
<node id="-8" lat="45.497837893" lon="-122.942890091" visible="true"><tag k="addr:housenumber" v="2914"/><tag k="addr:postcode" v="97123"/><tag k="addr:city" v="Hillsboro"/><tag k="addr:street" v="Southeast 38th Court"/></node>
<node id="-9" lat="45.497768868" lon="-122.943461002" visible="true"><tag k="addr:housenumber" v="2917"/><tag k="addr:postcode" v="97123"/><tag k="addr:city" v="Hillsboro"/><tag k="addr:street" v="Southeast 38th Court"/></node>
<node id="-10" lat="45.497692848" lon="-122.943460095" visible="true"><tag k="addr:housenumber" v="2919"/><tag k="addr:postcode" v="97123"/><tag k="addr:city" v="Hillsboro"/><tag k="addr:street" v="Southeast 38th Court"/></node>
<node id="-11" lat="45.497731008" lon="-122.942904685" visible="true"><tag k="addr:housenumber" v="2924"/><tag k="addr:postcode" v="97123"/><tag k="addr:city" v="Hillsboro"/><tag k="addr:street" v="Southeast 38th Court"/></node>
<node id="-12" lat="45.49764709" lon="-122.942917095" visible="true"><tag k="addr:housenumber" v="2926"/><tag k="addr:postcode" v="97123"/><tag k="addr:city" v="Hillsboro"/><tag k="addr:street" v="Southeast 38th Court"/></node>
<node id="-13" lat="45.49760619" lon="-122.943505001" visible="true"><tag k="addr:housenumber" v="2931"/><tag k="addr:postcode" v="97123"/><tag k="addr:city" v="Hillsboro"/><tag k="addr:street" v="Southeast 38th Court"/></node>
<node id="-14" lat="45.497534264" lon="-122.943493264" visible="true"><tag k="addr:housenumber" v="2933"/><tag k="addr:postcode" v="97123"/><tag k="addr:city" v="Hillsboro"/><tag k="addr:street" v="Southeast 38th Court"/></node>
<node id="-15" lat="45.497512079" lon="-122.942976791" visible="true"><tag k="addr:housenumber" v="2936"/><tag k="addr:postcode" v="97123"/><tag k="addr:city" v="Hillsboro"/><tag k="addr:street" v="Southeast 38th Court"/></node>
<node id="-16" lat="45.49742882" lon="-122.942968561" visible="true"><tag k="addr:housenumber" v="2938"/><tag k="addr:postcode" v="97123"/><tag k="addr:city" v="Hillsboro"/><tag k="addr:street" v="Southeast 38th Court"/></node>
<node id="-17" lat="45.497418133" lon="-122.943557512" visible="true"><tag k="addr:housenumber" v="2945"/><tag k="addr:postcode" v="97123"/><tag k="addr:city" v="Hillsboro"/><tag k="addr:street" v="Southeast 38th Court"/></node>
<node id="-18" lat="45.497370465" lon="-122.943586482" visible="true"><tag k="addr:housenumber" v="2947"/><tag k="addr:postcode" v="97123"/><tag k="addr:city" v="Hillsboro"/><tag k="addr:street" v="Southeast 38th Court"/></node>
<node id="-19" lat="45.497345666" lon="-122.94297366" visible="true"><tag k="addr:housenumber" v="2948"/><tag k="addr:postcode" v="97123"/><tag k="addr:city" v="Hillsboro"/><tag k="addr:street" v="Southeast 38th Court"/></node>
<node id="-20" lat="45.49725888" lon="-122.9429669" visible="true"><tag k="addr:housenumber" v="2950"/><tag k="addr:postcode" v="97123"/><tag k="addr:city" v="Hillsboro"/><tag k="addr:street" v="Southeast 38th Court"/></node>
<node id="-21" lat="45.497124054" lon="-122.943019057" visible="true"><tag k="addr:housenumber" v="2960"/><tag k="addr:postcode" v="97123"/><tag k="addr:city" v="Hillsboro"/><tag k="addr:street" v="Southeast 38th Court"/></node>
<node id="-22" lat="45.497075313" lon="-122.943055401" visible="true"><tag k="addr:housenumber" v="2962"/><tag k="addr:postcode" v="97123"/><tag k="addr:city" v="Hillsboro"/><tag k="addr:street" v="Southeast 38th Court"/></node>
<node id="-23" lat="45.496953639" lon="-122.942940369" visible="true"><tag k="addr:housenumber" v="2972"/><tag k="addr:postcode" v="97123"/><tag k="addr:city" v="Hillsboro"/><tag k="addr:street" v="Southeast 38th Court"/></node>
<node id="-24" lat="45.496869189" lon="-122.942940463" visible="true"><tag k="addr:housenumber" v="2974"/><tag k="addr:postcode" v="97123"/><tag k="addr:city" v="Hillsboro"/><tag k="addr:street" v="Southeast 38th Court"/></node>
<node id="-25" lat="45.496792604" lon="-122.942943641" visible="true"><tag k="addr:housenumber" v="2984"/><tag k="addr:postcode" v="97123"/><tag k="addr:city" v="Hillsboro"/><tag k="addr:street" v="Southeast 38th Court"/></node>
<node id="-26" lat="45.496704933" lon="-122.942941985" visible="true"><tag k="addr:housenumber" v="2986"/><tag k="addr:postcode" v="97123"/><tag k="addr:city" v="Hillsboro"/><tag k="addr:street" v="Southeast 38th Court"/></node>
<node id="-27" lat="45.49690375" lon="-122.943325664" visible="true"><tag k="addr:housenumber" v="2996"/><tag k="addr:postcode" v="97123"/><tag k="addr:city" v="Hillsboro"/><tag k="addr:street" v="Southeast 38th Court"/></node>
<node id="-28" lat="45.496943344" lon="-122.94338353" visible="true"><tag k="addr:housenumber" v="2998"/><tag k="addr:postcode" v="97123"/><tag k="addr:city" v="Hillsboro"/><tag k="addr:street" v="Southeast 38th Court"/></node>
<node id="-29" lat="45.49693301" lon="-122.94357006" visible="true"><tag k="addr:housenumber" v="3008"/><tag k="addr:postcode" v="97123"/><tag k="addr:city" v="Hillsboro"/><tag k="addr:street" v="Southeast 38th Court"/></node>
<node id="-30" lat="45.496983191" lon="-122.943600584" visible="true"><tag k="addr:housenumber" v="3010"/><tag k="addr:postcode" v="97123"/><tag k="addr:city" v="Hillsboro"/><tag k="addr:street" v="Southeast 38th Court"/></node>
<node id="-31" lat="45.49756093" lon="-122.943752562" visible="true"><tag k="addr:housenumber" v="3013"/><tag k="addr:postcode" v="97123"/><tag k="addr:city" v="Hillsboro"/><tag k="addr:street" v="Southeast 38th Court"/></node>
<node id="-32" lat="45.497597728" lon="-122.943787674" visible="true"><tag k="addr:housenumber" v="3015"/><tag k="addr:postcode" v="97123"/><tag k="addr:city" v="Hillsboro"/><tag k="addr:street" v="Southeast 38th Court"/></node>
<node id="-33" lat="45.497003617" lon="-122.943759864" visible="true"><tag k="addr:housenumber" v="3020"/><tag k="addr:postcode" v="97123"/><tag k="addr:city" v="Hillsboro"/><tag k="addr:street" v="Southeast 38th Court"/></node>
<node id="-34" lat="45.497044083" lon="-122.943791147" visible="true"><tag k="addr:housenumber" v="3022"/><tag k="addr:postcode" v="97123"/><tag k="addr:city" v="Hillsboro"/><tag k="addr:street" v="Southeast 38th Court"/></node>
<node id="-35" lat="45.497791458" lon="-122.943716616" visible="true"><tag k="addr:housenumber" v="3027"/><tag k="addr:postcode" v="97123"/><tag k="addr:city" v="Hillsboro"/><tag k="addr:street" v="Southeast 38th Court"/></node>
<node id="-36" lat="45.49783804" lon="-122.943750858" visible="true"><tag k="addr:housenumber" v="3029"/><tag k="addr:postcode" v="97123"/><tag k="addr:city" v="Hillsboro"/><tag k="addr:street" v="Southeast 38th Court"/></node>
<node id="-37" lat="45.497085237" lon="-122.943953162" visible="true"><tag k="addr:housenumber" v="3032"/><tag k="addr:postcode" v="97123"/><tag k="addr:city" v="Hillsboro"/><tag k="addr:street" v="Southeast 38th Court"/></node>
<node id="-38" lat="45.49712603" lon="-122.943983601" visible="true"><tag k="addr:housenumber" v="3034"/><tag k="addr:postcode" v="97123"/><tag k="addr:city" v="Hillsboro"/><tag k="addr:street" v="Southeast 38th Court"/></node>
<node id="-39" lat="45.497689029" lon="-122.944056857" visible="true"><tag k="addr:housenumber" v="3039"/><tag k="addr:postcode" v="97123"/><tag k="addr:city" v="Hillsboro"/><tag k="addr:street" v="Southeast 38th Court"/></node>
<node id="-40" lat="45.497646129" lon="-122.944078628" visible="true"><tag k="addr:housenumber" v="3041"/><tag k="addr:postcode" v="97123"/><tag k="addr:city" v="Hillsboro"/><tag k="addr:street" v="Southeast 38th Court"/></node>
<node id="-41" lat="45.497119444" lon="-122.944182255" visible="true"><tag k="addr:housenumber" v="3044"/><tag k="addr:postcode" v="97123"/><tag k="addr:city" v="Hillsboro"/><tag k="addr:street" v="Southeast 38th Court"/></node>
<node id="-42" lat="45.49715281" lon="-122.944223295" visible="true"><tag k="addr:housenumber" v="3046"/><tag k="addr:postcode" v="97123"/><tag k="addr:city" v="Hillsboro"/><tag k="addr:street" v="Southeast 38th Court"/></node>
<node id="-43" lat="45.497580561" lon="-122.944259813" visible="true"><tag k="addr:housenumber" v="3051"/><tag k="addr:postcode" v="97123"/><tag k="addr:city" v="Hillsboro"/><tag k="addr:street" v="Southeast 38th Court"/></node>
<node id="-44" lat="45.497550083" lon="-122.944296588" visible="true"><tag k="addr:housenumber" v="3053"/><tag k="addr:postcode" v="97123"/><tag k="addr:city" v="Hillsboro"/><tag k="addr:street" v="Southeast 38th Court"/></node>
<node id="-45" lat="45.497124777" lon="-122.944415078" visible="true"><tag k="addr:housenumber" v="3056"/><tag k="addr:postcode" v="97123"/><tag k="addr:city" v="Hillsboro"/><tag k="addr:street" v="Southeast 38th Court"/></node>
<node id="-46" lat="45.497162598" lon="-122.944462943" visible="true"><tag k="addr:housenumber" v="3058"/><tag k="addr:postcode" v="97123"/><tag k="addr:city" v="Hillsboro"/><tag k="addr:street" v="Southeast 38th Court"/></node>
<node id="-47" lat="45.497448455" lon="-122.944457561" visible="true"><tag k="addr:housenumber" v="3061"/><tag k="addr:postcode" v="97123"/><tag k="addr:city" v="Hillsboro"/><tag k="addr:street" v="Southeast 38th Court"/></node>
<node id="-48" lat="45.497441294" lon="-122.944457652" visible="true"><tag k="addr:housenumber" v="3063"/><tag k="addr:postcode" v="97123"/><tag k="addr:city" v="Hillsboro"/><tag k="addr:street" v="Southeast 38th Court"/></node>
<node id="-49" lat="45.497443838" lon="-122.944454751" visible="true"><tag k="addr:housenumber" v="3065"/><tag k="addr:postcode" v="97123"/><tag k="addr:city" v="Hillsboro"/><tag k="addr:street" v="Southeast 38th Court"/></node>
<node id="-50" lat="45.497265739" lon="-122.944588222" visible="true"><tag k="addr:housenumber" v="3068"/><tag k="addr:postcode" v="97123"/><tag k="addr:city" v="Hillsboro"/><tag k="addr:street" v="Southeast 38th Court"/></node>
<node id="-51" lat="45.497344548" lon="-122.944591018" visible="true"><tag k="addr:housenumber" v="3070"/><tag k="addr:postcode" v="97123"/><tag k="addr:city" v="Hillsboro"/><tag k="addr:street" v="Southeast 38th Court"/></node>
<node id="-52" lat="45.49867339" lon="-122.940778904" visible="true"><tag k="addr:housenumber" v="2810"/><tag k="addr:postcode" v="97123"/><tag k="addr:city" v="Hillsboro"/><tag k="addr:street" v="Southeast 41st Avenue"/></node>
<node id="-53" lat="45.498732534" lon="-122.940759438" visible="true"><tag k="addr:housenumber" v="2812"/><tag k="addr:postcode" v="97123"/><tag k="addr:city" v="Hillsboro"/><tag k="addr:street" v="Southeast 41st Avenue"/></node>
<node id="-54" lat="45.496885979" lon="-122.958505595" visible="true"><tag k="addr:housenumber" v="3000"/><tag k="addr:postcode" v="97123"/><tag k="addr:city" v="Hillsboro"/><tag k="addr:street" v="Southeast Blue Bird Drive"/></node>
<node id="-55" lat="45.4966599" lon="-122.9425062" visible="true"><tag k="addr:housenumber" v="2991"/><tag k="addr:postcode" v="97123"/><tag k="addr:city" v="Hillsboro"/><tag k="addr:street" v="Southeast Columbus Avenue"/></node>
<node id="-56" lat="45.496665726" lon="-122.942508724" visible="true"><tag k="addr:housenumber" v="2995"/><tag k="addr:postcode" v="97123"/><tag k="addr:city" v="Hillsboro"/><tag k="addr:street" v="Southeast Columbus Avenue"/></node>
<node id="-57" lat="45.496877391" lon="-122.958512463" visible="true"><tag k="addr:housenumber" v="2384"/><tag k="addr:postcode" v="97123"/><tag k="addr:city" v="Hillsboro"/><tag k="addr:street" v="Southeast Dove Street"/></node>
<node id="-58" lat="45.504655265" lon="-122.941438052" visible="true"><tag k="addr:housenumber" v="3982"/><tag k="addr:postcode" v="97123"/><tag k="addr:city" v="Hillsboro"/><tag k="addr:street" v="Southeast Glen Meadows Way"/></node>
<node id="-59" lat="45.504662573" lon="-122.941437231" visible="true"><tag k="addr:housenumber" v="3935"/><tag k="addr:postcode" v="97123"/><tag k="addr:city" v="Hillsboro"/><tag k="addr:street" v="Southeast Tualatin Valley Highway"/></node>
<node id="-60" lat="45.496665973" lon="-122.942512616" visible="true"><tag k="addr:housenumber" v="3280"/><tag k="addr:postcode" v="97123"/><tag k="addr:city" v="Hillsboro"/><tag k="addr:street" v="Southwest River Road"/></node>
</osm>