<?xml version="1.0"?>
<osm version="0.6" upload="false" generator="uvmogr2osm">
<node id="-1" lat="45.523527516" lon="-122.903759023" visible="true"><tag k="addr:housenumber" v="310"/><tag k="addr:postcode" v="97124"/><tag k="addr:city" v="Hillsboro"/><tag k="addr:street" v="Northeast 74th Avenue"/></node>
<node id="-2" lat="45.523489715" lon="-122.904304543" visible="true"><tag k="addr:housenumber" v="317"/><tag k="addr:postcode" v="97124"/><tag k="addr:city" v="Hillsboro"/><tag k="addr:street" v="Northeast 74th Avenue"/></node>
<node id="-3" lat="45.522936241" lon="-122.9052488" visible="true"><tag k="addr:housenumber" v="297"/><tag k="addr:postcode" v="97124"/><tag k="addr:city" v="Hillsboro"/><tag k="addr:street" v="Northeast Danbury Avenue"/></node>
<node id="-4" lat="45.522942287" lon="-122.905256619" visible="true"><tag k="addr:housenumber" v="299"/><tag k="addr:postcode" v="97124"/><tag k="addr:city" v="Hillsboro"/><tag k="addr:street" v="Northeast Danbury Avenue"/></node>
<node id="-5" lat="45.523448848" lon="-122.90510044" visible="true"><tag k="addr:housenumber" v="7178"/><tag k="addr:postcode" v="97124"/><tag k="addr:city" v="Hillsboro"/><tag k="addr:street" v="Northeast Rockridge Place"/></node>
<node id="-6" lat="45.523490718" lon="-122.904296016" visible="true"><tag k="addr:housenumber" v="7272"/><tag k="addr:postcode" v="97124"/><tag k="addr:city" v="Hillsboro"/><tag k="addr:street" v="Northeast Rockridge Place"/></node>
<node id="-7" lat="45.526074966" lon="-122.907218769" visible="true"><tag k="addr:housenumber" v="830"/><tag k="addr:postcode" v="97124"/><tag k="addr:city" v="Hillsboro"/><tag k="addr:street" v="Northwest 225th Avenue"/></node>
<node id="-8" lat="45.526163328" lon="-122.907215987" visible="true"><tag k="addr:housenumber" v="832"/><tag k="addr:postcode" v="97124"/><tag k="addr:city" v="Hillsboro"/><tag k="addr:street" v="Northwest 225th Avenue"/></node>
<node id="-9" lat="45.526493304" lon="-122.907228801" visible="true"><tag k="addr:housenumber" v="882"/><tag k="addr:postcode" v="97124"/><tag k="addr:city" v="Hillsboro"/><tag k="addr:street" v="Northwest 225th Avenue"/></node>
<node id="-10" lat="45.526975598" lon="-122.9072589" visible="true"><tag k="addr:housenumber" v="985"/><tag k="addr:postcode" v="97124"/><tag k="addr:city" v="Hillsboro"/><tag k="addr:street" v="Northwest 225th Avenue"/></node>
<node id="-11" lat="45.526306822" lon="-122.908143052" visible="true"><tag k="addr:housenumber" v="850"/><tag k="addr:postcode" v="97124"/><tag k="addr:city" v="Hillsboro"/><tag k="addr:street" v="Northwest 226th Avenue"/></node>
<node id="-12" lat="45.526366479" lon="-122.908147779" visible="true"><tag k="addr:housenumber" v="852"/><tag k="addr:postcode" v="97124"/><tag k="addr:city" v="Hillsboro"/><tag k="addr:street" v="Northwest 226th Avenue"/></node>
<node id="-13" lat="45.526541728" lon="-122.908135214" visible="true"><tag k="addr:housenumber" v="878"/><tag k="addr:postcode" v="97124"/><tag k="addr:city" v="Hillsboro"/><tag k="addr:street" v="Northwest 226th Avenue"/></node>
<node id="-14" lat="45.526565073" lon="-122.907169565" visible="true"><tag k="addr:housenumber" v="22484"/><tag k="addr:postcode" v="97124"/><tag k="addr:city" v="Hillsboro"/><tag k="addr:street" v="Northwest Dogwood Street"/></node>
<node id="-15" lat="45.526568991" lon="-122.908005185" visible="true"><tag k="addr:housenumber" v="22550"/><tag k="addr:postcode" v="97124"/><tag k="addr:city" v="Hillsboro"/><tag k="addr:street" v="Northwest Dogwood Street"/></node>
<node id="-16" lat="45.526978981" lon="-122.907256653" visible="true"><tag k="addr:housenumber" v="7079"/><tag k="addr:postcode" v="97124"/><tag k="addr:city" v="Hillsboro"/><tag k="addr:street" v="Northwest Dogwood Street"/></node>
<node id="-17" lat="45.523528734" lon="-122.9037525" visible="true"><tag k="addr:housenumber" v="22065"/><tag k="addr:postcode" v="97124"/><tag k="addr:city" v="Hillsboro"/><tag k="addr:street" v="Northwest Quatama Road"/></node>
<node id="-18" lat="45.523495254" lon="-122.90429747" visible="true"><tag k="addr:housenumber" v="22135"/><tag k="addr:postcode" v="97124"/><tag k="addr:city" v="Hillsboro"/><tag k="addr:street" v="Northwest Quatama Road"/></node>
<node id="-19" lat="45.523514477" lon="-122.905012973" visible="true"><tag k="addr:housenumber" v="22185"/><tag k="addr:postcode" v="97124"/><tag k="addr:city" v="Hillsboro"/><tag k="addr:street" v="Northwest Quatama Road"/></node>
<node id="-20" lat="45.514828873" lon="-122.885309287" visible="true"><tag k="addr:housenumber" v="716"/><tag k="addr:postcode" v="97003"/><tag k="addr:city" v="Beaverton"/><tag k="addr:street" v="Southwest 203rd Place"/></node>
<node id="-21" lat="45.514831612" lon="-122.885318666" visible="true"><tag k="addr:housenumber" v="718"/><tag k="addr:postcode" v="97003"/><tag k="addr:city" v="Beaverton"/><tag k="addr:street" v="Southwest 203rd Place"/></node>
<node id="-22" lat="45.514829363" lon="-122.88531623" visible="true"><tag k="addr:housenumber" v="720"/><tag k="addr:postcode" v="97003"/><tag k="addr:city" v="Beaverton"/><tag k="addr:street" v="Southwest 203rd Place"/></node>
<node id="-23" lat="45.514865359" lon="-122.886077935" visible="true"><tag k="addr:housenumber" v="723"/><tag k="addr:postcode" v="97003"/><tag k="addr:city" v="Beaverton"/><tag k="addr:street" v="Southwest 203rd Place"/></node>
<node id="-24" lat="45.514871192" lon="-122.886076286" visible="true"><tag k="addr:housenumber" v="725"/><tag k="addr:postcode" v="97003"/><tag k="addr:city" v="Beaverton"/><tag k="addr:street" v="Southwest 203rd Place"/></node>
<node id="-25" lat="45.514871255" lon="-122.886073943" visible="true"><tag k="addr:housenumber" v="727"/><tag k="addr:postcode" v="97003"/><tag k="addr:city" v="Beaverton"/><tag k="addr:street" v="Southwest 203rd Place"/></node>
<node id="-26" lat="45.514569027" lon="-122.886109644" visible="true"><tag k="addr:housenumber" v="739"/><tag k="addr:postcode" v="97003"/><tag k="addr:city" v="Beaverton"/><tag k="addr:street" v="Southwest 203rd Place"/></node>
<node id="-27" lat="45.514567445" lon="-122.886103649" visible="true"><tag k="addr:housenumber" v="741"/><tag k="addr:postcode" v="97003"/><tag k="addr:city" v="Beaverton"/><tag k="addr:street" v="Southwest 203rd Place"/></node>
<node id="-28" lat="45.514565855" lon="-122.886101274" visible="true"><tag k="addr:housenumber" v="743"/><tag k="addr:postcode" v="97003"/><tag k="addr:city" v="Beaverton"/><tag k="addr:street" v="Southwest 203rd Place"/></node>
<node id="-29" lat="45.516050039" lon="-122.887384438" visible="true"><tag k="addr:housenumber" v="520"/><tag k="addr:postcode" v="97006"/><tag k="addr:city" v="Beaverton"/><tag k="addr:street" v="Southwest 205th Avenue"/></node>
<node id="-30" lat="45.516043896" lon="-122.887380073" visible="true"><tag k="addr:housenumber" v="530"/><tag k="addr:postcode" v="97006"/><tag k="addr:city" v="Beaverton"/><tag k="addr:street" v="Southwest 205th Avenue"/></node>
<node id="-31" lat="45.514835378" lon="-122.884033552" visible="true"><tag k="addr:housenumber" v="710"/><tag k="addr:postcode" v="97003"/><tag k="addr:city" v="Beaverton"/><tag k="addr:street" v="Southwest Backcourt Place"/></node>
<node id="-32" lat="45.514833482" lon="-122.884029657" visible="true"><tag k="addr:housenumber" v="712"/><tag k="addr:postcode" v="97003"/><tag k="addr:city" v="Beaverton"/><tag k="addr:street" v="Southwest Backcourt Place"/></node>
<node id="-33" lat="45.514839596" lon="-122.884028833" visible="true"><tag k="addr:housenumber" v="714"/><tag k="addr:postcode" v="97003"/><tag k="addr:city" v="Beaverton"/><tag k="addr:street" v="Southwest Backcourt Place"/></node>
<node id="-34" lat="45.514863304" lon="-122.884818675" visible="true"><tag k="addr:housenumber" v="719"/><tag k="addr:postcode" v="97003"/><tag k="addr:city" v="Beaverton"/><tag k="addr:street" v="Southwest Backcourt Place"/></node>
<node id="-35" lat="45.514864323" lon="-122.884818457" visible="true"><tag k="addr:housenumber" v="721"/><tag k="addr:postcode" v="97003"/><tag k="addr:city" v="Beaverton"/><tag k="addr:street" v="Southwest Backcourt Place"/></node>
<node id="-36" lat="45.514646499" lon="-122.884826869" visible="true"><tag k="addr:housenumber" v="733"/><tag k="addr:postcode" v="97003"/><tag k="addr:city" v="Beaverton"/><tag k="addr:street" v="Southwest Backcourt Place"/></node>
<node id="-37" lat="45.514651082" lon="-122.884826465" visible="true"><tag k="addr:housenumber" v="735"/><tag k="addr:postcode" v="97003"/><tag k="addr:city" v="Beaverton"/><tag k="addr:street" v="Southwest Backcourt Place"/></node>
<node id="-38" lat="45.514341865" lon="-122.878399529" visible="true"><tag k="addr:housenumber" v="19580"/><tag k="addr:postcode" v="97003"/><tag k="addr:city" v="Beaverton"/><tag k="addr:street" v="Southwest Hennig Street"/></node>
<node id="-39" lat="45.514343184" lon="-122.878397175" visible="true"><tag k="addr:housenumber" v="19580"/><tag k="addr:postcode" v="97003"/><tag k="addr:city" v="Beaverton"/><tag k="addr:street" v="Southwest Henning Street"/></node>
<node id="-40" lat="45.514877193" lon="-122.886530229" visible="true"><tag k="addr:housenumber" v="20409"/><tag k="addr:postcode" v="97003"/><tag k="addr:city" v="Beaverton"/><tag k="addr:street" v="Southwest Midline Street"/></node>
<node id="-41" lat="45.514878555" lon="-122.886529711" visible="true"><tag k="addr:housenumber" v="20411"/><tag k="addr:postcode" v="97003"/><tag k="addr:city" v="Beaverton"/><tag k="addr:street" v="Southwest Midline Street"/></node>
<node id="-42" lat="45.514385792" lon="-122.887311921" visible="true"><tag k="addr:housenumber" v="20452"/><tag k="addr:postcode" v="97003"/><tag k="addr:city" v="Beaverton"/><tag k="addr:street" v="Southwest Midline Street"/></node>
<node id="-43" lat="45.51438506" lon="-122.887315685" visible="true"><tag k="addr:housenumber" v="20454"/><tag k="addr:postcode" v="97003"/><tag k="addr:city" v="Beaverton"/><tag k="addr:street" v="Southwest Midline Street"/></node>
<node id="-44" lat="45.514383148" lon="-122.887308007" visible="true"><tag k="addr:housenumber" v="20456"/><tag k="addr:postcode" v="97003"/><tag k="addr:city" v="Beaverton"/><tag k="addr:street" v="Southwest Midline Street"/></node>
<node id="-45" lat="45.514878897" lon="-122.887290424" visible="true"><tag k="addr:housenumber" v="20461"/><tag k="addr:postcode" v="97003"/><tag k="addr:city" v="Beaverton"/><tag k="addr:street" v="Southwest Midline Street"/></node>
<node id="-46" lat="45.514883345" lon="-122.887290898" visible="true"><tag k="addr:housenumber" v="20463"/><tag k="addr:postcode" v="97003"/><tag k="addr:city" v="Beaverton"/><tag k="addr:street" v="Southwest Midline Street"/></node>
<node id="-47" lat="45.514878403" lon="-122.887288698" visible="true"><tag k="addr:housenumber" v="20465"/><tag k="addr:postcode" v="97003"/><tag k="addr:city" v="Beaverton"/><tag k="addr:street" v="Southwest Midline Street"/></node>
<node id="-48" lat="45.51445677" lon="-122.88777557" visible="true"><tag k="addr:housenumber" v="20470"/><tag k="addr:postcode" v="97003"/><tag k="addr:city" v="Beaverton"/><tag k="addr:street" v="Southwest Midline Street"/></node>
<node id="-49" lat="45.514463586" lon="-122.887774592" visible="true"><tag k="addr:housenumber" v="20472"/><tag k="addr:postcode" v="97003"/><tag k="addr:city" v="Beaverton"/><tag k="addr:street" v="Southwest Midline Street"/></node>
<node id="-50" lat="45.514460144" lon="-122.887775405" visible="true"><tag k="addr:housenumber" v="20474"/><tag k="addr:postcode" v="97003"/><tag k="addr:city" v="Beaverton"/><tag k="addr:street" v="Southwest Midline Street"/></node>
<node id="-51" lat="45.514820556" lon="-122.887709411" visible="true"><tag k="addr:housenumber" v="20485"/><tag k="addr:postcode" v="97003"/><tag k="addr:city" v="Beaverton"/><tag k="addr:street" v="Southwest Midline Street"/></node>
<node id="-52" lat="45.51481381" lon="-122.887704967" visible="true"><tag k="addr:housenumber" v="20487"/><tag k="addr:postcode" v="97003"/><tag k="addr:city" v="Beaverton"/><tag k="addr:street" v="Southwest Midline Street"/></node>
<node id="-53" lat="45.514819874" lon="-122.88771165" visible="true"><tag k="addr:housenumber" v="20489"/><tag k="addr:postcode" v="97003"/><tag k="addr:city" v="Beaverton"/><tag k="addr:street" v="Southwest Midline Street"/></node>
</osm>