<?xml version="1.0"?>
<osm version="0.6" upload="false" generator="uvmogr2osm">
<node id="-1" lat="45.503216821" lon="-122.438461508" visible="true"><tag k="addr:housenumber" v="615"/><tag k="addr:postcode" v="97030"/><tag k="addr:city" v="Gresham"/><tag k="addr:street" v="Northwest 8th Street"/></node>
<node id="-2" lat="45.509401785" lon="-122.439904482" visible="true"><tag k="addr:housenumber" v="1656"/><tag k="addr:postcode" v="97030"/><tag k="addr:city" v="Gresham"/><tag k="addr:street" v="Northwest Civic Drive"/></node>
<node id="-3" lat="45.509403273" lon="-122.43991157" visible="true"><tag k="addr:housenumber" v="1700"/><tag k="addr:postcode" v="97030"/><tag k="addr:city" v="Gresham"/><tag k="addr:street" v="Northwest Civic Drive"/></node>
<node id="-4" lat="45.509400273" lon="-122.439908245" visible="true"><tag k="addr:housenumber" v="1754"/><tag k="addr:postcode" v="97030"/><tag k="addr:city" v="Gresham"/><tag k="addr:street" v="Northwest Civic Drive"/></node>
<node id="-5" lat="45.504239709" lon="-122.440219967" visible="true"><tag k="addr:housenumber" v="760"/><tag k="addr:postcode" v="97030"/><tag k="addr:city" v="Gresham"/><tag k="addr:street" v="Northwest Division Street"/></node>
<node id="-6" lat="45.504240454" lon="-122.440216476" visible="true"><tag k="addr:housenumber" v="780"/><tag k="addr:postcode" v="97030"/><tag k="addr:city" v="Gresham"/><tag k="addr:street" v="Northwest Division Street"/></node>
<node id="-7" lat="45.504240488" lon="-122.440479343" visible="true"><tag k="addr:housenumber" v="800"/><tag k="addr:postcode" v="97030"/><tag k="addr:city" v="Gresham"/><tag k="addr:street" v="Northwest Division Street"/></node>
<node id="-8" lat="45.504232861" lon="-122.440481972" visible="true"><tag k="addr:housenumber" v="820"/><tag k="addr:postcode" v="97030"/><tag k="addr:city" v="Gresham"/><tag k="addr:street" v="Northwest Division Street"/></node>
<node id="-9" lat="45.504238622" lon="-122.440801973" visible="true"><tag k="addr:housenumber" v="830"/><tag k="addr:postcode" v="97030"/><tag k="addr:city" v="Gresham"/><tag k="addr:street" v="Northwest Division Street"/></node>
<node id="-10" lat="45.504237859" lon="-122.440804664" visible="true"><tag k="addr:housenumber" v="840"/><tag k="addr:postcode" v="97030"/><tag k="addr:city" v="Gresham"/><tag k="addr:street" v="Northwest Division Street"/></node>
<node id="-11" lat="45.504216405" lon="-122.441149426" visible="true"><tag k="addr:housenumber" v="850"/><tag k="addr:postcode" v="97030"/><tag k="addr:city" v="Gresham"/><tag k="addr:street" v="Northwest Division Street"/></node>
<node id="-12" lat="45.504229262" lon="-122.441044262" visible="true"><tag k="addr:housenumber" v="860"/><tag k="addr:postcode" v="97030"/><tag k="addr:city" v="Gresham"/><tag k="addr:street" v="Northwest Division Street"/></node>
<node id="-13" lat="45.505865789" lon="-122.434844316" visible="true"><tag k="addr:housenumber" v="1214"/><tag k="addr:postcode" v="97030"/><tag k="addr:city" v="Gresham"/><tag k="addr:street" v="Northwest Eastman Parkway"/></node>
<node id="-14" lat="45.505866747" lon="-122.434844538" visible="true"><tag k="addr:housenumber" v="1220"/><tag k="addr:postcode" v="97030"/><tag k="addr:city" v="Gresham"/><tag k="addr:street" v="Northwest Eastman Parkway"/></node>
<node id="-15" lat="45.505866965" lon="-122.434846274" visible="true"><tag k="addr:housenumber" v="1222"/><tag k="addr:postcode" v="97030"/><tag k="addr:city" v="Gresham"/><tag k="addr:street" v="Northwest Eastman Parkway"/></node>
<node id="-16" lat="45.506642393" lon="-122.434939884" visible="true"><tag k="addr:housenumber" v="1400"/><tag k="addr:postcode" v="97030"/><tag k="addr:city" v="Gresham"/><tag k="addr:street" v="Northwest Eastman Parkway"/></node>
<node id="-17" lat="45.506636828" lon="-122.434943285" visible="true"><tag k="addr:housenumber" v="1402"/><tag k="addr:postcode" v="97030"/><tag k="addr:city" v="Gresham"/><tag k="addr:street" v="Northwest Eastman Parkway"/></node>
<node id="-18" lat="45.5112563" lon="-122.43825108" visible="true"><tag k="addr:housenumber" v="610"/><tag k="addr:postcode" v="97030"/><tag k="addr:city" v="Gresham"/><tag k="addr:street" v="Northwest Fariss Road"/></node>
<node id="-19" lat="45.511254902" lon="-122.438246337" visible="true"><tag k="addr:housenumber" v="614"/><tag k="addr:postcode" v="97030"/><tag k="addr:city" v="Gresham"/><tag k="addr:street" v="Northwest Fariss Road"/></node>
<node id="-20" lat="45.511248277" lon="-122.438245383" visible="true"><tag k="addr:housenumber" v="618"/><tag k="addr:postcode" v="97030"/><tag k="addr:city" v="Gresham"/><tag k="addr:street" v="Northwest Fariss Road"/></node>
<node id="-21" lat="45.497814313" lon="-122.442776447" visible="true"><tag k="addr:housenumber" v="50"/><tag k="addr:postcode" v="97030"/><tag k="addr:city" v="Gresham"/><tag k="addr:street" v="Northwest Florence Avenue"/></node>
<node id="-22" lat="45.497813172" lon="-122.442770311" visible="true"><tag k="addr:housenumber" v="52"/><tag k="addr:postcode" v="97030"/><tag k="addr:city" v="Gresham"/><tag k="addr:street" v="Northwest Florence Avenue"/></node>
<node id="-23" lat="45.498004511" lon="-122.443368359" visible="true"><tag k="addr:housenumber" v="65"/><tag k="addr:postcode" v="97030"/><tag k="addr:city" v="Gresham"/><tag k="addr:street" v="Northwest Florence Avenue"/></node>
<node id="-24" lat="45.498007917" lon="-122.443369852" visible="true"><tag k="addr:housenumber" v="67"/><tag k="addr:postcode" v="97030"/><tag k="addr:city" v="Gresham"/><tag k="addr:street" v="Northwest Florence Avenue"/></node>
<node id="-25" lat="45.503607415" lon="-122.443227033" visible="true"><tag k="addr:housenumber" v="860"/><tag k="addr:postcode" v="97030"/><tag k="addr:city" v="Gresham"/><tag k="addr:street" v="Northwest Florence Avenue"/></node>
<node id="-26" lat="45.503609472" lon="-122.443223246" visible="true"><tag k="addr:housenumber" v="862"/><tag k="addr:postcode" v="97030"/><tag k="addr:city" v="Gresham"/><tag k="addr:street" v="Northwest Florence Avenue"/></node>
<node id="-27" lat="45.503770906" lon="-122.443227279" visible="true"><tag k="addr:housenumber" v="880"/><tag k="addr:postcode" v="97030"/><tag k="addr:city" v="Gresham"/><tag k="addr:street" v="Northwest Florence Avenue"/></node>
<node id="-28" lat="45.503776611" lon="-122.443222529" visible="true"><tag k="addr:housenumber" v="882"/><tag k="addr:postcode" v="97030"/><tag k="addr:city" v="Gresham"/><tag k="addr:street" v="Northwest Florence Avenue"/></node>
<node id="-29" lat="45.503214436" lon="-122.438458723" visible="true"><tag k="addr:housenumber" v="827"/><tag k="addr:postcode" v="97030"/><tag k="addr:city" v="Gresham"/><tag k="addr:street" v="Northwest Norman Avenue"/></node>
<node id="-30" lat="45.503211678" lon="-122.438457734" visible="true"><tag k="addr:housenumber" v="829"/><tag k="addr:postcode" v="97030"/><tag k="addr:city" v="Gresham"/><tag k="addr:street" v="Northwest Norman Avenue"/></node>
<node id="-31" lat="45.497336804" lon="-122.436358901" visible="true"><tag k="addr:housenumber" v="439"/><tag k="addr:postcode" v="97030"/><tag k="addr:city" v="Gresham"/><tag k="addr:street" v="West Powell Boulevard"/></node>
<node id="-32" lat="45.497334386" lon="-122.436354944" visible="true"><tag k="addr:housenumber" v="445"/><tag k="addr:postcode" v="97030"/><tag k="addr:city" v="Gresham"/><tag k="addr:street" v="West Powell Boulevard"/></node>
<node id="-33" lat="45.497430533" lon="-122.438970875" visible="true"><tag k="addr:housenumber" v="645"/><tag k="addr:postcode" v="97030"/><tag k="addr:city" v="Gresham"/><tag k="addr:street" v="West Powell Boulevard"/></node>
<node id="-34" lat="45.497431965" lon="-122.438967068" visible="true"><tag k="addr:housenumber" v="647"/><tag k="addr:postcode" v="97030"/><tag k="addr:city" v="Gresham"/><tag k="addr:street" v="West Powell Boulevard"/></node>
<node id="-35" lat="45.497428008" lon="-122.438970375" visible="true"><tag k="addr:housenumber" v="649"/><tag k="addr:postcode" v="97030"/><tag k="addr:city" v="Gresham"/><tag k="addr:street" v="West Powell Boulevard"/></node>
</osm>