<?xml version="1.0"?>
<osm version="0.6" upload="false" generator="uvmogr2osm">
<node id="-1" lat="45.49748943" lon="-122.396911516" visible="true"><tag k="addr:housenumber" v="96"/><tag k="addr:postcode" v="97030"/><tag k="addr:city" v="Gresham"/><tag k="addr:street" v="Northeast Olvera Court"/></node>
<node id="-2" lat="45.497491387" lon="-122.396916153" visible="true"><tag k="addr:housenumber" v="98"/><tag k="addr:postcode" v="97030"/><tag k="addr:city" v="Gresham"/><tag k="addr:street" v="Northeast Olvera Court"/></node>
<node id="-3" lat="45.49694401" lon="-122.40207931" visible="true"><tag k="addr:housenumber" v="3014"/><tag k="addr:postcode" v="97080"/><tag k="addr:city" v="Gresham"/><tag k="addr:street" v="Southeast 1st Court"/></node>
<node id="-4" lat="45.496949093" lon="-122.402080953" visible="true"><tag k="addr:housenumber" v="3026"/><tag k="addr:postcode" v="97080"/><tag k="addr:city" v="Gresham"/><tag k="addr:street" v="Southeast 1st Court"/></node>
<node id="-5" lat="45.496922084" lon="-122.401829982" visible="true"><tag k="addr:housenumber" v="3034"/><tag k="addr:postcode" v="97080"/><tag k="addr:city" v="Gresham"/><tag k="addr:street" v="Southeast 1st Court"/></node>
<node id="-6" lat="45.496915804" lon="-122.40183077" visible="true"><tag k="addr:housenumber" v="3038"/><tag k="addr:postcode" v="97080"/><tag k="addr:city" v="Gresham"/><tag k="addr:street" v="Southeast 1st Court"/></node>
<node id="-7" lat="45.496923996" lon="-122.401597775" visible="true"><tag k="addr:housenumber" v="3050"/><tag k="addr:postcode" v="97080"/><tag k="addr:city" v="Gresham"/><tag k="addr:street" v="Southeast 1st Court"/></node>
<node id="-8" lat="45.496929701" lon="-122.401598418" visible="true"><tag k="addr:housenumber" v="3054"/><tag k="addr:postcode" v="97080"/><tag k="addr:city" v="Gresham"/><tag k="addr:street" v="Southeast 1st Court"/></node>
<node id="-9" lat="45.497457104" lon="-122.396621324" visible="true"><tag k="addr:housenumber" v="3561"/><tag k="addr:postcode" v="97080"/><tag k="addr:city" v="Gresham"/><tag k="addr:street" v="Southeast 1st Street"/></node>
<node id="-10" lat="45.497460471" lon="-122.396615115" visible="true"><tag k="addr:housenumber" v="3565"/><tag k="addr:postcode" v="97080"/><tag k="addr:city" v="Gresham"/><tag k="addr:street" v="Southeast 1st Street"/></node>
<node id="-11" lat="45.496632253" lon="-122.399133322" visible="true"><tag k="addr:housenumber" v="3243"/><tag k="addr:postcode" v="97080"/><tag k="addr:city" v="Gresham"/><tag k="addr:street" v="Southeast 2nd Street"/></node>
<node id="-12" lat="45.496626433" lon="-122.399139545" visible="true"><tag k="addr:housenumber" v="3245"/><tag k="addr:postcode" v="97080"/><tag k="addr:city" v="Gresham"/><tag k="addr:street" v="Southeast 2nd Street"/></node>
<node id="-13" lat="45.492033336" lon="-122.408565447" visible="true"><tag k="addr:housenumber" v="2320"/><tag k="addr:postcode" v="97080"/><tag k="addr:city" v="Gresham"/><tag k="addr:street" v="Southeast 7th Street"/></node>
<node id="-14" lat="45.492035056" lon="-122.408564141" visible="true"><tag k="addr:housenumber" v="2322"/><tag k="addr:postcode" v="97080"/><tag k="addr:city" v="Gresham"/><tag k="addr:street" v="Southeast 7th Street"/></node>
<node id="-15" lat="45.491884018" lon="-122.408314061" visible="true"><tag k="addr:housenumber" v="2340"/><tag k="addr:postcode" v="97080"/><tag k="addr:city" v="Gresham"/><tag k="addr:street" v="Southeast 7th Street"/></node>
<node id="-16" lat="45.491880422" lon="-122.408317892" visible="true"><tag k="addr:housenumber" v="2342"/><tag k="addr:postcode" v="97080"/><tag k="addr:city" v="Gresham"/><tag k="addr:street" v="Southeast 7th Street"/></node>
<node id="-17" lat="45.491685865" lon="-122.408173744" visible="true"><tag k="addr:housenumber" v="2360"/><tag k="addr:postcode" v="97080"/><tag k="addr:city" v="Gresham"/><tag k="addr:street" v="Southeast 7th Street"/></node>
<node id="-18" lat="45.491684775" lon="-122.408175962" visible="true"><tag k="addr:housenumber" v="2362"/><tag k="addr:postcode" v="97080"/><tag k="addr:city" v="Gresham"/><tag k="addr:street" v="Southeast 7th Street"/></node>
<node id="-19" lat="45.492056281" lon="-122.407831979" visible="true"><tag k="addr:housenumber" v="2405"/><tag k="addr:postcode" v="97080"/><tag k="addr:city" v="Gresham"/><tag k="addr:street" v="Southeast 7th Street"/></node>
<node id="-20" lat="45.492059874" lon="-122.407822627" visible="true"><tag k="addr:housenumber" v="2407"/><tag k="addr:postcode" v="97080"/><tag k="addr:city" v="Gresham"/><tag k="addr:street" v="Southeast 7th Street"/></node>
<node id="-21" lat="45.49190047" lon="-122.407631634" visible="true"><tag k="addr:housenumber" v="2411"/><tag k="addr:postcode" v="97080"/><tag k="addr:city" v="Gresham"/><tag k="addr:street" v="Southeast 7th Street"/></node>
<node id="-22" lat="45.491906607" lon="-122.407632802" visible="true"><tag k="addr:housenumber" v="2415"/><tag k="addr:postcode" v="97080"/><tag k="addr:city" v="Gresham"/><tag k="addr:street" v="Southeast 7th Street"/></node>
<node id="-23" lat="45.491696382" lon="-122.407540841" visible="true"><tag k="addr:housenumber" v="2417"/><tag k="addr:postcode" v="97080"/><tag k="addr:city" v="Gresham"/><tag k="addr:street" v="Southeast 7th Street"/></node>
<node id="-24" lat="45.491694169" lon="-122.407545181" visible="true"><tag k="addr:housenumber" v="2421"/><tag k="addr:postcode" v="97080"/><tag k="addr:city" v="Gresham"/><tag k="addr:street" v="Southeast 7th Street"/></node>
<node id="-25" lat="45.491530809" lon="-122.40733406" visible="true"><tag k="addr:housenumber" v="2425"/><tag k="addr:postcode" v="97080"/><tag k="addr:city" v="Gresham"/><tag k="addr:street" v="Southeast 7th Street"/></node>
<node id="-26" lat="45.491525962" lon="-122.40733298" visible="true"><tag k="addr:housenumber" v="2437"/><tag k="addr:postcode" v="97080"/><tag k="addr:city" v="Gresham"/><tag k="addr:street" v="Southeast 7th Street"/></node>
<node id="-27" lat="45.49105403" lon="-122.407484414" visible="true"><tag k="addr:housenumber" v="2440"/><tag k="addr:postcode" v="97080"/><tag k="addr:city" v="Gresham"/><tag k="addr:street" v="Southeast 7th Street"/></node>
<node id="-28" lat="45.491055666" lon="-122.407490617" visible="true"><tag k="addr:housenumber" v="2450"/><tag k="addr:postcode" v="97080"/><tag k="addr:city" v="Gresham"/><tag k="addr:street" v="Southeast 7th Street"/></node>
<node id="-29" lat="45.491400045" lon="-122.407098571" visible="true"><tag k="addr:housenumber" v="2471"/><tag k="addr:postcode" v="97080"/><tag k="addr:city" v="Gresham"/><tag k="addr:street" v="Southeast 7th Street"/></node>
<node id="-30" lat="45.491400769" lon="-122.40709349" visible="true"><tag k="addr:housenumber" v="2485"/><tag k="addr:postcode" v="97080"/><tag k="addr:city" v="Gresham"/><tag k="addr:street" v="Southeast 7th Street"/></node>
<node id="-31" lat="45.490949708" lon="-122.407163239" visible="true"><tag k="addr:housenumber" v="2490"/><tag k="addr:postcode" v="97080"/><tag k="addr:city" v="Gresham"/><tag k="addr:street" v="Southeast 7th Street"/></node>
<node id="-32" lat="45.49095213" lon="-122.407158585" visible="true"><tag k="addr:housenumber" v="2492"/><tag k="addr:postcode" v="97080"/><tag k="addr:city" v="Gresham"/><tag k="addr:street" v="Southeast 7th Street"/></node>
<node id="-33" lat="45.490829273" lon="-122.407540585" visible="true"><tag k="addr:housenumber" v="2430"/><tag k="addr:postcode" v="97080"/><tag k="addr:city" v="Gresham"/><tag k="addr:street" v="Southeast 8th Court"/></node>
<node id="-34" lat="45.490827886" lon="-122.407542923" visible="true"><tag k="addr:housenumber" v="2432"/><tag k="addr:postcode" v="97080"/><tag k="addr:city" v="Gresham"/><tag k="addr:street" v="Southeast 8th Court"/></node>
<node id="-35" lat="45.490353768" lon="-122.407272897" visible="true"><tag k="addr:housenumber" v="2440"/><tag k="addr:postcode" v="97080"/><tag k="addr:city" v="Gresham"/><tag k="addr:street" v="Southeast 8th Court"/></node>
<node id="-36" lat="45.49035973" lon="-122.407270943" visible="true"><tag k="addr:housenumber" v="2442"/><tag k="addr:postcode" v="97080"/><tag k="addr:city" v="Gresham"/><tag k="addr:street" v="Southeast 8th Court"/></node>
<node id="-37" lat="45.490648596" lon="-122.407244836" visible="true"><tag k="addr:housenumber" v="2445"/><tag k="addr:postcode" v="97080"/><tag k="addr:city" v="Gresham"/><tag k="addr:street" v="Southeast 8th Court"/></node>
<node id="-38" lat="45.490655204" lon="-122.407245492" visible="true"><tag k="addr:housenumber" v="2447"/><tag k="addr:postcode" v="97080"/><tag k="addr:city" v="Gresham"/><tag k="addr:street" v="Southeast 8th Court"/></node>
<node id="-39" lat="45.490680103" lon="-122.409631685" visible="true"><tag k="addr:housenumber" v="2219"/><tag k="addr:postcode" v="97080"/><tag k="addr:city" v="Gresham"/><tag k="addr:street" v="Southeast 9th Court"/></node>
<node id="-40" lat="45.490773853" lon="-122.409295493" visible="true"><tag k="addr:housenumber" v="2243"/><tag k="addr:postcode" v="97080"/><tag k="addr:city" v="Gresham"/><tag k="addr:street" v="Southeast 9th Court"/></node>
<node id="-41" lat="45.490764646" lon="-122.409296486" visible="true"><tag k="addr:housenumber" v="2247"/><tag k="addr:postcode" v="97080"/><tag k="addr:city" v="Gresham"/><tag k="addr:street" v="Southeast 9th Court"/></node>
<node id="-42" lat="45.490717943" lon="-122.408927301" visible="true"><tag k="addr:housenumber" v="2254"/><tag k="addr:postcode" v="97080"/><tag k="addr:city" v="Gresham"/><tag k="addr:street" v="Southeast 9th Court"/></node>
<node id="-43" lat="45.490715955" lon="-122.408932405" visible="true"><tag k="addr:housenumber" v="2258"/><tag k="addr:postcode" v="97080"/><tag k="addr:city" v="Gresham"/><tag k="addr:street" v="Southeast 9th Court"/></node>
<node id="-44" lat="45.490492321" lon="-122.408908389" visible="true"><tag k="addr:housenumber" v="2270"/><tag k="addr:postcode" v="97080"/><tag k="addr:city" v="Gresham"/><tag k="addr:street" v="Southeast 9th Court"/></node>
<node id="-45" lat="45.490492832" lon="-122.408907388" visible="true"><tag k="addr:housenumber" v="2272"/><tag k="addr:postcode" v="97080"/><tag k="addr:city" v="Gresham"/><tag k="addr:street" v="Southeast 9th Court"/></node>
<node id="-46" lat="45.491376849" lon="-122.406262261" visible="true"><tag k="addr:housenumber" v="804"/><tag k="addr:postcode" v="97080"/><tag k="addr:city" v="Gresham"/><tag k="addr:street" v="Southeast Cochran Drive"/></node>
<node id="-47" lat="45.491371157" lon="-122.406265278" visible="true"><tag k="addr:housenumber" v="814"/><tag k="addr:postcode" v="97080"/><tag k="addr:city" v="Gresham"/><tag k="addr:street" v="Southeast Cochran Drive"/></node>
<node id="-48" lat="45.491484625" lon="-122.408025912" visible="true"><tag k="addr:housenumber" v="801"/><tag k="addr:postcode" v="97080"/><tag k="addr:city" v="Gresham"/><tag k="addr:street" v="Southeast Fleming Avenue"/></node>
<node id="-49" lat="45.491491334" lon="-122.408028956" visible="true"><tag k="addr:housenumber" v="805"/><tag k="addr:postcode" v="97080"/><tag k="addr:city" v="Gresham"/><tag k="addr:street" v="Southeast Fleming Avenue"/></node>
<node id="-50" lat="45.491378514" lon="-122.408368129" visible="true"><tag k="addr:housenumber" v="809"/><tag k="addr:postcode" v="97080"/><tag k="addr:city" v="Gresham"/><tag k="addr:street" v="Southeast Fleming Avenue"/></node>
<node id="-51" lat="45.491369456" lon="-122.408370304" visible="true"><tag k="addr:housenumber" v="811"/><tag k="addr:postcode" v="97080"/><tag k="addr:city" v="Gresham"/><tag k="addr:street" v="Southeast Fleming Avenue"/></node>
<node id="-52" lat="45.491156833" lon="-122.408523006" visible="true"><tag k="addr:housenumber" v="815"/><tag k="addr:postcode" v="97080"/><tag k="addr:city" v="Gresham"/><tag k="addr:street" v="Southeast Fleming Avenue"/></node>
<node id="-53" lat="45.491183553" lon="-122.40776519" visible="true"><tag k="addr:housenumber" v="820"/><tag k="addr:postcode" v="97080"/><tag k="addr:city" v="Gresham"/><tag k="addr:street" v="Southeast Fleming Avenue"/></node>
<node id="-54" lat="45.49118772" lon="-122.407768606" visible="true"><tag k="addr:housenumber" v="822"/><tag k="addr:postcode" v="97080"/><tag k="addr:city" v="Gresham"/><tag k="addr:street" v="Southeast Fleming Avenue"/></node>
<node id="-55" lat="45.491161653" lon="-122.408525641" visible="true"><tag k="addr:housenumber" v="825"/><tag k="addr:postcode" v="97080"/><tag k="addr:city" v="Gresham"/><tag k="addr:street" v="Southeast Fleming Avenue"/></node>
<node id="-56" lat="45.490964654" lon="-122.407951803" visible="true"><tag k="addr:housenumber" v="830"/><tag k="addr:postcode" v="97080"/><tag k="addr:city" v="Gresham"/><tag k="addr:street" v="Southeast Fleming Avenue"/></node>
<node id="-57" lat="45.490968122" lon="-122.407953345" visible="true"><tag k="addr:housenumber" v="832"/><tag k="addr:postcode" v="97080"/><tag k="addr:city" v="Gresham"/><tag k="addr:street" v="Southeast Fleming Avenue"/></node>
<node id="-58" lat="45.490910487" lon="-122.408536891" visible="true"><tag k="addr:housenumber" v="835"/><tag k="addr:postcode" v="97080"/><tag k="addr:city" v="Gresham"/><tag k="addr:street" v="Southeast Fleming Avenue"/></node>
<node id="-59" lat="45.490907323" lon="-122.408539733" visible="true"><tag k="addr:housenumber" v="845"/><tag k="addr:postcode" v="97080"/><tag k="addr:city" v="Gresham"/><tag k="addr:street" v="Southeast Fleming Avenue"/></node>
<node id="-60" lat="45.490675084" lon="-122.40852786" visible="true"><tag k="addr:housenumber" v="855"/><tag k="addr:postcode" v="97080"/><tag k="addr:city" v="Gresham"/><tag k="addr:street" v="Southeast Fleming Avenue"/></node>
<node id="-61" lat="45.49073185" lon="-122.407942866" visible="true"><tag k="addr:housenumber" v="860"/><tag k="addr:postcode" v="97080"/><tag k="addr:city" v="Gresham"/><tag k="addr:street" v="Southeast Fleming Avenue"/></node>
<node id="-62" lat="45.490732926" lon="-122.407943702" visible="true"><tag k="addr:housenumber" v="862"/><tag k="addr:postcode" v="97080"/><tag k="addr:city" v="Gresham"/><tag k="addr:street" v="Southeast Fleming Avenue"/></node>
<node id="-63" lat="45.490684193" lon="-122.408530188" visible="true"><tag k="addr:housenumber" v="865"/><tag k="addr:postcode" v="97080"/><tag k="addr:city" v="Gresham"/><tag k="addr:street" v="Southeast Fleming Avenue"/></node>
<node id="-64" lat="45.49046349" lon="-122.408532601" visible="true"><tag k="addr:housenumber" v="875"/><tag k="addr:postcode" v="97080"/><tag k="addr:city" v="Gresham"/><tag k="addr:street" v="Southeast Fleming Avenue"/></node>
<node id="-65" lat="45.490455624" lon="-122.40853195" visible="true"><tag k="addr:housenumber" v="885"/><tag k="addr:postcode" v="97080"/><tag k="addr:city" v="Gresham"/><tag k="addr:street" v="Southeast Fleming Avenue"/></node>
<node id="-66" lat="45.491902956" lon="-122.410554074" visible="true"><tag k="addr:housenumber" v="750"/><tag k="addr:postcode" v="97080"/><tag k="addr:city" v="Gresham"/><tag k="addr:street" v="Southeast Francis Avenue"/></node>
<node id="-67" lat="45.491905998" lon="-122.410548621" visible="true"><tag k="addr:housenumber" v="760"/><tag k="addr:postcode" v="97080"/><tag k="addr:city" v="Gresham"/><tag k="addr:street" v="Southeast Francis Avenue"/></node>
<node id="-68" lat="45.49208038" lon="-122.400314976" visible="true"><tag k="addr:housenumber" v="614"/><tag k="addr:postcode" v="97080"/><tag k="addr:city" v="Gresham"/><tag k="addr:street" v="Southeast Hale Place"/></node>
<node id="-69" lat="45.491992406" lon="-122.400257402" visible="true"><tag k="addr:housenumber" v="616"/><tag k="addr:postcode" v="97080"/><tag k="addr:city" v="Gresham"/><tag k="addr:street" v="Southeast Hale Place"/></node>
<node id="-70" lat="45.496533333" lon="-122.39829557" visible="true"><tag k="addr:housenumber" v="204"/><tag k="addr:postcode" v="97080"/><tag k="addr:city" v="Gresham"/><tag k="addr:street" v="Southeast Kane Drive"/></node>
<node id="-71" lat="45.496528923" lon="-122.398295632" visible="true"><tag k="addr:housenumber" v="206"/><tag k="addr:postcode" v="97080"/><tag k="addr:city" v="Gresham"/><tag k="addr:street" v="Southeast Kane Drive"/></node>
<node id="-72" lat="45.496372452" lon="-122.398313362" visible="true"><tag k="addr:housenumber" v="212"/><tag k="addr:postcode" v="97080"/><tag k="addr:city" v="Gresham"/><tag k="addr:street" v="Southeast Kane Drive"/></node>
<node id="-73" lat="45.496370027" lon="-122.398304729" visible="true"><tag k="addr:housenumber" v="214"/><tag k="addr:postcode" v="97080"/><tag k="addr:city" v="Gresham"/><tag k="addr:street" v="Southeast Kane Drive"/></node>
<node id="-74" lat="45.496189694" lon="-122.398332665" visible="true"><tag k="addr:housenumber" v="220"/><tag k="addr:postcode" v="97080"/><tag k="addr:city" v="Gresham"/><tag k="addr:street" v="Southeast Kane Drive"/></node>
<node id="-75" lat="45.496183345" lon="-122.398332455" visible="true"><tag k="addr:housenumber" v="240"/><tag k="addr:postcode" v="97080"/><tag k="addr:city" v="Gresham"/><tag k="addr:street" v="Southeast Kane Drive"/></node>
<node id="-76" lat="45.495945104" lon="-122.398459215" visible="true"><tag k="addr:housenumber" v="260"/><tag k="addr:postcode" v="97080"/><tag k="addr:city" v="Gresham"/><tag k="addr:street" v="Southeast Kane Drive"/></node>
<node id="-77" lat="45.495948138" lon="-122.398462723" visible="true"><tag k="addr:housenumber" v="280"/><tag k="addr:postcode" v="97080"/><tag k="addr:city" v="Gresham"/><tag k="addr:street" v="Southeast Kane Drive"/></node>
<node id="-78" lat="45.495502498" lon="-122.398461663" visible="true"><tag k="addr:housenumber" v="310"/><tag k="addr:postcode" v="97080"/><tag k="addr:city" v="Gresham"/><tag k="addr:street" v="Southeast Kane Drive"/></node>
<node id="-79" lat="45.495500218" lon="-122.398463652" visible="true"><tag k="addr:housenumber" v="320"/><tag k="addr:postcode" v="97080"/><tag k="addr:city" v="Gresham"/><tag k="addr:street" v="Southeast Kane Drive"/></node>
<node id="-80" lat="45.491375307" lon="-122.399130023" visible="true"><tag k="addr:housenumber" v="689"/><tag k="addr:postcode" v="97080"/><tag k="addr:city" v="Gresham"/><tag k="addr:street" v="Southeast Kane Drive"/></node>
<node id="-81" lat="45.49139104" lon="-122.399130565" visible="true"><tag k="addr:housenumber" v="691"/><tag k="addr:postcode" v="97080"/><tag k="addr:city" v="Gresham"/><tag k="addr:street" v="Southeast Kane Drive"/></node>
<node id="-82" lat="45.491678776" lon="-122.40698264" visible="true"><tag k="addr:housenumber" v="755"/><tag k="addr:postcode" v="97080"/><tag k="addr:city" v="Gresham"/><tag k="addr:street" v="Southeast Lambert Circle"/></node>
<node id="-83" lat="45.491675299" lon="-122.406979583" visible="true"><tag k="addr:housenumber" v="757"/><tag k="addr:postcode" v="97080"/><tag k="addr:city" v="Gresham"/><tag k="addr:street" v="Southeast Lambert Circle"/></node>
<node id="-84" lat="45.491659678" lon="-122.406278069" visible="true"><tag k="addr:housenumber" v="760"/><tag k="addr:postcode" v="97080"/><tag k="addr:city" v="Gresham"/><tag k="addr:street" v="Southeast Lambert Circle"/></node>
<node id="-85" lat="45.491656809" lon="-122.406272266" visible="true"><tag k="addr:housenumber" v="762"/><tag k="addr:postcode" v="97080"/><tag k="addr:city" v="Gresham"/><tag k="addr:street" v="Southeast Lambert Circle"/></node>
<node id="-86" lat="45.491394697" lon="-122.406784878" visible="true"><tag k="addr:housenumber" v="791"/><tag k="addr:postcode" v="97080"/><tag k="addr:city" v="Gresham"/><tag k="addr:street" v="Southeast Lambert Circle"/></node>
<node id="-87" lat="45.491396629" lon="-122.406785072" visible="true"><tag k="addr:housenumber" v="795"/><tag k="addr:postcode" v="97080"/><tag k="addr:city" v="Gresham"/><tag k="addr:street" v="Southeast Lambert Circle"/></node>
<node id="-88" lat="45.49092269" lon="-122.406287749" visible="true"><tag k="addr:housenumber" v="830"/><tag k="addr:postcode" v="97080"/><tag k="addr:city" v="Gresham"/><tag k="addr:street" v="Southeast Lambert Circle"/></node>
<node id="-89" lat="45.490920356" lon="-122.40628738" visible="true"><tag k="addr:housenumber" v="832"/><tag k="addr:postcode" v="97080"/><tag k="addr:city" v="Gresham"/><tag k="addr:street" v="Southeast Lambert Circle"/></node>
<node id="-90" lat="45.490957299" lon="-122.406823025" visible="true"><tag k="addr:housenumber" v="835"/><tag k="addr:postcode" v="97080"/><tag k="addr:city" v="Gresham"/><tag k="addr:street" v="Southeast Lambert Circle"/></node>
<node id="-91" lat="45.490959302" lon="-122.406826406" visible="true"><tag k="addr:housenumber" v="837"/><tag k="addr:postcode" v="97080"/><tag k="addr:city" v="Gresham"/><tag k="addr:street" v="Southeast Lambert Circle"/></node>
<node id="-92" lat="45.490716133" lon="-122.406867148" visible="true"><tag k="addr:housenumber" v="855"/><tag k="addr:postcode" v="97080"/><tag k="addr:city" v="Gresham"/><tag k="addr:street" v="Southeast Lambert Circle"/></node>
<node id="-93" lat="45.490715386" lon="-122.406868202" visible="true"><tag k="addr:housenumber" v="857"/><tag k="addr:postcode" v="97080"/><tag k="addr:city" v="Gresham"/><tag k="addr:street" v="Southeast Lambert Circle"/></node>
<node id="-94" lat="45.490654179" lon="-122.406268743" visible="true"><tag k="addr:housenumber" v="860"/><tag k="addr:postcode" v="97080"/><tag k="addr:city" v="Gresham"/><tag k="addr:street" v="Southeast Lambert Circle"/></node>
<node id="-95" lat="45.490663379" lon="-122.406271859" visible="true"><tag k="addr:housenumber" v="862"/><tag k="addr:postcode" v="97080"/><tag k="addr:city" v="Gresham"/><tag k="addr:street" v="Southeast Lambert Circle"/></node>
<node id="-96" lat="45.490437429" lon="-122.406933375" visible="true"><tag k="addr:housenumber" v="875"/><tag k="addr:postcode" v="97080"/><tag k="addr:city" v="Gresham"/><tag k="addr:street" v="Southeast Lambert Circle"/></node>
<node id="-97" lat="45.490435128" lon="-122.406933926" visible="true"><tag k="addr:housenumber" v="877"/><tag k="addr:postcode" v="97080"/><tag k="addr:city" v="Gresham"/><tag k="addr:street" v="Southeast Lambert Circle"/></node>
<node id="-98" lat="45.490404118" lon="-122.406309265" visible="true"><tag k="addr:housenumber" v="890"/><tag k="addr:postcode" v="97080"/><tag k="addr:city" v="Gresham"/><tag k="addr:street" v="Southeast Lambert Circle"/></node>
<node id="-99" lat="45.49040106" lon="-122.406306453" visible="true"><tag k="addr:housenumber" v="892"/><tag k="addr:postcode" v="97080"/><tag k="addr:city" v="Gresham"/><tag k="addr:street" v="Southeast Lambert Circle"/></node>
<node id="-100" lat="45.496216386" lon="-122.399636211" visible="true"><tag k="addr:housenumber" v="220"/><tag k="addr:postcode" v="97080"/><tag k="addr:city" v="Gresham"/><tag k="addr:street" v="Southeast Paropa Court"/></node>
<node id="-101" lat="45.496215952" lon="-122.399644267" visible="true"><tag k="addr:housenumber" v="222"/><tag k="addr:postcode" v="97080"/><tag k="addr:city" v="Gresham"/><tag k="addr:street" v="Southeast Paropa Court"/></node>
<node id="-102" lat="45.491952525" lon="-122.399916445" visible="true"><tag k="addr:housenumber" v="605"/><tag k="addr:postcode" v="97080"/><tag k="addr:city" v="Gresham"/><tag k="addr:street" v="Southeast Paropa Place"/></node>
<node id="-103" lat="45.49186138" lon="-122.399647877" visible="true"><tag k="addr:housenumber" v="606"/><tag k="addr:postcode" v="97080"/><tag k="addr:city" v="Gresham"/><tag k="addr:street" v="Southeast Paropa Place"/></node>
<node id="-104" lat="45.491948677" lon="-122.399920236" visible="true"><tag k="addr:housenumber" v="609"/><tag k="addr:postcode" v="97080"/><tag k="addr:city" v="Gresham"/><tag k="addr:street" v="Southeast Paropa Place"/></node>
<node id="-105" lat="45.491855886" lon="-122.399643169" visible="true"><tag k="addr:housenumber" v="612"/><tag k="addr:postcode" v="97080"/><tag k="addr:city" v="Gresham"/><tag k="addr:street" v="Southeast Paropa Place"/></node>
<node id="-106" lat="45.491770189" lon="-122.399376484" visible="true"><tag k="addr:housenumber" v="620"/><tag k="addr:postcode" v="97080"/><tag k="addr:city" v="Gresham"/><tag k="addr:street" v="Southeast Paropa Place"/></node>
<node id="-107" lat="45.491768298" lon="-122.399380788" visible="true"><tag k="addr:housenumber" v="624"/><tag k="addr:postcode" v="97080"/><tag k="addr:city" v="Gresham"/><tag k="addr:street" v="Southeast Paropa Place"/></node>
<node id="-108" lat="45.491679732" lon="-122.399132045" visible="true"><tag k="addr:housenumber" v="630"/><tag k="addr:postcode" v="97080"/><tag k="addr:city" v="Gresham"/><tag k="addr:street" v="Southeast Paropa Place"/></node>
<node id="-109" lat="45.491678052" lon="-122.399129081" visible="true"><tag k="addr:housenumber" v="634"/><tag k="addr:postcode" v="97080"/><tag k="addr:city" v="Gresham"/><tag k="addr:street" v="Southeast Paropa Place"/></node>
<node id="-110" lat="45.490361555" lon="-122.394465591" visible="true"><tag k="addr:housenumber" v="3844"/><tag k="addr:postcode" v="97080"/><tag k="addr:city" v="Gresham"/><tag k="addr:street" v="Southeast Powell Valley Road"/></node>
<node id="-111" lat="45.490361663" lon="-122.394464843" visible="true"><tag k="addr:housenumber" v="3846"/><tag k="addr:postcode" v="97080"/><tag k="addr:city" v="Gresham"/><tag k="addr:street" v="Southeast Powell Valley Road"/></node>
<node id="-112" lat="45.492920522" lon="-122.410135997" visible="true"><tag k="addr:housenumber" v="619"/><tag k="addr:postcode" v="97080"/><tag k="addr:city" v="Gresham"/><tag k="addr:street" v="Southeast Rene Avenue"/></node>
<node id="-113" lat="45.492919837" lon="-122.410127448" visible="true"><tag k="addr:housenumber" v="637"/><tag k="addr:postcode" v="97080"/><tag k="addr:city" v="Gresham"/><tag k="addr:street" v="Southeast Rene Avenue"/></node>
<node id="-114" lat="45.492723905" lon="-122.410183551" visible="true"><tag k="addr:housenumber" v="655"/><tag k="addr:postcode" v="97080"/><tag k="addr:city" v="Gresham"/><tag k="addr:street" v="Southeast Rene Avenue"/></node>
<node id="-115" lat="45.492723303" lon="-122.410182868" visible="true"><tag k="addr:housenumber" v="665"/><tag k="addr:postcode" v="97080"/><tag k="addr:city" v="Gresham"/><tag k="addr:street" v="Southeast Rene Avenue"/></node>
<node id="-116" lat="45.492444402" lon="-122.4101805" visible="true"><tag k="addr:housenumber" v="687"/><tag k="addr:postcode" v="97080"/><tag k="addr:city" v="Gresham"/><tag k="addr:street" v="Southeast Rene Avenue"/></node>
<node id="-117" lat="45.492449017" lon="-122.410181995" visible="true"><tag k="addr:housenumber" v="697"/><tag k="addr:postcode" v="97080"/><tag k="addr:city" v="Gresham"/><tag k="addr:street" v="Southeast Rene Avenue"/></node>
<node id="-118" lat="45.491625525" lon="-122.410180282" visible="true"><tag k="addr:housenumber" v="791"/><tag k="addr:postcode" v="97080"/><tag k="addr:city" v="Gresham"/><tag k="addr:street" v="Southeast Rene Avenue"/></node>
<node id="-119" lat="45.491621538" lon="-122.410176208" visible="true"><tag k="addr:housenumber" v="795"/><tag k="addr:postcode" v="97080"/><tag k="addr:city" v="Gresham"/><tag k="addr:street" v="Southeast Rene Avenue"/></node>
<node id="-120" lat="45.491350257" lon="-122.410168681" visible="true"><tag k="addr:housenumber" v="805"/><tag k="addr:postcode" v="97080"/><tag k="addr:city" v="Gresham"/><tag k="addr:street" v="Southeast Rene Avenue"/></node>
<node id="-121" lat="45.491349632" lon="-122.410171963" visible="true"><tag k="addr:housenumber" v="815"/><tag k="addr:postcode" v="97080"/><tag k="addr:city" v="Gresham"/><tag k="addr:street" v="Southeast Rene Avenue"/></node>
<node id="-122" lat="45.491076086" lon="-122.41017538" visible="true"><tag k="addr:housenumber" v="825"/><tag k="addr:postcode" v="97080"/><tag k="addr:city" v="Gresham"/><tag k="addr:street" v="Southeast Rene Avenue"/></node>
<node id="-123" lat="45.49107421" lon="-122.410168529" visible="true"><tag k="addr:housenumber" v="835"/><tag k="addr:postcode" v="97080"/><tag k="addr:city" v="Gresham"/><tag k="addr:street" v="Southeast Rene Avenue"/></node>
<node id="-124" lat="45.490802086" lon="-122.410163251" visible="true"><tag k="addr:housenumber" v="855"/><tag k="addr:postcode" v="97080"/><tag k="addr:city" v="Gresham"/><tag k="addr:street" v="Southeast Rene Avenue"/></node>
<node id="-125" lat="45.490804026" lon="-122.410163608" visible="true"><tag k="addr:housenumber" v="865"/><tag k="addr:postcode" v="97080"/><tag k="addr:city" v="Gresham"/><tag k="addr:street" v="Southeast Rene Avenue"/></node>
<node id="-126" lat="45.490678216" lon="-122.409631984" visible="true"><tag k="addr:housenumber" v="872"/><tag k="addr:postcode" v="97080"/><tag k="addr:city" v="Gresham"/><tag k="addr:street" v="Southeast Rene Avenue"/></node>
<node id="-127" lat="45.490566369" lon="-122.410162942" visible="true"><tag k="addr:housenumber" v="875"/><tag k="addr:postcode" v="97080"/><tag k="addr:city" v="Gresham"/><tag k="addr:street" v="Southeast Rene Avenue"/></node>
<node id="-128" lat="45.490561783" lon="-122.410166621" visible="true"><tag k="addr:housenumber" v="885"/><tag k="addr:postcode" v="97080"/><tag k="addr:city" v="Gresham"/><tag k="addr:street" v="Southeast Rene Avenue"/></node>
</osm>