<?xml version="1.0"?>
<osm version="0.6" upload="false" generator="uvmogr2osm">
<node id="-1" lat="45.496815645" lon="-122.495395377" visible="true"><tag k="addr:housenumber" v="3607"/><tag k="addr:postcode" v="97236"/><tag k="addr:city" v="Portland"/><tag k="addr:street" v="Southeast 164th Avenue"/></node>
<node id="-2" lat="45.494989227" lon="-122.495322022" visible="true"><tag k="addr:housenumber" v="3809"/><tag k="addr:postcode" v="97236"/><tag k="addr:city" v="Portland"/><tag k="addr:street" v="Southeast 164th Avenue"/></node>
<node id="-3" lat="45.494990355" lon="-122.495321644" visible="true"><tag k="addr:housenumber" v="3811"/><tag k="addr:postcode" v="97236"/><tag k="addr:city" v="Portland"/><tag k="addr:street" v="Southeast 164th Avenue"/></node>
<node id="-4" lat="45.49530795" lon="-122.493638266" visible="true"><tag k="addr:housenumber" v="3720"/><tag k="addr:postcode" v="97236"/><tag k="addr:city" v="Portland"/><tag k="addr:street" v="Southeast 165th Avenue"/></node>
<node id="-5" lat="45.495305454" lon="-122.49363206" visible="true"><tag k="addr:housenumber" v="3726"/><tag k="addr:postcode" v="97236"/><tag k="addr:city" v="Portland"/><tag k="addr:street" v="Southeast 165th Avenue"/></node>
<node id="-6" lat="45.495306153" lon="-122.493632391" visible="true"><tag k="addr:housenumber" v="3730"/><tag k="addr:postcode" v="97236"/><tag k="addr:city" v="Portland"/><tag k="addr:street" v="Southeast 165th Avenue"/></node>
<node id="-7" lat="45.495311596" lon="-122.493637202" visible="true"><tag k="addr:housenumber" v="3736"/><tag k="addr:postcode" v="97236"/><tag k="addr:city" v="Portland"/><tag k="addr:street" v="Southeast 165th Avenue"/></node>
<node id="-8" lat="45.493124863" lon="-122.487464504" visible="true"><tag k="addr:housenumber" v="4024"/><tag k="addr:postcode" v="97236"/><tag k="addr:city" v="Portland"/><tag k="addr:street" v="Southeast 170th Avenue"/></node>
<node id="-9" lat="45.493125823" lon="-122.487463182" visible="true"><tag k="addr:housenumber" v="4026"/><tag k="addr:postcode" v="97236"/><tag k="addr:city" v="Portland"/><tag k="addr:street" v="Southeast 170th Avenue"/></node>
<node id="-10" lat="45.490234109" lon="-122.48410161" visible="true"><tag k="addr:housenumber" v="4436"/><tag k="addr:postcode" v="97236"/><tag k="addr:city" v="Portland"/><tag k="addr:street" v="Southeast 174th Avenue"/></node>
<node id="-11" lat="45.490231328" lon="-122.484104298" visible="true"><tag k="addr:housenumber" v="4440"/><tag k="addr:postcode" v="97236"/><tag k="addr:city" v="Portland"/><tag k="addr:street" v="Southeast 174th Avenue"/></node>
<node id="-12" lat="45.49108651" lon="-122.476795152" visible="true"><tag k="addr:housenumber" v="4273"/><tag k="addr:postcode" v="97030"/><tag k="addr:city" v="Gresham"/><tag k="addr:street" v="Southeast 182nd Avenue"/></node>
<node id="-13" lat="45.49108208" lon="-122.476789284" visible="true"><tag k="addr:housenumber" v="4277"/><tag k="addr:postcode" v="97030"/><tag k="addr:city" v="Gresham"/><tag k="addr:street" v="Southeast 182nd Avenue"/></node>
<node id="-14" lat="45.491085772" lon="-122.476790834" visible="true"><tag k="addr:housenumber" v="4279"/><tag k="addr:postcode" v="97030"/><tag k="addr:city" v="Gresham"/><tag k="addr:street" v="Southeast 182nd Avenue"/></node>
<node id="-15" lat="45.491089226" lon="-122.476792943" visible="true"><tag k="addr:housenumber" v="4291"/><tag k="addr:postcode" v="97030"/><tag k="addr:city" v="Gresham"/><tag k="addr:street" v="Southeast 182nd Avenue"/></node>
<node id="-16" lat="45.491085797" lon="-122.476788426" visible="true"><tag k="addr:housenumber" v="4295"/><tag k="addr:postcode" v="97030"/><tag k="addr:city" v="Gresham"/><tag k="addr:street" v="Southeast 182nd Avenue"/></node>
<node id="-17" lat="45.494732533" lon="-122.493807602" visible="true"><tag k="addr:housenumber" v="16504"/><tag k="addr:postcode" v="97236"/><tag k="addr:city" v="Portland"/><tag k="addr:street" v="Southeast Bush Street"/></node>
<node id="-18" lat="45.494733004" lon="-122.493808671" visible="true"><tag k="addr:housenumber" v="16508"/><tag k="addr:postcode" v="97236"/><tag k="addr:city" v="Portland"/><tag k="addr:street" v="Southeast Bush Street"/></node>
<node id="-19" lat="45.494735724" lon="-122.493812342" visible="true"><tag k="addr:housenumber" v="16512"/><tag k="addr:postcode" v="97236"/><tag k="addr:city" v="Portland"/><tag k="addr:street" v="Southeast Bush Street"/></node>
<node id="-20" lat="45.49473893" lon="-122.493809211" visible="true"><tag k="addr:housenumber" v="16516"/><tag k="addr:postcode" v="97236"/><tag k="addr:city" v="Portland"/><tag k="addr:street" v="Southeast Bush Street"/></node>
<node id="-21" lat="45.49473586" lon="-122.493389342" visible="true"><tag k="addr:housenumber" v="16520"/><tag k="addr:postcode" v="97236"/><tag k="addr:city" v="Portland"/><tag k="addr:street" v="Southeast Bush Street"/></node>
<node id="-22" lat="45.494737905" lon="-122.493392218" visible="true"><tag k="addr:housenumber" v="16524"/><tag k="addr:postcode" v="97236"/><tag k="addr:city" v="Portland"/><tag k="addr:street" v="Southeast Bush Street"/></node>
<node id="-23" lat="45.494732713" lon="-122.493387524" visible="true"><tag k="addr:housenumber" v="16528"/><tag k="addr:postcode" v="97236"/><tag k="addr:city" v="Portland"/><tag k="addr:street" v="Southeast Bush Street"/></node>
<node id="-24" lat="45.494732598" lon="-122.493392881" visible="true"><tag k="addr:housenumber" v="16532"/><tag k="addr:postcode" v="97236"/><tag k="addr:city" v="Portland"/><tag k="addr:street" v="Southeast Bush Street"/></node>
<node id="-25" lat="45.494569694" lon="-122.494209058" visible="true"><tag k="addr:housenumber" v="16437"/><tag k="addr:postcode" v="97236"/><tag k="addr:city" v="Portland"/><tag k="addr:street" v="Southeast Powell Boulevard"/></node>
<node id="-26" lat="45.494577842" lon="-122.494210208" visible="true"><tag k="addr:housenumber" v="16441"/><tag k="addr:postcode" v="97236"/><tag k="addr:city" v="Portland"/><tag k="addr:street" v="Southeast Powell Boulevard"/></node>
<node id="-27" lat="45.496818423" lon="-122.495397537" visible="true"><tag k="addr:housenumber" v="16315"/><tag k="addr:postcode" v="97236"/><tag k="addr:city" v="Portland"/><tag k="addr:street" v="Southeast Rhone Street"/></node>
</osm>