<?xml version="1.0"?>
<osm version="0.6" upload="false" generator="uvmogr2osm">
<node id="-1" lat="45.484794153" lon="-122.392681144" visible="true"><tag k="addr:housenumber" v="1620"/><tag k="addr:postcode" v="97080"/><tag k="addr:city" v="Gresham"/><tag k="addr:street" v="Southeast Barn Owl Lane"/></node>
<node id="-2" lat="45.484800904" lon="-122.39267707" visible="true"><tag k="addr:housenumber" v="1632"/><tag k="addr:postcode" v="97080"/><tag k="addr:city" v="Gresham"/><tag k="addr:street" v="Southeast Barn Owl Lane"/></node>
<node id="-3" lat="45.490164002" lon="-122.390924151" visible="true"><tag k="addr:housenumber" v="4038"/><tag k="addr:postcode" v="97080"/><tag k="addr:city" v="Gresham"/><tag k="addr:street" v="Southeast Powell Valley Road"/></node>
<node id="-4" lat="45.490165833" lon="-122.39093053" visible="true"><tag k="addr:housenumber" v="4048"/><tag k="addr:postcode" v="97080"/><tag k="addr:city" v="Gresham"/><tag k="addr:street" v="Southeast Powell Valley Road"/></node>
</osm>