<?xml version="1.0"?>
<osm version="0.6" upload="false" generator="uvmogr2osm">
<node id="-1" lat="45.503189039" lon="-122.392678782" visible="true"><tag k="addr:housenumber" v="3970"/><tag k="addr:postcode" v="97030"/><tag k="addr:city" v="Gresham"/><tag k="addr:street" v="Northeast 8th Street"/></node>
<node id="-2" lat="45.503188139" lon="-122.392681826" visible="true"><tag k="addr:housenumber" v="3980"/><tag k="addr:postcode" v="97030"/><tag k="addr:city" v="Gresham"/><tag k="addr:street" v="Northeast 8th Street"/></node>
<node id="-3" lat="45.503161881" lon="-122.391796322" visible="true"><tag k="addr:housenumber" v="4050"/><tag k="addr:postcode" v="97030"/><tag k="addr:city" v="Gresham"/><tag k="addr:street" v="Northeast 8th Street"/></node>
<node id="-4" lat="45.503168484" lon="-122.391802606" visible="true"><tag k="addr:housenumber" v="4060"/><tag k="addr:postcode" v="97030"/><tag k="addr:city" v="Gresham"/><tag k="addr:street" v="Northeast 8th Street"/></node>
<node id="-5" lat="45.503168678" lon="-122.391473441" visible="true"><tag k="addr:housenumber" v="4120"/><tag k="addr:postcode" v="97030"/><tag k="addr:city" v="Gresham"/><tag k="addr:street" v="Northeast 8th Street"/></node>
<node id="-6" lat="45.503166206" lon="-122.39147102" visible="true"><tag k="addr:housenumber" v="4140"/><tag k="addr:postcode" v="97030"/><tag k="addr:city" v="Gresham"/><tag k="addr:street" v="Northeast 8th Street"/></node>
<node id="-7" lat="45.503679602" lon="-122.391205805" visible="true"><tag k="addr:housenumber" v="4151"/><tag k="addr:postcode" v="97030"/><tag k="addr:city" v="Gresham"/><tag k="addr:street" v="Northeast 8th Street"/></node>
<node id="-8" lat="45.50368149" lon="-122.39120042" visible="true"><tag k="addr:housenumber" v="4155"/><tag k="addr:postcode" v="97030"/><tag k="addr:city" v="Gresham"/><tag k="addr:street" v="Northeast 8th Street"/></node>
<node id="-9" lat="45.503177309" lon="-122.390930182" visible="true"><tag k="addr:housenumber" v="4174"/><tag k="addr:postcode" v="97030"/><tag k="addr:city" v="Gresham"/><tag k="addr:street" v="Northeast 8th Street"/></node>
<node id="-10" lat="45.503183701" lon="-122.390929496" visible="true"><tag k="addr:housenumber" v="4184"/><tag k="addr:postcode" v="97030"/><tag k="addr:city" v="Gresham"/><tag k="addr:street" v="Northeast 8th Street"/></node>
<node id="-11" lat="45.503185183" lon="-122.390575941" visible="true"><tag k="addr:housenumber" v="4224"/><tag k="addr:postcode" v="97030"/><tag k="addr:city" v="Gresham"/><tag k="addr:street" v="Northeast 8th Street"/></node>
<node id="-12" lat="45.503179647" lon="-122.390583486" visible="true"><tag k="addr:housenumber" v="4228"/><tag k="addr:postcode" v="97030"/><tag k="addr:city" v="Gresham"/><tag k="addr:street" v="Northeast 8th Street"/></node>
<node id="-13" lat="45.503195301" lon="-122.390234385" visible="true"><tag k="addr:housenumber" v="4256"/><tag k="addr:postcode" v="97030"/><tag k="addr:city" v="Gresham"/><tag k="addr:street" v="Northeast 8th Street"/></node>
<node id="-14" lat="45.503196113" lon="-122.390238159" visible="true"><tag k="addr:housenumber" v="4258"/><tag k="addr:postcode" v="97030"/><tag k="addr:city" v="Gresham"/><tag k="addr:street" v="Northeast 8th Street"/></node>
<node id="-15" lat="45.503157522" lon="-122.393053494" visible="true"><tag k="addr:housenumber" v="760"/><tag k="addr:postcode" v="97030"/><tag k="addr:city" v="Gresham"/><tag k="addr:street" v="Northeast Centurion Court"/></node>
<node id="-16" lat="45.50315949" lon="-122.393051619" visible="true"><tag k="addr:housenumber" v="762"/><tag k="addr:postcode" v="97030"/><tag k="addr:city" v="Gresham"/><tag k="addr:street" v="Northeast Centurion Court"/></node>
<node id="-17" lat="45.503737774" lon="-122.390773606" visible="true"><tag k="addr:housenumber" v="4098"/><tag k="addr:postcode" v="97030"/><tag k="addr:city" v="Gresham"/><tag k="addr:street" v="Northeast Division Street"/></node>
<node id="-18" lat="45.503741825" lon="-122.390775694" visible="true"><tag k="addr:housenumber" v="4100"/><tag k="addr:postcode" v="97030"/><tag k="addr:city" v="Gresham"/><tag k="addr:street" v="Northeast Division Street"/></node>
<node id="-19" lat="45.503742322" lon="-122.390772077" visible="true"><tag k="addr:housenumber" v="4102"/><tag k="addr:postcode" v="97030"/><tag k="addr:city" v="Gresham"/><tag k="addr:street" v="Northeast Division Street"/></node>
<node id="-20" lat="45.503742178" lon="-122.390773753" visible="true"><tag k="addr:housenumber" v="4104"/><tag k="addr:postcode" v="97030"/><tag k="addr:city" v="Gresham"/><tag k="addr:street" v="Northeast Division Street"/></node>
<node id="-21" lat="45.503742937" lon="-122.390773318" visible="true"><tag k="addr:housenumber" v="4106"/><tag k="addr:postcode" v="97030"/><tag k="addr:city" v="Gresham"/><tag k="addr:street" v="Northeast Division Street"/></node>
<node id="-22" lat="45.50306282" lon="-122.389855762" visible="true"><tag k="addr:housenumber" v="4280"/><tag k="addr:postcode" v="97030"/><tag k="addr:city" v="Gresham"/><tag k="addr:street" v="Northeast Division Street"/></node>
<node id="-23" lat="45.503058257" lon="-122.389851068" visible="true"><tag k="addr:housenumber" v="4290"/><tag k="addr:postcode" v="97030"/><tag k="addr:city" v="Gresham"/><tag k="addr:street" v="Northeast Division Street"/></node>
<node id="-24" lat="45.490539855" lon="-122.392336629" visible="true"><tag k="addr:housenumber" v="3977"/><tag k="addr:postcode" v="97080"/><tag k="addr:city" v="Gresham"/><tag k="addr:street" v="Southeast Powell Valley Road"/></node>
<node id="-25" lat="45.490536261" lon="-122.392330967" visible="true"><tag k="addr:housenumber" v="3987"/><tag k="addr:postcode" v="97080"/><tag k="addr:city" v="Gresham"/><tag k="addr:street" v="Southeast Powell Valley Road"/></node>
</osm>