<?xml version="1.0"?>
<osm version="0.6" upload="false" generator="uvmogr2osm">
<node id="-1" lat="45.519892675" lon="-123.053927777" visible="true"><tag k="addr:housenumber" v="1433"/><tag k="addr:postcode" v="97113"/><tag k="addr:city" v="Cornelius"/><tag k="addr:street" v="Baseline Street"/></node>
<node id="-2" lat="45.519897487" lon="-123.053936711" visible="true"><tag k="addr:housenumber" v="1459"/><tag k="addr:postcode" v="97113"/><tag k="addr:city" v="Cornelius"/><tag k="addr:street" v="Baseline Street"/></node>
<node id="-3" lat="45.518629932" lon="-123.059770958" visible="true"><tag k="addr:housenumber" v="177"/><tag k="addr:postcode" v="97113"/><tag k="addr:city" v="Cornelius"/><tag k="addr:street" v="South 10th Avenue"/></node>
<node id="-4" lat="45.518629732" lon="-123.059776627" visible="true"><tag k="addr:housenumber" v="185"/><tag k="addr:postcode" v="97113"/><tag k="addr:city" v="Cornelius"/><tag k="addr:street" v="South 10th Avenue"/></node>
<node id="-5" lat="45.515113107" lon="-123.058998534" visible="true"><tag k="addr:housenumber" v="629"/><tag k="addr:postcode" v="97113"/><tag k="addr:city" v="Cornelius"/><tag k="addr:street" v="South 10th Terrace"/></node>
<node id="-6" lat="45.518620847" lon="-123.056698141" visible="true"><tag k="addr:housenumber" v="168"/><tag k="addr:postcode" v="97113"/><tag k="addr:city" v="Cornelius"/><tag k="addr:street" v="South 12th Avenue"/></node>
<node id="-7" lat="45.513851525" lon="-123.057464711" visible="true"><tag k="addr:housenumber" v="733"/><tag k="addr:postcode" v="97113"/><tag k="addr:city" v="Cornelius"/><tag k="addr:street" v="South 12th Avenue"/></node>
<node id="-8" lat="45.513856985" lon="-123.057467748" visible="true"><tag k="addr:housenumber" v="739"/><tag k="addr:postcode" v="97113"/><tag k="addr:city" v="Cornelius"/><tag k="addr:street" v="South 12th Avenue"/></node>
<node id="-9" lat="45.517776932" lon="-123.054886034" visible="true"><tag k="addr:housenumber" v="265"/><tag k="addr:postcode" v="97113"/><tag k="addr:city" v="Cornelius"/><tag k="addr:street" v="South 14th Avenue"/></node>
<node id="-10" lat="45.51653563" lon="-123.061586755" visible="true"><tag k="addr:housenumber" v="416"/><tag k="addr:postcode" v="97113"/><tag k="addr:city" v="Cornelius"/><tag k="addr:street" v="South 8th Avenue"/></node>
<node id="-11" lat="45.516527504" lon="-123.06158278" visible="true"><tag k="addr:housenumber" v="420"/><tag k="addr:postcode" v="97113"/><tag k="addr:city" v="Cornelius"/><tag k="addr:street" v="South 8th Avenue"/></node>
<node id="-12" lat="45.517779211" lon="-123.06046015" visible="true"><tag k="addr:housenumber" v="268"/><tag k="addr:postcode" v="97113"/><tag k="addr:city" v="Cornelius"/><tag k="addr:street" v="South 9th Avenue"/></node>
<node id="-13" lat="45.517779811" lon="-123.060463842" visible="true"><tag k="addr:housenumber" v="280"/><tag k="addr:postcode" v="97113"/><tag k="addr:city" v="Cornelius"/><tag k="addr:street" v="South 9th Avenue"/></node>
<node id="-14" lat="45.518982387" lon="-123.055570906" visible="true"><tag k="addr:housenumber" v="1313"/><tag k="addr:postcode" v="97113"/><tag k="addr:city" v="Cornelius"/><tag k="addr:street" v="South Alpine Street"/></node>
<node id="-15" lat="45.51898545" lon="-123.055572057" visible="true"><tag k="addr:housenumber" v="1317"/><tag k="addr:postcode" v="97113"/><tag k="addr:city" v="Cornelius"/><tag k="addr:street" v="South Alpine Street"/></node>
<node id="-16" lat="45.519440987" lon="-123.0625826" visible="true"><tag k="addr:housenumber" v="742"/><tag k="addr:postcode" v="97113"/><tag k="addr:city" v="Cornelius"/><tag k="addr:street" v="South Alpine Street"/></node>
<node id="-17" lat="45.519443286" lon="-123.062579886" visible="true"><tag k="addr:housenumber" v="752"/><tag k="addr:postcode" v="97113"/><tag k="addr:city" v="Cornelius"/><tag k="addr:street" v="South Alpine Street"/></node>
<node id="-18" lat="45.518617671" lon="-123.056702123" visible="true"><tag k="addr:housenumber" v="1212"/><tag k="addr:postcode" v="97113"/><tag k="addr:city" v="Cornelius"/><tag k="addr:street" v="South Beech Street"/></node>
<node id="-19" lat="45.518612655" lon="-123.056699223" visible="true"><tag k="addr:housenumber" v="1228"/><tag k="addr:postcode" v="97113"/><tag k="addr:city" v="Cornelius"/><tag k="addr:street" v="South Beech Street"/></node>
<node id="-20" lat="45.518190824" lon="-123.05534997" visible="true"><tag k="addr:housenumber" v="1329"/><tag k="addr:postcode" v="97113"/><tag k="addr:city" v="Cornelius"/><tag k="addr:street" v="South Beech Street"/></node>
<node id="-21" lat="45.518187504" lon="-123.055359491" visible="true"><tag k="addr:housenumber" v="1341"/><tag k="addr:postcode" v="97113"/><tag k="addr:city" v="Cornelius"/><tag k="addr:street" v="South Beech Street"/></node>
<node id="-22" lat="45.517771812" lon="-123.054883552" visible="true"><tag k="addr:housenumber" v="1368"/><tag k="addr:postcode" v="97113"/><tag k="addr:city" v="Cornelius"/><tag k="addr:street" v="South Cherry Street"/></node>
<node id="-23" lat="45.51777683" lon="-123.060169207" visible="true"><tag k="addr:housenumber" v="948"/><tag k="addr:postcode" v="97113"/><tag k="addr:city" v="Cornelius"/><tag k="addr:street" v="South Cherry Street"/></node>
<node id="-24" lat="45.517777424" lon="-123.06017035" visible="true"><tag k="addr:housenumber" v="956"/><tag k="addr:postcode" v="97113"/><tag k="addr:city" v="Cornelius"/><tag k="addr:street" v="South Cherry Street"/></node>
<node id="-25" lat="45.515113757" lon="-123.058997835" visible="true"><tag k="addr:housenumber" v="1057"/><tag k="addr:postcode" v="97113"/><tag k="addr:city" v="Cornelius"/><tag k="addr:street" v="South Fawn Street"/></node>
<node id="-26" lat="45.513248021" lon="-123.058157686" visible="true"><tag k="addr:housenumber" v="1125"/><tag k="addr:postcode" v="97113"/><tag k="addr:city" v="Cornelius"/><tag k="addr:street" v="South Ivy Street"/></node>
<node id="-27" lat="45.513243694" lon="-123.05815737" visible="true"><tag k="addr:housenumber" v="1127"/><tag k="addr:postcode" v="97113"/><tag k="addr:city" v="Cornelius"/><tag k="addr:street" v="South Ivy Street"/></node>
<node id="-28" lat="45.512920308" lon="-123.059583568" visible="true"><tag k="addr:housenumber" v="1020"/><tag k="addr:postcode" v="97113"/><tag k="addr:city" v="Cornelius"/><tag k="addr:street" v="South Jasper Street"/></node>
<node id="-29" lat="45.51291643" lon="-123.05958161" visible="true"><tag k="addr:housenumber" v="1040"/><tag k="addr:postcode" v="97113"/><tag k="addr:city" v="Cornelius"/><tag k="addr:street" v="South Jasper Street"/></node>
<node id="-30" lat="45.512917061" lon="-123.059329939" visible="true"><tag k="addr:housenumber" v="1054"/><tag k="addr:postcode" v="97113"/><tag k="addr:city" v="Cornelius"/><tag k="addr:street" v="South Jasper Street"/></node>
<node id="-31" lat="45.512915568" lon="-123.059323754" visible="true"><tag k="addr:housenumber" v="1060"/><tag k="addr:postcode" v="97113"/><tag k="addr:city" v="Cornelius"/><tag k="addr:street" v="South Jasper Street"/></node>
<node id="-32" lat="45.512919526" lon="-123.058749661" visible="true"><tag k="addr:housenumber" v="1090"/><tag k="addr:postcode" v="97113"/><tag k="addr:city" v="Cornelius"/><tag k="addr:street" v="South Jasper Street"/></node>
<node id="-33" lat="45.512917929" lon="-123.058749477" visible="true"><tag k="addr:housenumber" v="1096"/><tag k="addr:postcode" v="97113"/><tag k="addr:city" v="Cornelius"/><tag k="addr:street" v="South Jasper Street"/></node>
<node id="-34" lat="45.512924943" lon="-123.058456543" visible="true"><tag k="addr:housenumber" v="1100"/><tag k="addr:postcode" v="97113"/><tag k="addr:city" v="Cornelius"/><tag k="addr:street" v="South Jasper Street"/></node>
<node id="-35" lat="45.512930447" lon="-123.058462293" visible="true"><tag k="addr:housenumber" v="1112"/><tag k="addr:postcode" v="97113"/><tag k="addr:city" v="Cornelius"/><tag k="addr:street" v="South Jasper Street"/></node>
</osm>