<?xml version="1.0"?>
<osm version="0.6" upload="false" generator="uvmogr2osm">
<node id="-1" lat="45.515605672" lon="-123.114648871" visible="true"><tag k="addr:housenumber" v="1826"/><tag k="addr:postcode" v="97116"/><tag k="addr:city" v="Forest Grove"/><tag k="addr:street" v="17th Avenue"/></node>
<node id="-2" lat="45.515601278" lon="-123.114655156" visible="true"><tag k="addr:housenumber" v="1828"/><tag k="addr:postcode" v="97116"/><tag k="addr:city" v="Forest Grove"/><tag k="addr:street" v="17th Avenue"/></node>
<node id="-3" lat="45.5152564" lon="-123.113290838" visible="true"><tag k="addr:housenumber" v="1912"/><tag k="addr:postcode" v="97116"/><tag k="addr:city" v="Forest Grove"/><tag k="addr:street" v="17th Avenue"/></node>
<node id="-4" lat="45.515252039" lon="-123.113290375" visible="true"><tag k="addr:housenumber" v="1914"/><tag k="addr:postcode" v="97116"/><tag k="addr:city" v="Forest Grove"/><tag k="addr:street" v="17th Avenue"/></node>
<node id="-5" lat="45.520830822" lon="-123.11323272" visible="true"><tag k="addr:housenumber" v="1914"/><tag k="addr:postcode" v="97116"/><tag k="addr:city" v="Forest Grove"/><tag k="addr:street" v="21st Avenue"/></node>
<node id="-6" lat="45.520829449" lon="-123.113233974" visible="true"><tag k="addr:housenumber" v="1916"/><tag k="addr:postcode" v="97116"/><tag k="addr:city" v="Forest Grove"/><tag k="addr:street" v="21st Avenue"/></node>
<node id="-7" lat="45.522625851" lon="-123.112854889" visible="true"><tag k="addr:housenumber" v="1921"/><tag k="addr:postcode" v="97116"/><tag k="addr:city" v="Forest Grove"/><tag k="addr:street" v="22nd Avenue"/></node>
<node id="-8" lat="45.522624057" lon="-123.112849521" visible="true"><tag k="addr:housenumber" v="1923"/><tag k="addr:postcode" v="97116"/><tag k="addr:city" v="Forest Grove"/><tag k="addr:street" v="22nd Avenue"/></node>
<node id="-9" lat="45.524100542" lon="-123.108378241" visible="true"><tag k="addr:housenumber" v="2203"/><tag k="addr:postcode" v="97116"/><tag k="addr:city" v="Forest Grove"/><tag k="addr:street" v="23rd Avenue"/></node>
<node id="-10" lat="45.524957318" lon="-123.107371733" visible="true"><tag k="addr:housenumber" v="2221"/><tag k="addr:postcode" v="97116"/><tag k="addr:city" v="Forest Grove"/><tag k="addr:street" v="23rd Place"/></node>
<node id="-11" lat="45.524959297" lon="-123.107370558" visible="true"><tag k="addr:housenumber" v="2223"/><tag k="addr:postcode" v="97116"/><tag k="addr:city" v="Forest Grove"/><tag k="addr:street" v="23rd Place"/></node>
<node id="-12" lat="45.525625138" lon="-123.107312849" visible="true"><tag k="addr:housenumber" v="2223"/><tag k="addr:postcode" v="97116"/><tag k="addr:city" v="Forest Grove"/><tag k="addr:street" v="24th Avenue"/></node>
<node id="-13" lat="45.525630053" lon="-123.107306072" visible="true"><tag k="addr:housenumber" v="2225"/><tag k="addr:postcode" v="97116"/><tag k="addr:city" v="Forest Grove"/><tag k="addr:street" v="24th Avenue"/></node>
<node id="-14" lat="45.526869247" lon="-123.114702555" visible="true"><tag k="addr:housenumber" v="1820"/><tag k="addr:postcode" v="97116"/><tag k="addr:city" v="Forest Grove"/><tag k="addr:street" v="26th Avenue"/></node>
<node id="-15" lat="45.526866981" lon="-123.114702399" visible="true"><tag k="addr:housenumber" v="1822"/><tag k="addr:postcode" v="97116"/><tag k="addr:city" v="Forest Grove"/><tag k="addr:street" v="26th Avenue"/></node>
<node id="-16" lat="45.527304783" lon="-123.114420486" visible="true"><tag k="addr:housenumber" v="1825"/><tag k="addr:postcode" v="97116"/><tag k="addr:city" v="Forest Grove"/><tag k="addr:street" v="26th Avenue"/></node>
<node id="-17" lat="45.527300872" lon="-123.114416977" visible="true"><tag k="addr:housenumber" v="1827"/><tag k="addr:postcode" v="97116"/><tag k="addr:city" v="Forest Grove"/><tag k="addr:street" v="26th Avenue"/></node>
<node id="-18" lat="45.525947712" lon="-123.114456721" visible="true"><tag k="addr:housenumber" v="2428"/><tag k="addr:postcode" v="97116"/><tag k="addr:city" v="Forest Grove"/><tag k="addr:street" v="A Street"/></node>
<node id="-19" lat="45.525950253" lon="-123.114457433" visible="true"><tag k="addr:housenumber" v="2430"/><tag k="addr:postcode" v="97116"/><tag k="addr:city" v="Forest Grove"/><tag k="addr:street" v="A Street"/></node>
<node id="-20" lat="45.526223824" lon="-123.114588629" visible="true"><tag k="addr:housenumber" v="2434"/><tag k="addr:postcode" v="97116"/><tag k="addr:city" v="Forest Grove"/><tag k="addr:street" v="A Street"/></node>
<node id="-21" lat="45.526228724" lon="-123.114589953" visible="true"><tag k="addr:housenumber" v="2436"/><tag k="addr:postcode" v="97116"/><tag k="addr:city" v="Forest Grove"/><tag k="addr:street" v="A Street"/></node>
<node id="-22" lat="45.514544954" lon="-123.109192004" visible="true"><tag k="addr:housenumber" v="1612"/><tag k="addr:postcode" v="97116"/><tag k="addr:city" v="Forest Grove"/><tag k="addr:street" v="Birch Street"/></node>
<node id="-23" lat="45.514545941" lon="-123.109192262" visible="true"><tag k="addr:housenumber" v="1614"/><tag k="addr:postcode" v="97116"/><tag k="addr:city" v="Forest Grove"/><tag k="addr:street" v="Birch Street"/></node>
<node id="-24" lat="45.525971706" lon="-123.106944965" visible="true"><tag k="addr:housenumber" v="2416"/><tag k="addr:postcode" v="97116"/><tag k="addr:city" v="Forest Grove"/><tag k="addr:street" v="Cedar Circle"/></node>
<node id="-25" lat="45.525974951" lon="-123.106946191" visible="true"><tag k="addr:housenumber" v="2418"/><tag k="addr:postcode" v="97116"/><tag k="addr:city" v="Forest Grove"/><tag k="addr:street" v="Cedar Circle"/></node>
<node id="-26" lat="45.51493028" lon="-123.105551081" visible="true"><tag k="addr:housenumber" v="1632"/><tag k="addr:postcode" v="97116"/><tag k="addr:city" v="Forest Grove"/><tag k="addr:street" v="Douglas Street"/></node>
<node id="-27" lat="45.514928337" lon="-123.105554149" visible="true"><tag k="addr:housenumber" v="1634"/><tag k="addr:postcode" v="97116"/><tag k="addr:city" v="Forest Grove"/><tag k="addr:street" v="Douglas Street"/></node>
<node id="-28" lat="45.515225738" lon="-123.105315103" visible="true"><tag k="addr:housenumber" v="1646"/><tag k="addr:postcode" v="97116"/><tag k="addr:city" v="Forest Grove"/><tag k="addr:street" v="Douglas Street"/></node>
<node id="-29" lat="45.515225451" lon="-123.105310303" visible="true"><tag k="addr:housenumber" v="1648"/><tag k="addr:postcode" v="97116"/><tag k="addr:city" v="Forest Grove"/><tag k="addr:street" v="Douglas Street"/></node>
<node id="-30" lat="45.521941053" lon="-123.105082221" visible="true"><tag k="addr:housenumber" v="2132"/><tag k="addr:postcode" v="97116"/><tag k="addr:city" v="Forest Grove"/><tag k="addr:street" v="Douglas Street"/></node>
<node id="-31" lat="45.521946067" lon="-123.105085975" visible="true"><tag k="addr:housenumber" v="2134"/><tag k="addr:postcode" v="97116"/><tag k="addr:city" v="Forest Grove"/><tag k="addr:street" v="Douglas Street"/></node>
<node id="-32" lat="45.521941929" lon="-123.105088936" visible="true"><tag k="addr:housenumber" v="2136"/><tag k="addr:postcode" v="97116"/><tag k="addr:city" v="Forest Grove"/><tag k="addr:street" v="Douglas Street"/></node>
<node id="-33" lat="45.52636111" lon="-123.104854563" visible="true"><tag k="addr:housenumber" v="2504"/><tag k="addr:postcode" v="97116"/><tag k="addr:city" v="Forest Grove"/><tag k="addr:street" v="Douglas Street"/></node>
<node id="-34" lat="45.526361782" lon="-123.104856229" visible="true"><tag k="addr:housenumber" v="2506"/><tag k="addr:postcode" v="97116"/><tag k="addr:city" v="Forest Grove"/><tag k="addr:street" v="Douglas Street"/></node>
<node id="-35" lat="45.517612274" lon="-123.111815929" visible="true"><tag k="addr:housenumber" v="1811"/><tag k="addr:postcode" v="97116"/><tag k="addr:city" v="Forest Grove"/><tag k="addr:street" v="Main Street"/></node>
<node id="-36" lat="45.517604606" lon="-123.111813341" visible="true"><tag k="addr:housenumber" v="1815"/><tag k="addr:postcode" v="97116"/><tag k="addr:city" v="Forest Grove"/><tag k="addr:street" v="Main Street"/></node>
<node id="-37" lat="45.523117412" lon="-123.112372676" visible="true"><tag k="addr:housenumber" v="2226"/><tag k="addr:postcode" v="97116"/><tag k="addr:city" v="Forest Grove"/><tag k="addr:street" v="Main Street"/></node>
<node id="-38" lat="45.523114765" lon="-123.112368543" visible="true"><tag k="addr:housenumber" v="2228"/><tag k="addr:postcode" v="97116"/><tag k="addr:city" v="Forest Grove"/><tag k="addr:street" v="Main Street"/></node>
<node id="-39" lat="45.527306772" lon="-123.112389331" visible="true"><tag k="addr:housenumber" v="2608"/><tag k="addr:postcode" v="97116"/><tag k="addr:city" v="Forest Grove"/><tag k="addr:street" v="Main Street"/></node>
<node id="-40" lat="45.527307156" lon="-123.112395308" visible="true"><tag k="addr:housenumber" v="2610"/><tag k="addr:postcode" v="97116"/><tag k="addr:city" v="Forest Grove"/><tag k="addr:street" v="Main Street"/></node>
<node id="-41" lat="45.519862212" lon="-123.114295357" visible="true"><tag k="addr:housenumber" v="1829"/><tag k="addr:postcode" v="97116"/><tag k="addr:city" v="Forest Grove"/><tag k="addr:street" v="Pacific Avenue"/></node>
<node id="-42" lat="45.519858855" lon="-123.114299406" visible="true"><tag k="addr:housenumber" v="1831"/><tag k="addr:postcode" v="97116"/><tag k="addr:city" v="Forest Grove"/><tag k="addr:street" v="Pacific Avenue"/></node>
<node id="-43" lat="45.519860859" lon="-123.11430153" visible="true"><tag k="addr:housenumber" v="1833"/><tag k="addr:postcode" v="97116"/><tag k="addr:city" v="Forest Grove"/><tag k="addr:street" v="Pacific Avenue"/></node>
<node id="-44" lat="45.519857824" lon="-123.11430111" visible="true"><tag k="addr:housenumber" v="1835"/><tag k="addr:postcode" v="97116"/><tag k="addr:city" v="Forest Grove"/><tag k="addr:street" v="Pacific Avenue"/></node>
<node id="-45" lat="45.519857764" lon="-123.114303516" visible="true"><tag k="addr:housenumber" v="1837"/><tag k="addr:postcode" v="97116"/><tag k="addr:city" v="Forest Grove"/><tag k="addr:street" v="Pacific Avenue"/></node>
<node id="-46" lat="45.519939474" lon="-123.113089937" visible="true"><tag k="addr:housenumber" v="1911"/><tag k="addr:postcode" v="97116"/><tag k="addr:city" v="Forest Grove"/><tag k="addr:street" v="Pacific Avenue"/></node>
<node id="-47" lat="45.519946496" lon="-123.113089966" visible="true"><tag k="addr:housenumber" v="1913"/><tag k="addr:postcode" v="97116"/><tag k="addr:city" v="Forest Grove"/><tag k="addr:street" v="Pacific Avenue"/></node>
<node id="-48" lat="45.519943564" lon="-123.113096585" visible="true"><tag k="addr:housenumber" v="1915"/><tag k="addr:postcode" v="97116"/><tag k="addr:city" v="Forest Grove"/><tag k="addr:street" v="Pacific Avenue"/></node>
<node id="-49" lat="45.519941789" lon="-123.113094098" visible="true"><tag k="addr:housenumber" v="1917"/><tag k="addr:postcode" v="97116"/><tag k="addr:city" v="Forest Grove"/><tag k="addr:street" v="Pacific Avenue"/></node>
<node id="-50" lat="45.519941297" lon="-123.113096132" visible="true"><tag k="addr:housenumber" v="1919"/><tag k="addr:postcode" v="97116"/><tag k="addr:city" v="Forest Grove"/><tag k="addr:street" v="Pacific Avenue"/></node>
<node id="-51" lat="45.519941809" lon="-123.113094643" visible="true"><tag k="addr:housenumber" v="1923"/><tag k="addr:postcode" v="97116"/><tag k="addr:city" v="Forest Grove"/><tag k="addr:street" v="Pacific Avenue"/></node>
<node id="-52" lat="45.519452529" lon="-123.112495812" visible="true"><tag k="addr:housenumber" v="1936"/><tag k="addr:postcode" v="97116"/><tag k="addr:city" v="Forest Grove"/><tag k="addr:street" v="Pacific Avenue"/></node>
<node id="-53" lat="45.519450432" lon="-123.112497015" visible="true"><tag k="addr:housenumber" v="1938"/><tag k="addr:postcode" v="97116"/><tag k="addr:city" v="Forest Grove"/><tag k="addr:street" v="Pacific Avenue"/></node>
<node id="-54" lat="45.524103437" lon="-123.108377702" visible="true"><tag k="addr:housenumber" v="2307"/><tag k="addr:postcode" v="97116"/><tag k="addr:city" v="Forest Grove"/><tag k="addr:street" v="Sunset Drive"/></node>
<node id="-55" lat="45.526045594" lon="-123.107880775" visible="true"><tag k="addr:housenumber" v="2419"/><tag k="addr:postcode" v="97116"/><tag k="addr:city" v="Forest Grove"/><tag k="addr:street" v="Sunset Drive"/></node>
<node id="-56" lat="45.526042619" lon="-123.107881252" visible="true"><tag k="addr:housenumber" v="2423"/><tag k="addr:postcode" v="97116"/><tag k="addr:city" v="Forest Grove"/><tag k="addr:street" v="Sunset Drive"/></node>
<node id="-57" lat="45.523375975" lon="-123.107766141" visible="true"><tag k="addr:housenumber" v="2223"/><tag k="addr:postcode" v="97116"/><tag k="addr:city" v="Forest Grove"/><tag k="addr:street" v="University Avenue"/></node>
<node id="-58" lat="45.523374023" lon="-123.10777113" visible="true"><tag k="addr:housenumber" v="2225"/><tag k="addr:postcode" v="97116"/><tag k="addr:city" v="Forest Grove"/><tag k="addr:street" v="University Avenue"/></node>
</osm>