<?xml version="1.0"?>
<osm version="0.6" upload="false" generator="uvmogr2osm">
<node id="-1" lat="45.58444021" lon="-122.674805121" visible="true"><tag k="addr:housenumber" v="8405"/><tag k="addr:postcode" v="97217"/><tag k="addr:city" v="Portland"/><tag k="addr:street" v="North Albina Avenue"/></node>
<node id="-2" lat="45.584779106" lon="-122.674814213" visible="true"><tag k="addr:housenumber" v="8417"/><tag k="addr:postcode" v="97217"/><tag k="addr:city" v="Portland"/><tag k="addr:street" v="North Albina Avenue"/></node>
<node id="-3" lat="45.584912348" lon="-122.674816957" visible="true"><tag k="addr:housenumber" v="8427"/><tag k="addr:postcode" v="97217"/><tag k="addr:city" v="Portland"/><tag k="addr:street" v="North Albina Avenue"/></node>
<node id="-4" lat="45.584438015" lon="-122.674813236" visible="true"><tag k="addr:housenumber" v="8441"/><tag k="addr:postcode" v="97217"/><tag k="addr:city" v="Portland"/><tag k="addr:street" v="North Albina Avenue"/></node>
<node id="-5" lat="45.58490974" lon="-122.674812882" visible="true"><tag k="addr:housenumber" v="8443"/><tag k="addr:postcode" v="97217"/><tag k="addr:city" v="Portland"/><tag k="addr:street" v="North Albina Avenue"/></node>
<node id="-6" lat="45.585146758" lon="-122.674814032" visible="true"><tag k="addr:housenumber" v="8500"/><tag k="addr:postcode" v="97217"/><tag k="addr:city" v="Portland"/><tag k="addr:street" v="North Albina Avenue"/></node>
<node id="-7" lat="45.584916411" lon="-122.674812191" visible="true"><tag k="addr:housenumber" v="8501"/><tag k="addr:postcode" v="97217"/><tag k="addr:city" v="Portland"/><tag k="addr:street" v="North Albina Avenue"/></node>
<node id="-8" lat="45.584910696" lon="-122.674810592" visible="true"><tag k="addr:housenumber" v="8517"/><tag k="addr:postcode" v="97217"/><tag k="addr:city" v="Portland"/><tag k="addr:street" v="North Albina Avenue"/></node>
<node id="-9" lat="45.584913725" lon="-122.674813393" visible="true"><tag k="addr:housenumber" v="8539"/><tag k="addr:postcode" v="97217"/><tag k="addr:city" v="Portland"/><tag k="addr:street" v="North Albina Avenue"/></node>
<node id="-10" lat="45.584918286" lon="-122.674815741" visible="true"><tag k="addr:housenumber" v="8601"/><tag k="addr:postcode" v="97217"/><tag k="addr:city" v="Portland"/><tag k="addr:street" v="North Albina Avenue"/></node>
<node id="-11" lat="45.584914449" lon="-122.674808086" visible="true"><tag k="addr:housenumber" v="8611"/><tag k="addr:postcode" v="97217"/><tag k="addr:city" v="Portland"/><tag k="addr:street" v="North Albina Avenue"/></node>
<node id="-12" lat="45.604067566" lon="-122.678330187" visible="true"><tag k="addr:housenumber" v="1100"/><tag k="addr:postcode" v="97217"/><tag k="addr:city" v="Portland"/><tag k="addr:street" v="North Anchor Way"/></node>
<node id="-13" lat="45.603630369" lon="-122.679560987" visible="true"><tag k="addr:housenumber" v="1200"/><tag k="addr:postcode" v="97217"/><tag k="addr:city" v="Portland"/><tag k="addr:street" v="North Anchor Way"/></node>
<node id="-14" lat="45.604061359" lon="-122.678331285" visible="true"><tag k="addr:housenumber" v="901"/><tag k="addr:postcode" v="97217"/><tag k="addr:city" v="Portland"/><tag k="addr:street" v="North Anchor Way"/></node>
<node id="-15" lat="45.604060972" lon="-122.678329867" visible="true"><tag k="addr:housenumber" v="905"/><tag k="addr:postcode" v="97217"/><tag k="addr:city" v="Portland"/><tag k="addr:street" v="North Anchor Way"/></node>
<node id="-16" lat="45.604067703" lon="-122.678331085" visible="true"><tag k="addr:housenumber" v="909"/><tag k="addr:postcode" v="97217"/><tag k="addr:city" v="Portland"/><tag k="addr:street" v="North Anchor Way"/></node>
<node id="-17" lat="45.604060344" lon="-122.678324116" visible="true"><tag k="addr:housenumber" v="911"/><tag k="addr:postcode" v="97217"/><tag k="addr:city" v="Portland"/><tag k="addr:street" v="North Anchor Way"/></node>
<node id="-18" lat="45.60406697" lon="-122.678328542" visible="true"><tag k="addr:housenumber" v="919"/><tag k="addr:postcode" v="97217"/><tag k="addr:city" v="Portland"/><tag k="addr:street" v="North Anchor Way"/></node>
<node id="-19" lat="45.604067983" lon="-122.678325593" visible="true"><tag k="addr:housenumber" v="925"/><tag k="addr:postcode" v="97217"/><tag k="addr:city" v="Portland"/><tag k="addr:street" v="North Anchor Way"/></node>
<node id="-20" lat="45.603053663" lon="-122.668532683" visible="true"><tag k="addr:housenumber" v="209"/><tag k="addr:postcode" v="97217"/><tag k="addr:city" v="Portland"/><tag k="addr:street" v="North Bridgeton Road"/></node>
<node id="-21" lat="45.603049336" lon="-122.668534859" visible="true"><tag k="addr:housenumber" v="301"/><tag k="addr:postcode" v="97217"/><tag k="addr:city" v="Portland"/><tag k="addr:street" v="North Bridgeton Road"/></node>
<node id="-22" lat="45.602932567" lon="-122.669500143" visible="true"><tag k="addr:housenumber" v="320"/><tag k="addr:postcode" v="97217"/><tag k="addr:city" v="Portland"/><tag k="addr:street" v="North Bridgeton Road"/></node>
<node id="-23" lat="45.60293444" lon="-122.669502132" visible="true"><tag k="addr:housenumber" v="322"/><tag k="addr:postcode" v="97217"/><tag k="addr:city" v="Portland"/><tag k="addr:street" v="North Bridgeton Road"/></node>
<node id="-24" lat="45.609618387" lon="-122.680756203" visible="true"><tag k="addr:housenumber" v="11915"/><tag k="addr:postcode" v="97217"/><tag k="addr:city" v="Portland"/><tag k="addr:street" v="North Center Avenue"/></node>
<node id="-25" lat="45.609620782" lon="-122.680762654" visible="true"><tag k="addr:housenumber" v="11919"/><tag k="addr:postcode" v="97217"/><tag k="addr:city" v="Portland"/><tag k="addr:street" v="North Center Avenue"/></node>
<node id="-26" lat="45.609864289" lon="-122.681288912" visible="true"><tag k="addr:housenumber" v="11925"/><tag k="addr:postcode" v="97217"/><tag k="addr:city" v="Portland"/><tag k="addr:street" v="North Center Avenue"/></node>
<node id="-27" lat="45.609619922" lon="-122.680763125" visible="true"><tag k="addr:housenumber" v="11935"/><tag k="addr:postcode" v="97217"/><tag k="addr:city" v="Portland"/><tag k="addr:street" v="North Center Avenue"/></node>
<node id="-28" lat="45.609617095" lon="-122.680764053" visible="true"><tag k="addr:housenumber" v="11945"/><tag k="addr:postcode" v="97217"/><tag k="addr:city" v="Portland"/><tag k="addr:street" v="North Center Avenue"/></node>
<node id="-29" lat="45.609616283" lon="-122.680755714" visible="true"><tag k="addr:housenumber" v="11955"/><tag k="addr:postcode" v="97217"/><tag k="addr:city" v="Portland"/><tag k="addr:street" v="North Center Avenue"/></node>
<node id="-30" lat="45.609621359" lon="-122.68076393" visible="true"><tag k="addr:housenumber" v="11975"/><tag k="addr:postcode" v="97217"/><tag k="addr:city" v="Portland"/><tag k="addr:street" v="North Center Avenue"/></node>
<node id="-31" lat="45.609622096" lon="-122.680757314" visible="true"><tag k="addr:housenumber" v="11979"/><tag k="addr:postcode" v="97217"/><tag k="addr:city" v="Portland"/><tag k="addr:street" v="North Center Avenue"/></node>
<node id="-32" lat="45.609617338" lon="-122.68076109" visible="true"><tag k="addr:housenumber" v="11985"/><tag k="addr:postcode" v="97217"/><tag k="addr:city" v="Portland"/><tag k="addr:street" v="North Center Avenue"/></node>
<node id="-33" lat="45.609618447" lon="-122.680761097" visible="true"><tag k="addr:housenumber" v="11995"/><tag k="addr:postcode" v="97217"/><tag k="addr:city" v="Portland"/><tag k="addr:street" v="North Center Avenue"/></node>
<node id="-34" lat="45.609625113" lon="-122.680764685" visible="true"><tag k="addr:housenumber" v="12001"/><tag k="addr:postcode" v="97217"/><tag k="addr:city" v="Portland"/><tag k="addr:street" v="North Center Avenue"/></node>
<node id="-35" lat="45.60986212" lon="-122.681291889" visible="true"><tag k="addr:housenumber" v="12055"/><tag k="addr:postcode" v="97217"/><tag k="addr:city" v="Portland"/><tag k="addr:street" v="North Center Avenue"/></node>
<node id="-36" lat="45.611135618" lon="-122.680207527" visible="true"><tag k="addr:housenumber" v="12125"/><tag k="addr:postcode" v="97217"/><tag k="addr:city" v="Portland"/><tag k="addr:street" v="North Center Avenue"/></node>
<node id="-37" lat="45.611126505" lon="-122.680227668" visible="true"><tag k="addr:housenumber" v="12201"/><tag k="addr:postcode" v="97217"/><tag k="addr:city" v="Portland"/><tag k="addr:street" v="North Center Avenue"/></node>
<node id="-38" lat="45.61132243" lon="-122.680623091" visible="true"><tag k="addr:housenumber" v="12205"/><tag k="addr:postcode" v="97217"/><tag k="addr:city" v="Portland"/><tag k="addr:street" v="North Center Avenue"/></node>
<node id="-39" lat="45.61132991" lon="-122.680628218" visible="true"><tag k="addr:housenumber" v="12209"/><tag k="addr:postcode" v="97217"/><tag k="addr:city" v="Portland"/><tag k="addr:street" v="North Center Avenue"/></node>
<node id="-40" lat="45.611326805" lon="-122.680619503" visible="true"><tag k="addr:housenumber" v="12213"/><tag k="addr:postcode" v="97217"/><tag k="addr:city" v="Portland"/><tag k="addr:street" v="North Center Avenue"/></node>
<node id="-41" lat="45.611324085" lon="-122.680624477" visible="true"><tag k="addr:housenumber" v="12217"/><tag k="addr:postcode" v="97217"/><tag k="addr:city" v="Portland"/><tag k="addr:street" v="North Center Avenue"/></node>
<node id="-42" lat="45.611328355" lon="-122.680628291" visible="true"><tag k="addr:housenumber" v="12221"/><tag k="addr:postcode" v="97217"/><tag k="addr:city" v="Portland"/><tag k="addr:street" v="North Center Avenue"/></node>
<node id="-43" lat="45.611329299" lon="-122.680626262" visible="true"><tag k="addr:housenumber" v="12225"/><tag k="addr:postcode" v="97217"/><tag k="addr:city" v="Portland"/><tag k="addr:street" v="North Center Avenue"/></node>
<node id="-44" lat="45.611281541" lon="-122.680635314" visible="true"><tag k="addr:housenumber" v="12229"/><tag k="addr:postcode" v="97217"/><tag k="addr:city" v="Portland"/><tag k="addr:street" v="North Center Avenue"/></node>
<node id="-45" lat="45.61112808" lon="-122.680230876" visible="true"><tag k="addr:housenumber" v="12235"/><tag k="addr:postcode" v="97217"/><tag k="addr:city" v="Portland"/><tag k="addr:street" v="North Center Avenue"/></node>
<node id="-46" lat="45.611134089" lon="-122.680222836" visible="true"><tag k="addr:housenumber" v="12239"/><tag k="addr:postcode" v="97217"/><tag k="addr:city" v="Portland"/><tag k="addr:street" v="North Center Avenue"/></node>
<node id="-47" lat="45.611125597" lon="-122.680230957" visible="true"><tag k="addr:housenumber" v="12243"/><tag k="addr:postcode" v="97217"/><tag k="addr:city" v="Portland"/><tag k="addr:street" v="North Center Avenue"/></node>
<node id="-48" lat="45.602667311" lon="-122.669730457" visible="true"><tag k="addr:housenumber" v="11020"/><tag k="addr:postcode" v="97217"/><tag k="addr:city" v="Portland"/><tag k="addr:street" v="North Haight Avenue"/></node>
<node id="-49" lat="45.602670804" lon="-122.669726845" visible="true"><tag k="addr:housenumber" v="11024"/><tag k="addr:postcode" v="97217"/><tag k="addr:city" v="Portland"/><tag k="addr:street" v="North Haight Avenue"/></node>
<node id="-50" lat="45.597173302" lon="-122.673828358" visible="true"><tag k="addr:housenumber" v="715"/><tag k="addr:postcode" v="97217"/><tag k="addr:city" v="Portland"/><tag k="addr:street" v="North Hayden Meadows Drive"/></node>
<node id="-51" lat="45.597170414" lon="-122.673827178" visible="true"><tag k="addr:housenumber" v="731"/><tag k="addr:postcode" v="97217"/><tag k="addr:city" v="Portland"/><tag k="addr:street" v="North Hayden Meadows Drive"/></node>
<node id="-52" lat="45.585150619" lon="-122.674818191" visible="true"><tag k="addr:housenumber" v="810"/><tag k="addr:postcode" v="97217"/><tag k="addr:city" v="Portland"/><tag k="addr:street" v="North Hunt Street"/></node>
<node id="-53" lat="45.607871568" lon="-122.666192691" visible="true"><tag k="addr:housenumber" v="109"/><tag k="addr:postcode" v="97217"/><tag k="addr:city" v="Portland"/><tag k="addr:street" v="North Lotus Beach Drive"/></node>
<node id="-54" lat="45.607847512" lon="-122.666345804" visible="true"><tag k="addr:housenumber" v="119"/><tag k="addr:postcode" v="97217"/><tag k="addr:city" v="Portland"/><tag k="addr:street" v="North Lotus Beach Drive"/></node>
<node id="-55" lat="45.603628035" lon="-122.679563049" visible="true"><tag k="addr:housenumber" v="1001"/><tag k="addr:postcode" v="97217"/><tag k="addr:city" v="Portland"/><tag k="addr:street" v="North Marine Drive"/></node>
<node id="-56" lat="45.602103193" lon="-122.666966912" visible="true"><tag k="addr:housenumber" v="10916"/><tag k="addr:postcode" v="97217"/><tag k="addr:city" v="Portland"/><tag k="addr:street" v="North Moore Avenue"/></node>
<node id="-57" lat="45.602103151" lon="-122.666969879" visible="true"><tag k="addr:housenumber" v="10918"/><tag k="addr:postcode" v="97217"/><tag k="addr:city" v="Portland"/><tag k="addr:street" v="North Moore Avenue"/></node>
<node id="-58" lat="45.597416705" lon="-122.67010867" visible="true"><tag k="addr:housenumber" v="10306"/><tag k="addr:postcode" v="97217"/><tag k="addr:city" v="Portland"/><tag k="addr:street" v="North Vancouver Way"/></node>
<node id="-59" lat="45.597419879" lon="-122.670105945" visible="true"><tag k="addr:housenumber" v="10308"/><tag k="addr:postcode" v="97217"/><tag k="addr:city" v="Portland"/><tag k="addr:street" v="North Vancouver Way"/></node>
<node id="-60" lat="45.594511173" lon="-122.665930166" visible="true"><tag k="addr:housenumber" v="9810"/><tag k="addr:postcode" v="97217"/><tag k="addr:city" v="Portland"/><tag k="addr:street" v="North Vancouver Way"/></node>
<node id="-61" lat="45.594017736" lon="-122.667091278" visible="true"><tag k="addr:housenumber" v="9841"/><tag k="addr:postcode" v="97217"/><tag k="addr:city" v="Portland"/><tag k="addr:street" v="North Vancouver Way"/></node>
<node id="-62" lat="45.594024355" lon="-122.667089764" visible="true"><tag k="addr:housenumber" v="9861"/><tag k="addr:postcode" v="97217"/><tag k="addr:city" v="Portland"/><tag k="addr:street" v="North Vancouver Way"/></node>
<node id="-63" lat="45.594507591" lon="-122.665920569" visible="true"><tag k="addr:housenumber" v="9908"/><tag k="addr:postcode" v="97217"/><tag k="addr:city" v="Portland"/><tag k="addr:street" v="North Vancouver Way"/></node>
<node id="-64" lat="45.594510183" lon="-122.66592953" visible="true"><tag k="addr:housenumber" v="9920"/><tag k="addr:postcode" v="97217"/><tag k="addr:city" v="Portland"/><tag k="addr:street" v="North Vancouver Way"/></node>
<node id="-65" lat="45.591449399" lon="-122.680455597" visible="true"><tag k="addr:housenumber" v="9440"/><tag k="addr:postcode" v="97217"/><tag k="addr:city" v="Portland"/><tag k="addr:street" v="North Whitaker Road"/></node>
<node id="-66" lat="45.591447388" lon="-122.680459614" visible="true"><tag k="addr:housenumber" v="9444"/><tag k="addr:postcode" v="97217"/><tag k="addr:city" v="Portland"/><tag k="addr:street" v="North Whitaker Road"/></node>
<node id="-67" lat="45.595144379" lon="-122.663121908" visible="true"><tag k="addr:housenumber" v="9943"/><tag k="addr:postcode" v="97211"/><tag k="addr:city" v="Portland"/><tag k="addr:street" v="Northeast 6th Drive"/></node>
<node id="-68" lat="45.595152537" lon="-122.663117763" visible="true"><tag k="addr:housenumber" v="9945"/><tag k="addr:postcode" v="97211"/><tag k="addr:city" v="Portland"/><tag k="addr:street" v="Northeast 6th Drive"/></node>
<node id="-69" lat="45.601891636" lon="-122.66271182" visible="true"><tag k="addr:housenumber" v="228"/><tag k="addr:postcode" v="97211"/><tag k="addr:city" v="Portland"/><tag k="addr:street" v="Northeast Bridgeton Road"/></node>
<node id="-70" lat="45.601891965" lon="-122.662708856" visible="true"><tag k="addr:housenumber" v="232"/><tag k="addr:postcode" v="97211"/><tag k="addr:city" v="Portland"/><tag k="addr:street" v="Northeast Bridgeton Road"/></node>
<node id="-71" lat="45.601958812" lon="-122.661036991" visible="true"><tag k="addr:housenumber" v="401"/><tag k="addr:postcode" v="97211"/><tag k="addr:city" v="Portland"/><tag k="addr:street" v="Northeast Bridgeton Road"/></node>
<node id="-72" lat="45.601958388" lon="-122.661044212" visible="true"><tag k="addr:housenumber" v="405"/><tag k="addr:postcode" v="97211"/><tag k="addr:city" v="Portland"/><tag k="addr:street" v="Northeast Bridgeton Road"/></node>
<node id="-73" lat="45.601958476" lon="-122.661044104" visible="true"><tag k="addr:housenumber" v="501"/><tag k="addr:postcode" v="97211"/><tag k="addr:city" v="Portland"/><tag k="addr:street" v="Northeast Bridgeton Road"/></node>
<node id="-74" lat="45.60157485" lon="-122.658941494" visible="true"><tag k="addr:housenumber" v="575"/><tag k="addr:postcode" v="97211"/><tag k="addr:city" v="Portland"/><tag k="addr:street" v="Northeast Bridgeton Road"/></node>
<node id="-75" lat="45.601578674" lon="-122.658940245" visible="true"><tag k="addr:housenumber" v="577"/><tag k="addr:postcode" v="97211"/><tag k="addr:city" v="Portland"/><tag k="addr:street" v="Northeast Bridgeton Road"/></node>
<node id="-76" lat="45.604592256" lon="-122.660606426" visible="true"><tag k="addr:housenumber" v="303"/><tag k="addr:postcode" v="97217"/><tag k="addr:city" v="Portland"/><tag k="addr:street" v="Northeast Tomahawk Island Drive"/></node>
<node id="-77" lat="45.604600893" lon="-122.660609755" visible="true"><tag k="addr:housenumber" v="499"/><tag k="addr:postcode" v="97217"/><tag k="addr:city" v="Portland"/><tag k="addr:street" v="Northeast Tomahawk Island Drive"/></node>
</osm>