<?xml version="1.0"?>
<osm version="0.6" upload="false" generator="uvmogr2osm">
<node id="-1" lat="45.610900201" lon="-122.758916566" visible="true"><tag k="addr:housenumber" v="12104"/><tag k="addr:postcode" v="97203"/><tag k="addr:city" v="Portland"/><tag k="addr:street" v="North Columbia Boulevard"/></node>
<node id="-2" lat="45.603355417" lon="-122.747115755" visible="true"><tag k="addr:housenumber" v="8421"/><tag k="addr:postcode" v="97203"/><tag k="addr:city" v="Portland"/><tag k="addr:street" v="North Columbia Boulevard"/></node>
<node id="-3" lat="45.603359431" lon="-122.747115569" visible="true"><tag k="addr:housenumber" v="8429"/><tag k="addr:postcode" v="97203"/><tag k="addr:city" v="Portland"/><tag k="addr:street" v="North Columbia Boulevard"/></node>
<node id="-4" lat="45.603352792" lon="-122.747121009" visible="true"><tag k="addr:housenumber" v="8515"/><tag k="addr:postcode" v="97203"/><tag k="addr:city" v="Portland"/><tag k="addr:street" v="North Columbia Boulevard"/></node>
<node id="-5" lat="45.603352924" lon="-122.747116588" visible="true"><tag k="addr:housenumber" v="8541"/><tag k="addr:postcode" v="97203"/><tag k="addr:city" v="Portland"/><tag k="addr:street" v="North Columbia Boulevard"/></node>
<node id="-6" lat="45.604381286" lon="-122.749515037" visible="true"><tag k="addr:housenumber" v="8545"/><tag k="addr:postcode" v="97203"/><tag k="addr:city" v="Portland"/><tag k="addr:street" v="North Columbia Boulevard"/></node>
<node id="-7" lat="45.604383369" lon="-122.749516183" visible="true"><tag k="addr:housenumber" v="8611"/><tag k="addr:postcode" v="97203"/><tag k="addr:city" v="Portland"/><tag k="addr:street" v="North Columbia Boulevard"/></node>
<node id="-8" lat="45.610900105" lon="-122.758915065" visible="true"><tag k="addr:housenumber" v="9623"/><tag k="addr:postcode" v="97203"/><tag k="addr:city" v="Portland"/><tag k="addr:street" v="North Columbia Boulevard"/></node>
<node id="-9" lat="45.59894145" lon="-122.73513105" visible="true"><tag k="addr:housenumber" v="10435"/><tag k="addr:postcode" v="97203"/><tag k="addr:city" v="Portland"/><tag k="addr:street" v="North Midway Avenue"/></node>
<node id="-10" lat="45.599145685" lon="-122.743087074" visible="true"><tag k="addr:housenumber" v="10238"/><tag k="addr:postcode" v="97203"/><tag k="addr:city" v="Portland"/><tag k="addr:street" v="North Mohawk Avenue"/></node>
<node id="-11" lat="45.599146792" lon="-122.743093246" visible="true"><tag k="addr:housenumber" v="10242"/><tag k="addr:postcode" v="97203"/><tag k="addr:city" v="Portland"/><tag k="addr:street" v="North Mohawk Avenue"/></node>
<node id="-12" lat="45.59894604" lon="-122.735127828" visible="true"><tag k="addr:housenumber" v="7014"/><tag k="addr:postcode" v="97203"/><tag k="addr:city" v="Portland"/><tag k="addr:street" v="North Richards Street"/></node>
<node id="-13" lat="45.603359906" lon="-122.747119099" visible="true"><tag k="addr:housenumber" v="10726"/><tag k="addr:postcode" v="97203"/><tag k="addr:city" v="Portland"/><tag k="addr:street" v="North Swift Court"/></node>
<node id="-14" lat="45.60335924" lon="-122.747117778" visible="true"><tag k="addr:housenumber" v="10746"/><tag k="addr:postcode" v="97203"/><tag k="addr:city" v="Portland"/><tag k="addr:street" v="North Swift Court"/></node>
<node id="-15" lat="45.604374502" lon="-122.749512762" visible="true"><tag k="addr:housenumber" v="10822"/><tag k="addr:postcode" v="97203"/><tag k="addr:city" v="Portland"/><tag k="addr:street" v="North Swift Court"/></node>
<node id="-16" lat="45.599731231" lon="-122.741449636" visible="true"><tag k="addr:housenumber" v="10315"/><tag k="addr:postcode" v="97203"/><tag k="addr:city" v="Portland"/><tag k="addr:street" v="North Tyler Avenue"/></node>
<node id="-17" lat="45.599351437" lon="-122.740950573" visible="true"><tag k="addr:housenumber" v="10316"/><tag k="addr:postcode" v="97203"/><tag k="addr:city" v="Portland"/><tag k="addr:street" v="North Tyler Avenue"/></node>
<node id="-18" lat="45.599346021" lon="-122.740950979" visible="true"><tag k="addr:housenumber" v="10318"/><tag k="addr:postcode" v="97203"/><tag k="addr:city" v="Portland"/><tag k="addr:street" v="North Tyler Avenue"/></node>
<node id="-19" lat="45.599730628" lon="-122.741445804" visible="true"><tag k="addr:housenumber" v="10323"/><tag k="addr:postcode" v="97203"/><tag k="addr:city" v="Portland"/><tag k="addr:street" v="North Tyler Avenue"/></node>
<node id="-20" lat="45.599726278" lon="-122.741443468" visible="true"><tag k="addr:housenumber" v="10325"/><tag k="addr:postcode" v="97203"/><tag k="addr:city" v="Portland"/><tag k="addr:street" v="North Tyler Avenue"/></node>
<node id="-21" lat="45.59972351" lon="-122.741445176" visible="true"><tag k="addr:housenumber" v="10327"/><tag k="addr:postcode" v="97203"/><tag k="addr:city" v="Portland"/><tag k="addr:street" v="North Tyler Avenue"/></node>
<node id="-22" lat="45.599746332" lon="-122.737860232" visible="true"><tag k="addr:housenumber" v="7601"/><tag k="addr:postcode" v="97203"/><tag k="addr:city" v="Portland"/><tag k="addr:street" v="North Upland Drive"/></node>
<node id="-23" lat="45.599751412" lon="-122.737860379" visible="true"><tag k="addr:housenumber" v="7605"/><tag k="addr:postcode" v="97203"/><tag k="addr:city" v="Portland"/><tag k="addr:street" v="North Upland Drive"/></node>
<node id="-24" lat="45.59975195" lon="-122.73785593" visible="true"><tag k="addr:housenumber" v="7615"/><tag k="addr:postcode" v="97203"/><tag k="addr:city" v="Portland"/><tag k="addr:street" v="North Upland Drive"/></node>
</osm>