<?xml version="1.0"?>
<osm version="0.6" upload="false" generator="uvmogr2osm">
<node id="-1" lat="45.601760445" lon="-122.761280273" visible="true"><tag k="addr:housenumber" v="10240"/><tag k="addr:postcode" v="97203"/><tag k="addr:city" v="Portland"/><tag k="addr:street" v="North Central Street"/></node>
<node id="-2" lat="45.601759143" lon="-122.761285899" visible="true"><tag k="addr:housenumber" v="10244"/><tag k="addr:postcode" v="97203"/><tag k="addr:city" v="Portland"/><tag k="addr:street" v="North Central Street"/></node>
<node id="-3" lat="45.595125558" lon="-122.764831782" visible="true"><tag k="addr:housenumber" v="9712"/><tag k="addr:postcode" v="97203"/><tag k="addr:city" v="Portland"/><tag k="addr:street" v="North Edison Street"/></node>
<node id="-4" lat="45.595121271" lon="-122.764834512" visible="true"><tag k="addr:housenumber" v="9724"/><tag k="addr:postcode" v="97203"/><tag k="addr:city" v="Portland"/><tag k="addr:street" v="North Edison Street"/></node>
<node id="-5" lat="45.596668584" lon="-122.765383032" visible="true"><tag k="addr:housenumber" v="9907"/><tag k="addr:postcode" v="97203"/><tag k="addr:city" v="Portland"/><tag k="addr:street" v="North Edison Street"/></node>
<node id="-6" lat="45.620852772" lon="-122.771941847" visible="true"><tag k="addr:housenumber" v="9211"/><tag k="addr:postcode" v="97203"/><tag k="addr:city" v="Portland"/><tag k="addr:street" v="North Harborgate Street"/></node>
<node id="-7" lat="45.620860622" lon="-122.771946286" visible="true"><tag k="addr:housenumber" v="9215"/><tag k="addr:postcode" v="97203"/><tag k="addr:city" v="Portland"/><tag k="addr:street" v="North Harborgate Street"/></node>
<node id="-8" lat="45.599231715" lon="-122.76289549" visible="true"><tag k="addr:housenumber" v="10049"/><tag k="addr:postcode" v="97203"/><tag k="addr:city" v="Portland"/><tag k="addr:street" v="North Jersey Street"/></node>
<node id="-9" lat="45.59923826" lon="-122.762901796" visible="true"><tag k="addr:housenumber" v="10053"/><tag k="addr:postcode" v="97203"/><tag k="addr:city" v="Portland"/><tag k="addr:street" v="North Jersey Street"/></node>
<node id="-10" lat="45.599228327" lon="-122.761589706" visible="true"><tag k="addr:housenumber" v="10005"/><tag k="addr:postcode" v="97203"/><tag k="addr:city" v="Portland"/><tag k="addr:street" v="North Lombard Street"/></node>
<node id="-11" lat="45.599235241" lon="-122.761596318" visible="true"><tag k="addr:housenumber" v="10007"/><tag k="addr:postcode" v="97203"/><tag k="addr:city" v="Portland"/><tag k="addr:street" v="North Lombard Street"/></node>
<node id="-12" lat="45.599353089" lon="-122.761672056" visible="true"><tag k="addr:housenumber" v="10015"/><tag k="addr:postcode" v="97203"/><tag k="addr:city" v="Portland"/><tag k="addr:street" v="North Lombard Street"/></node>
<node id="-13" lat="45.599359653" lon="-122.761665803" visible="true"><tag k="addr:housenumber" v="10017"/><tag k="addr:postcode" v="97203"/><tag k="addr:city" v="Portland"/><tag k="addr:street" v="North Lombard Street"/></node>
<node id="-14" lat="45.599484006" lon="-122.761747157" visible="true"><tag k="addr:housenumber" v="10027"/><tag k="addr:postcode" v="97203"/><tag k="addr:city" v="Portland"/><tag k="addr:street" v="North Lombard Street"/></node>
<node id="-15" lat="45.599483294" lon="-122.761749448" visible="true"><tag k="addr:housenumber" v="10029"/><tag k="addr:postcode" v="97203"/><tag k="addr:city" v="Portland"/><tag k="addr:street" v="North Lombard Street"/></node>
<node id="-16" lat="45.599286092" lon="-122.762416069" visible="true"><tag k="addr:housenumber" v="10030"/><tag k="addr:postcode" v="97203"/><tag k="addr:city" v="Portland"/><tag k="addr:street" v="North Lombard Street"/></node>
<node id="-17" lat="45.599286879" lon="-122.762420997" visible="true"><tag k="addr:housenumber" v="10032"/><tag k="addr:postcode" v="97203"/><tag k="addr:city" v="Portland"/><tag k="addr:street" v="North Lombard Street"/></node>
<node id="-18" lat="45.599639816" lon="-122.761836074" visible="true"><tag k="addr:housenumber" v="10033"/><tag k="addr:postcode" v="97203"/><tag k="addr:city" v="Portland"/><tag k="addr:street" v="North Lombard Street"/></node>
<node id="-19" lat="45.599288666" lon="-122.762420704" visible="true"><tag k="addr:housenumber" v="10034"/><tag k="addr:postcode" v="97203"/><tag k="addr:city" v="Portland"/><tag k="addr:street" v="North Lombard Street"/></node>
<node id="-20" lat="45.59964296" lon="-122.761830447" visible="true"><tag k="addr:housenumber" v="10035"/><tag k="addr:postcode" v="97203"/><tag k="addr:city" v="Portland"/><tag k="addr:street" v="North Lombard Street"/></node>
<node id="-21" lat="45.599291752" lon="-122.762419583" visible="true"><tag k="addr:housenumber" v="10036"/><tag k="addr:postcode" v="97203"/><tag k="addr:city" v="Portland"/><tag k="addr:street" v="North Lombard Street"/></node>
<node id="-22" lat="45.599642409" lon="-122.761833941" visible="true"><tag k="addr:housenumber" v="10037"/><tag k="addr:postcode" v="97203"/><tag k="addr:city" v="Portland"/><tag k="addr:street" v="North Lombard Street"/></node>
<node id="-23" lat="45.599642597" lon="-122.761834361" visible="true"><tag k="addr:housenumber" v="10039"/><tag k="addr:postcode" v="97203"/><tag k="addr:city" v="Portland"/><tag k="addr:street" v="North Lombard Street"/></node>
<node id="-24" lat="45.599430587" lon="-122.762493595" visible="true"><tag k="addr:housenumber" v="10040"/><tag k="addr:postcode" v="97203"/><tag k="addr:city" v="Portland"/><tag k="addr:street" v="North Lombard Street"/></node>
<node id="-25" lat="45.599430284" lon="-122.762490879" visible="true"><tag k="addr:housenumber" v="10042"/><tag k="addr:postcode" v="97203"/><tag k="addr:city" v="Portland"/><tag k="addr:street" v="North Lombard Street"/></node>
<node id="-26" lat="45.599434938" lon="-122.762495351" visible="true"><tag k="addr:housenumber" v="10044"/><tag k="addr:postcode" v="97203"/><tag k="addr:city" v="Portland"/><tag k="addr:street" v="North Lombard Street"/></node>
<node id="-27" lat="45.599430151" lon="-122.762491399" visible="true"><tag k="addr:housenumber" v="10046"/><tag k="addr:postcode" v="97203"/><tag k="addr:city" v="Portland"/><tag k="addr:street" v="North Lombard Street"/></node>
<node id="-28" lat="45.599431117" lon="-122.762488368" visible="true"><tag k="addr:housenumber" v="10048"/><tag k="addr:postcode" v="97203"/><tag k="addr:city" v="Portland"/><tag k="addr:street" v="North Lombard Street"/></node>
<node id="-29" lat="45.600745846" lon="-122.762489935" visible="true"><tag k="addr:housenumber" v="10151"/><tag k="addr:postcode" v="97203"/><tag k="addr:city" v="Portland"/><tag k="addr:street" v="North Lombard Street"/></node>
<node id="-30" lat="45.600748729" lon="-122.762488049" visible="true"><tag k="addr:housenumber" v="10211"/><tag k="addr:postcode" v="97203"/><tag k="addr:city" v="Portland"/><tag k="addr:street" v="North Lombard Street"/></node>
<node id="-31" lat="45.604110577" lon="-122.763788826" visible="true"><tag k="addr:housenumber" v="10653"/><tag k="addr:postcode" v="97203"/><tag k="addr:city" v="Portland"/><tag k="addr:street" v="North Lombard Street"/></node>
<node id="-32" lat="45.604104085" lon="-122.763788165" visible="true"><tag k="addr:housenumber" v="10661"/><tag k="addr:postcode" v="97203"/><tag k="addr:city" v="Portland"/><tag k="addr:street" v="North Lombard Street"/></node>
<node id="-33" lat="45.599106043" lon="-122.761520506" visible="true"><tag k="addr:housenumber" v="9963"/><tag k="addr:postcode" v="97203"/><tag k="addr:city" v="Portland"/><tag k="addr:street" v="North Lombard Street"/></node>
<node id="-34" lat="45.599101316" lon="-122.761513659" visible="true"><tag k="addr:housenumber" v="9965"/><tag k="addr:postcode" v="97203"/><tag k="addr:city" v="Portland"/><tag k="addr:street" v="North Lombard Street"/></node>
<node id="-35" lat="45.624625162" lon="-122.770307427" visible="true"><tag k="addr:housenumber" v="9045"/><tag k="addr:postcode" v="97203"/><tag k="addr:city" v="Portland"/><tag k="addr:street" v="North Ramsey Boulevard"/></node>
<node id="-36" lat="45.624626128" lon="-122.77030742" visible="true"><tag k="addr:housenumber" v="9405"/><tag k="addr:postcode" v="97203"/><tag k="addr:city" v="Portland"/><tag k="addr:street" v="North Ramsey Boulevard"/></node>
<node id="-37" lat="45.596667345" lon="-122.765382041" visible="true"><tag k="addr:housenumber" v="9906"/><tag k="addr:postcode" v="97203"/><tag k="addr:city" v="Portland"/><tag k="addr:street" v="North Willamette Boulevard"/></node>
<node id="-38" lat="45.617626451" lon="-122.76693284" visible="true"><tag k="addr:housenumber" v="13132"/><tag k="addr:postcode" v="97203"/><tag k="addr:city" v="Portland"/><tag k="addr:street" v="North Woodrush Way"/></node>
<node id="-39" lat="45.617631914" lon="-122.766933119" visible="true"><tag k="addr:housenumber" v="13140"/><tag k="addr:postcode" v="97203"/><tag k="addr:city" v="Portland"/><tag k="addr:street" v="North Woodrush Way"/></node>
<node id="-40" lat="45.598660426" lon="-122.785296806" visible="true"><tag k="addr:housenumber" v="10004"/><tag k="addr:postcode" v="97231"/><tag k="addr:city" v="Portland"/><tag k="addr:street" v="Northwest 107th Avenue"/></node>
<node id="-41" lat="45.59866325" lon="-122.785299155" visible="true"><tag k="addr:housenumber" v="10610"/><tag k="addr:postcode" v="97231"/><tag k="addr:city" v="Portland"/><tag k="addr:street" v="Northwest St Helens Road"/></node>
<node id="-42" lat="45.598661966" lon="-122.785300713" visible="true"><tag k="addr:housenumber" v="10614"/><tag k="addr:postcode" v="97231"/><tag k="addr:city" v="Portland"/><tag k="addr:street" v="Northwest St Helens Road"/></node>
</osm>