<?xml version="1.0"?>
<osm version="0.6" upload="false" generator="uvmogr2osm">
<node id="-1" lat="45.589352052" lon="-122.76145572" visible="true"><tag k="addr:housenumber" v="6635"/><tag k="addr:postcode" v="97203"/><tag k="addr:city" v="Portland"/><tag k="addr:street" v="North Baltimore Avenue"/></node>
<node id="-2" lat="45.589349533" lon="-122.761463204" visible="true"><tag k="addr:housenumber" v="8835"/><tag k="addr:postcode" v="97203"/><tag k="addr:city" v="Portland"/><tag k="addr:street" v="North Bradford Street"/></node>
<node id="-3" lat="45.58935133" lon="-122.761455732" visible="true"><tag k="addr:housenumber" v="8837"/><tag k="addr:postcode" v="97203"/><tag k="addr:city" v="Portland"/><tag k="addr:street" v="North Bradford Street"/></node>
<node id="-4" lat="45.591229348" lon="-122.757980624" visible="true"><tag k="addr:housenumber" v="7207"/><tag k="addr:postcode" v="97203"/><tag k="addr:city" v="Portland"/><tag k="addr:street" v="North Chicago Avenue"/></node>
<node id="-5" lat="45.591223207" lon="-122.757985555" visible="true"><tag k="addr:housenumber" v="7241"/><tag k="addr:postcode" v="97203"/><tag k="addr:city" v="Portland"/><tag k="addr:street" v="North Chicago Avenue"/></node>
<node id="-6" lat="45.589989789" lon="-122.762625406" visible="true"><tag k="addr:housenumber" v="8940"/><tag k="addr:postcode" v="97203"/><tag k="addr:city" v="Portland"/><tag k="addr:street" v="North Decatur Street"/></node>
<node id="-7" lat="45.586536571" lon="-122.756305122" visible="true"><tag k="addr:housenumber" v="8506"/><tag k="addr:postcode" v="97203"/><tag k="addr:city" v="Portland"/><tag k="addr:street" v="North Edison Street"/></node>
<node id="-8" lat="45.586530735" lon="-122.756301468" visible="true"><tag k="addr:housenumber" v="8514"/><tag k="addr:postcode" v="97203"/><tag k="addr:city" v="Portland"/><tag k="addr:street" v="North Edison Street"/></node>
<node id="-9" lat="45.586996678" lon="-122.75640132" visible="true"><tag k="addr:housenumber" v="8525"/><tag k="addr:postcode" v="97203"/><tag k="addr:city" v="Portland"/><tag k="addr:street" v="North Edison Street"/></node>
<node id="-10" lat="45.587000413" lon="-122.756400644" visible="true"><tag k="addr:housenumber" v="8527"/><tag k="addr:postcode" v="97203"/><tag k="addr:city" v="Portland"/><tag k="addr:street" v="North Edison Street"/></node>
<node id="-11" lat="45.589890556" lon="-122.759084243" visible="true"><tag k="addr:housenumber" v="8801"/><tag k="addr:postcode" v="97203"/><tag k="addr:city" v="Portland"/><tag k="addr:street" v="North Edison Street"/></node>
<node id="-12" lat="45.589892114" lon="-122.759082747" visible="true"><tag k="addr:housenumber" v="8803"/><tag k="addr:postcode" v="97203"/><tag k="addr:city" v="Portland"/><tag k="addr:street" v="North Edison Street"/></node>
<node id="-13" lat="45.589887572" lon="-122.759083325" visible="true"><tag k="addr:housenumber" v="8805"/><tag k="addr:postcode" v="97203"/><tag k="addr:city" v="Portland"/><tag k="addr:street" v="North Edison Street"/></node>
<node id="-14" lat="45.589890269" lon="-122.759084179" visible="true"><tag k="addr:housenumber" v="8807"/><tag k="addr:postcode" v="97203"/><tag k="addr:city" v="Portland"/><tag k="addr:street" v="North Edison Street"/></node>
<node id="-15" lat="45.589889675" lon="-122.759086725" visible="true"><tag k="addr:housenumber" v="8809"/><tag k="addr:postcode" v="97203"/><tag k="addr:city" v="Portland"/><tag k="addr:street" v="North Edison Street"/></node>
<node id="-16" lat="45.589892959" lon="-122.75909138" visible="true"><tag k="addr:housenumber" v="8811"/><tag k="addr:postcode" v="97203"/><tag k="addr:city" v="Portland"/><tag k="addr:street" v="North Edison Street"/></node>
<node id="-17" lat="45.589892883" lon="-122.75908532" visible="true"><tag k="addr:housenumber" v="8813"/><tag k="addr:postcode" v="97203"/><tag k="addr:city" v="Portland"/><tag k="addr:street" v="North Edison Street"/></node>
<node id="-18" lat="45.589893661" lon="-122.75909165" visible="true"><tag k="addr:housenumber" v="8815"/><tag k="addr:postcode" v="97203"/><tag k="addr:city" v="Portland"/><tag k="addr:street" v="North Edison Street"/></node>
<node id="-19" lat="45.589886085" lon="-122.759083583" visible="true"><tag k="addr:housenumber" v="8817"/><tag k="addr:postcode" v="97203"/><tag k="addr:city" v="Portland"/><tag k="addr:street" v="North Edison Street"/></node>
<node id="-20" lat="45.589889592" lon="-122.759084795" visible="true"><tag k="addr:housenumber" v="8819"/><tag k="addr:postcode" v="97203"/><tag k="addr:city" v="Portland"/><tag k="addr:street" v="North Edison Street"/></node>
<node id="-21" lat="45.589891136" lon="-122.759087489" visible="true"><tag k="addr:housenumber" v="8821"/><tag k="addr:postcode" v="97203"/><tag k="addr:city" v="Portland"/><tag k="addr:street" v="North Edison Street"/></node>
<node id="-22" lat="45.589888615" lon="-122.759087685" visible="true"><tag k="addr:housenumber" v="8823"/><tag k="addr:postcode" v="97203"/><tag k="addr:city" v="Portland"/><tag k="addr:street" v="North Edison Street"/></node>
<node id="-23" lat="45.586869916" lon="-122.754917932" visible="true"><tag k="addr:housenumber" v="6923"/><tag k="addr:postcode" v="97203"/><tag k="addr:city" v="Portland"/><tag k="addr:street" v="North John Avenue"/></node>
<node id="-24" lat="45.586868462" lon="-122.754923239" visible="true"><tag k="addr:housenumber" v="6931"/><tag k="addr:postcode" v="97203"/><tag k="addr:city" v="Portland"/><tag k="addr:street" v="North John Avenue"/></node>
<node id="-25" lat="45.586791999" lon="-122.755612879" visible="true"><tag k="addr:housenumber" v="6908"/><tag k="addr:postcode" v="97203"/><tag k="addr:city" v="Portland"/><tag k="addr:street" v="North Leavitt Avenue"/></node>
<node id="-26" lat="45.586798369" lon="-122.755615307" visible="true"><tag k="addr:housenumber" v="6910"/><tag k="addr:postcode" v="97203"/><tag k="addr:city" v="Portland"/><tag k="addr:street" v="North Leavitt Avenue"/></node>
<node id="-27" lat="45.591048683" lon="-122.754947473" visible="true"><tag k="addr:housenumber" v="8711"/><tag k="addr:postcode" v="97203"/><tag k="addr:city" v="Portland"/><tag k="addr:street" v="North Lombard Street"/></node>
<node id="-28" lat="45.591055278" lon="-122.754942243" visible="true"><tag k="addr:housenumber" v="8713"/><tag k="addr:postcode" v="97203"/><tag k="addr:city" v="Portland"/><tag k="addr:street" v="North Lombard Street"/></node>
<node id="-29" lat="45.591050923" lon="-122.75494775" visible="true"><tag k="addr:housenumber" v="8715"/><tag k="addr:postcode" v="97203"/><tag k="addr:city" v="Portland"/><tag k="addr:street" v="North Lombard Street"/></node>
<node id="-30" lat="45.589356684" lon="-122.761459863" visible="true"><tag k="addr:housenumber" v="6700"/><tag k="addr:postcode" v="97203"/><tag k="addr:city" v="Portland"/><tag k="addr:street" v="North New York Avenue"/></node>
<node id="-31" lat="45.58872141" lon="-122.757826455" visible="true"><tag k="addr:housenumber" v="6915"/><tag k="addr:postcode" v="97203"/><tag k="addr:city" v="Portland"/><tag k="addr:street" v="North Philadelphia Avenue"/></node>
<node id="-32" lat="45.588712507" lon="-122.757828122" visible="true"><tag k="addr:housenumber" v="6917"/><tag k="addr:postcode" v="97203"/><tag k="addr:city" v="Portland"/><tag k="addr:street" v="North Philadelphia Avenue"/></node>
<node id="-33" lat="45.587149015" lon="-122.757943048" visible="true"><tag k="addr:housenumber" v="6806"/><tag k="addr:postcode" v="97203"/><tag k="addr:city" v="Portland"/><tag k="addr:street" v="North Pittsburg Avenue"/></node>
<node id="-34" lat="45.587405853" lon="-122.75760268" visible="true"><tag k="addr:housenumber" v="6832"/><tag k="addr:postcode" v="97203"/><tag k="addr:city" v="Portland"/><tag k="addr:street" v="North Pittsburg Avenue"/></node>
<node id="-35" lat="45.587333371" lon="-122.757531791" visible="true"><tag k="addr:housenumber" v="6834"/><tag k="addr:postcode" v="97203"/><tag k="addr:city" v="Portland"/><tag k="addr:street" v="North Pittsburg Avenue"/></node>
<node id="-36" lat="45.587257877" lon="-122.757463973" visible="true"><tag k="addr:housenumber" v="6838"/><tag k="addr:postcode" v="97203"/><tag k="addr:city" v="Portland"/><tag k="addr:street" v="North Pittsburg Avenue"/></node>
<node id="-37" lat="45.589990049" lon="-122.762619429" visible="true"><tag k="addr:housenumber" v="6600"/><tag k="addr:postcode" v="97203"/><tag k="addr:city" v="Portland"/><tag k="addr:street" v="North St Louis Avenue"/></node>
<node id="-38" lat="45.589991967" lon="-122.762624411" visible="true"><tag k="addr:housenumber" v="6606"/><tag k="addr:postcode" v="97203"/><tag k="addr:city" v="Portland"/><tag k="addr:street" v="North St Louis Avenue"/></node>
<node id="-39" lat="45.588468522" lon="-122.755002448" visible="true"><tag k="addr:housenumber" v="8502"/><tag k="addr:postcode" v="97203"/><tag k="addr:city" v="Portland"/><tag k="addr:street" v="North Syracuse Street"/></node>
<node id="-40" lat="45.588459725" lon="-122.754998569" visible="true"><tag k="addr:housenumber" v="8504"/><tag k="addr:postcode" v="97203"/><tag k="addr:city" v="Portland"/><tag k="addr:street" v="North Syracuse Street"/></node>
<node id="-41" lat="45.588465154" lon="-122.75500516" visible="true"><tag k="addr:housenumber" v="8506"/><tag k="addr:postcode" v="97203"/><tag k="addr:city" v="Portland"/><tag k="addr:street" v="North Syracuse Street"/></node>
<node id="-42" lat="45.588915418" lon="-122.75492019" visible="true"><tag k="addr:housenumber" v="8513"/><tag k="addr:postcode" v="97203"/><tag k="addr:city" v="Portland"/><tag k="addr:street" v="North Syracuse Street"/></node>
<node id="-43" lat="45.588693735" lon="-122.755384153" visible="true"><tag k="addr:housenumber" v="8520"/><tag k="addr:postcode" v="97203"/><tag k="addr:city" v="Portland"/><tag k="addr:street" v="North Syracuse Street"/></node>
<node id="-44" lat="45.58891837" lon="-122.754921237" visible="true"><tag k="addr:housenumber" v="8523"/><tag k="addr:postcode" v="97203"/><tag k="addr:city" v="Portland"/><tag k="addr:street" v="North Syracuse Street"/></node>
<node id="-45" lat="45.588690582" lon="-122.755385114" visible="true"><tag k="addr:housenumber" v="8530"/><tag k="addr:postcode" v="97203"/><tag k="addr:city" v="Portland"/><tag k="addr:street" v="North Syracuse Street"/></node>
<node id="-46" lat="45.590504575" lon="-122.758061134" visible="true"><tag k="addr:housenumber" v="8820"/><tag k="addr:postcode" v="97203"/><tag k="addr:city" v="Portland"/><tag k="addr:street" v="North Syracuse Street"/></node>
<node id="-47" lat="45.590509829" lon="-122.758062031" visible="true"><tag k="addr:housenumber" v="8832"/><tag k="addr:postcode" v="97203"/><tag k="addr:city" v="Portland"/><tag k="addr:street" v="North Syracuse Street"/></node>
<node id="-48" lat="45.587239245" lon="-122.754788893" visible="true"><tag k="addr:housenumber" v="8405"/><tag k="addr:postcode" v="97203"/><tag k="addr:city" v="Portland"/><tag k="addr:street" v="North Willamette Boulevard"/></node>
<node id="-49" lat="45.587237346" lon="-122.754787667" visible="true"><tag k="addr:housenumber" v="8407"/><tag k="addr:postcode" v="97203"/><tag k="addr:city" v="Portland"/><tag k="addr:street" v="North Willamette Boulevard"/></node>
<node id="-50" lat="45.587236022" lon="-122.754787649" visible="true"><tag k="addr:housenumber" v="8409"/><tag k="addr:postcode" v="97203"/><tag k="addr:city" v="Portland"/><tag k="addr:street" v="North Willamette Boulevard"/></node>
<node id="-51" lat="45.587232265" lon="-122.754791151" visible="true"><tag k="addr:housenumber" v="8411"/><tag k="addr:postcode" v="97203"/><tag k="addr:city" v="Portland"/><tag k="addr:street" v="North Willamette Boulevard"/></node>
<node id="-52" lat="45.587220968" lon="-122.756024268" visible="true"><tag k="addr:housenumber" v="8512"/><tag k="addr:postcode" v="97203"/><tag k="addr:city" v="Portland"/><tag k="addr:street" v="North Willamette Boulevard"/></node>
<node id="-53" lat="45.587221462" lon="-122.756023346" visible="true"><tag k="addr:housenumber" v="8514"/><tag k="addr:postcode" v="97203"/><tag k="addr:city" v="Portland"/><tag k="addr:street" v="North Willamette Boulevard"/></node>
<node id="-54" lat="45.587228709" lon="-122.756023598" visible="true"><tag k="addr:housenumber" v="8516"/><tag k="addr:postcode" v="97203"/><tag k="addr:city" v="Portland"/><tag k="addr:street" v="North Willamette Boulevard"/></node>
<node id="-55" lat="45.655574653" lon="-122.818897522" visible="true"><tag k="addr:housenumber" v="13821"/><tag k="addr:postcode" v="97231"/><tag k="addr:city" v="Portland"/><tag k="addr:street" v="Northwest Charlton Road"/></node>
<node id="-56" lat="45.655576232" lon="-122.8188997" visible="true"><tag k="addr:housenumber" v="13829"/><tag k="addr:postcode" v="97231"/><tag k="addr:city" v="Portland"/><tag k="addr:street" v="Northwest Charlton Road"/></node>
<node id="-57" lat="45.718380303" lon="-122.771156343" visible="true"><tag k="addr:housenumber" v="27108"/><tag k="addr:postcode" v="97231"/><tag k="addr:city" v="Portland"/><tag k="addr:street" v="Northwest Reeder Road"/></node>
<node id="-58" lat="45.718380757" lon="-122.771160526" visible="true"><tag k="addr:housenumber" v="27112"/><tag k="addr:postcode" v="97231"/><tag k="addr:city" v="Portland"/><tag k="addr:street" v="Northwest Reeder Road"/></node>
<node id="-59" lat="45.71838275" lon="-122.771152124" visible="true"><tag k="addr:housenumber" v="27114"/><tag k="addr:postcode" v="97231"/><tag k="addr:city" v="Portland"/><tag k="addr:street" v="Northwest Reeder Road"/></node>
<node id="-60" lat="45.718384239" lon="-122.771155799" visible="true"><tag k="addr:housenumber" v="27116"/><tag k="addr:postcode" v="97231"/><tag k="addr:city" v="Portland"/><tag k="addr:street" v="Northwest Reeder Road"/></node>
<node id="-61" lat="45.71837482" lon="-122.771157645" visible="true"><tag k="addr:housenumber" v="27118"/><tag k="addr:postcode" v="97231"/><tag k="addr:city" v="Portland"/><tag k="addr:street" v="Northwest Reeder Road"/></node>
<node id="-62" lat="45.718377046" lon="-122.771158658" visible="true"><tag k="addr:housenumber" v="27120"/><tag k="addr:postcode" v="97231"/><tag k="addr:city" v="Portland"/><tag k="addr:street" v="Northwest Reeder Road"/></node>
<node id="-63" lat="45.718384394" lon="-122.771158711" visible="true"><tag k="addr:housenumber" v="27122"/><tag k="addr:postcode" v="97231"/><tag k="addr:city" v="Portland"/><tag k="addr:street" v="Northwest Reeder Road"/></node>
<node id="-64" lat="45.718378635" lon="-122.771160969" visible="true"><tag k="addr:housenumber" v="27126"/><tag k="addr:postcode" v="97231"/><tag k="addr:city" v="Portland"/><tag k="addr:street" v="Northwest Reeder Road"/></node>
<node id="-65" lat="45.718384349" lon="-122.771153136" visible="true"><tag k="addr:housenumber" v="27130"/><tag k="addr:postcode" v="97231"/><tag k="addr:city" v="Portland"/><tag k="addr:street" v="Northwest Reeder Road"/></node>
<node id="-66" lat="45.718383028" lon="-122.771152568" visible="true"><tag k="addr:housenumber" v="27132"/><tag k="addr:postcode" v="97231"/><tag k="addr:city" v="Portland"/><tag k="addr:street" v="Northwest Reeder Road"/></node>
<node id="-67" lat="45.587150182" lon="-122.757947649" visible="true"><tag k="addr:housenumber" v="6806"/><tag k="addr:postcode" v="97203"/><tag k="addr:city" v="Portland"/><tag k="addr:street" v="Southeast Ash Place"/></node>
</osm>