<?xml version="1.0"?>
<osm version="0.6" upload="false" generator="uvmogr2osm">
<node id="-1" lat="45.668226107" lon="-122.874320122" visible="true"><tag k="addr:housenumber" v="20115"/><tag k="addr:postcode" v="97231"/><tag k="addr:city" v="Portland"/><tag k="addr:street" v="Northwest Clark Avenue"/></node>
<node id="-2" lat="45.668224591" lon="-122.874325745" visible="true"><tag k="addr:housenumber" v="20115"/><tag k="addr:postcode" v="97231"/><tag k="addr:city" v="Portland"/><tag k="addr:street" v="Northwest Clark Road"/></node>
<node id="-3" lat="45.66604633" lon="-122.874707883" visible="true"><tag k="addr:housenumber" v="19136"/><tag k="addr:postcode" v="97231"/><tag k="addr:city" v="Portland"/><tag k="addr:street" v="Northwest Morgan Road"/></node>
<node id="-4" lat="45.666054803" lon="-122.87470288" visible="true"><tag k="addr:housenumber" v="19138"/><tag k="addr:postcode" v="97231"/><tag k="addr:city" v="Portland"/><tag k="addr:street" v="Northwest Morgan Road"/></node>
<node id="-5" lat="45.663664422" lon="-122.910209958" visible="true"><tag k="addr:housenumber" v="19520"/><tag k="addr:postcode" v="97133"/><tag k="addr:city" v="North Plains"/><tag k="addr:street" v="Northwest Skyline Boulevard"/></node>
<node id="-6" lat="45.663662389" lon="-122.910203523" visible="true"><tag k="addr:housenumber" v="19520"/><tag k="addr:postcode" v="97133"/><tag k="addr:city" v="Portland"/><tag k="addr:street" v="Northwest Skyline Boulevard"/></node>
<node id="-7" lat="45.66123464" lon="-122.863890195" visible="true"><tag k="addr:housenumber" v="19333"/><tag k="addr:postcode" v="97231"/><tag k="addr:city" v="Portland"/><tag k="addr:street" v="Northwest St Helens Road"/></node>
<node id="-8" lat="45.661232297" lon="-122.863889943" visible="true"><tag k="addr:housenumber" v="19339"/><tag k="addr:postcode" v="97231"/><tag k="addr:city" v="Portland"/><tag k="addr:street" v="Northwest St Helens Road"/></node>
</osm>