<?xml version="1.0"?>
<osm version="0.6" upload="false" generator="uvmogr2osm">
<node id="-1" lat="45.409910528" lon="-122.62338936" visible="true"><tag k="addr:housenumber" v="3800"/><tag k="addr:postcode" v="97267"/><tag k="addr:city" v="Portland"/><tag k="addr:street" v="Southeast Concord Road"/></node>
<node id="-2" lat="45.409815514" lon="-122.623321108" visible="true"><tag k="addr:housenumber" v="3802"/><tag k="addr:postcode" v="97267"/><tag k="addr:city" v="Portland"/><tag k="addr:street" v="Southeast Concord Road"/></node>
<node id="-3" lat="45.40973131" lon="-122.623439523" visible="true"><tag k="addr:housenumber" v="3804"/><tag k="addr:postcode" v="97267"/><tag k="addr:city" v="Portland"/><tag k="addr:street" v="Southeast Concord Road"/></node>
<node id="-4" lat="45.409601412" lon="-122.623156611" visible="true"><tag k="addr:housenumber" v="3806"/><tag k="addr:postcode" v="97267"/><tag k="addr:city" v="Portland"/><tag k="addr:street" v="Southeast Concord Road"/></node>
<node id="-5" lat="45.409529917" lon="-122.623117298" visible="true"><tag k="addr:housenumber" v="3808"/><tag k="addr:postcode" v="97267"/><tag k="addr:city" v="Portland"/><tag k="addr:street" v="Southeast Concord Road"/></node>
<node id="-6" lat="45.409439634" lon="-122.623244606" visible="true"><tag k="addr:housenumber" v="3810"/><tag k="addr:postcode" v="97267"/><tag k="addr:city" v="Portland"/><tag k="addr:street" v="Southeast Concord Road"/></node>
<node id="-7" lat="45.417406957" lon="-122.626402183" visible="true"><tag k="addr:housenumber" v="3611"/><tag k="addr:postcode" v="97267"/><tag k="addr:city" v="Portland"/><tag k="addr:street" v="Southeast Hager Lane"/></node>
<node id="-8" lat="45.417415629" lon="-122.626401259" visible="true"><tag k="addr:housenumber" v="3615"/><tag k="addr:postcode" v="97267"/><tag k="addr:city" v="Portland"/><tag k="addr:street" v="Southeast Hager Lane"/></node>
<node id="-9" lat="45.411440969" lon="-122.626822993" visible="true"><tag k="addr:housenumber" v="15530"/><tag k="addr:postcode" v="97267"/><tag k="addr:city" v="Portland"/><tag k="addr:street" v="Southeast Mcloughlin Boulevard"/></node>
<node id="-10" lat="45.411640272" lon="-122.626959488" visible="true"><tag k="addr:housenumber" v="15540"/><tag k="addr:postcode" v="97267"/><tag k="addr:city" v="Portland"/><tag k="addr:street" v="Southeast Mcloughlin Boulevard"/></node>
<node id="-11" lat="45.411825354" lon="-122.626785565" visible="true"><tag k="addr:housenumber" v="15550"/><tag k="addr:postcode" v="97267"/><tag k="addr:city" v="Portland"/><tag k="addr:street" v="Southeast Mcloughlin Boulevard"/></node>
<node id="-12" lat="45.411226886" lon="-122.62669012" visible="true"><tag k="addr:housenumber" v="15574"/><tag k="addr:postcode" v="97267"/><tag k="addr:city" v="Portland"/><tag k="addr:street" v="Southeast Mcloughlin Boulevard"/></node>
<node id="-13" lat="45.406268408" lon="-122.623098101" visible="true"><tag k="addr:housenumber" v="16240"/><tag k="addr:postcode" v="97267"/><tag k="addr:city" v="Portland"/><tag k="addr:street" v="Southeast Mcloughlin Boulevard"/></node>
<node id="-14" lat="45.406154358" lon="-122.623008612" visible="true"><tag k="addr:housenumber" v="16242"/><tag k="addr:postcode" v="97267"/><tag k="addr:city" v="Portland"/><tag k="addr:street" v="Southeast Mcloughlin Boulevard"/></node>
<node id="-15" lat="45.406035092" lon="-122.622911892" visible="true"><tag k="addr:housenumber" v="16244"/><tag k="addr:postcode" v="97267"/><tag k="addr:city" v="Portland"/><tag k="addr:street" v="Southeast Mcloughlin Boulevard"/></node>
<node id="-16" lat="45.405935913" lon="-122.622833878" visible="true"><tag k="addr:housenumber" v="16246"/><tag k="addr:postcode" v="97267"/><tag k="addr:city" v="Portland"/><tag k="addr:street" v="Southeast Mcloughlin Boulevard"/></node>
<node id="-17" lat="45.405790784" lon="-122.622729029" visible="true"><tag k="addr:housenumber" v="16250"/><tag k="addr:postcode" v="97267"/><tag k="addr:city" v="Portland"/><tag k="addr:street" v="Southeast Mcloughlin Boulevard"/></node>
<node id="-18" lat="45.410512381" lon="-122.629356818" visible="true"><tag k="addr:housenumber" v="15684"/><tag k="addr:postcode" v="97267"/><tag k="addr:city" v="Portland"/><tag k="addr:street" v="Southeast Orville Avenue"/></node>
<node id="-19" lat="45.410464053" lon="-122.629296909" visible="true"><tag k="addr:housenumber" v="15686"/><tag k="addr:postcode" v="97267"/><tag k="addr:city" v="Portland"/><tag k="addr:street" v="Southeast Orville Avenue"/></node>
<node id="-20" lat="45.410422445" lon="-122.629251439" visible="true"><tag k="addr:housenumber" v="15688"/><tag k="addr:postcode" v="97267"/><tag k="addr:city" v="Portland"/><tag k="addr:street" v="Southeast Orville Avenue"/></node>
<node id="-21" lat="45.411964842" lon="-122.630526132" visible="true"><tag k="addr:housenumber" v="15309"/><tag k="addr:postcode" v="97267"/><tag k="addr:city" v="Portland"/><tag k="addr:street" v="Southeast Risley Court"/></node>
<node id="-22" lat="45.412004396" lon="-122.630450305" visible="true"><tag k="addr:housenumber" v="15311"/><tag k="addr:postcode" v="97267"/><tag k="addr:city" v="Portland"/><tag k="addr:street" v="Southeast Risley Court"/></node>
<node id="-23" lat="45.411759862" lon="-122.630350646" visible="true"><tag k="addr:housenumber" v="15315"/><tag k="addr:postcode" v="97267"/><tag k="addr:city" v="Portland"/><tag k="addr:street" v="Southeast Risley Court"/></node>
<node id="-24" lat="45.411692561" lon="-122.630269111" visible="true"><tag k="addr:housenumber" v="15317"/><tag k="addr:postcode" v="97267"/><tag k="addr:city" v="Portland"/><tag k="addr:street" v="Southeast Risley Court"/></node>
<node id="-25" lat="45.411632616" lon="-122.630206457" visible="true"><tag k="addr:housenumber" v="15319"/><tag k="addr:postcode" v="97267"/><tag k="addr:city" v="Portland"/><tag k="addr:street" v="Southeast Risley Court"/></node>
<node id="-26" lat="45.411505659" lon="-122.630060412" visible="true"><tag k="addr:housenumber" v="15323"/><tag k="addr:postcode" v="97267"/><tag k="addr:city" v="Portland"/><tag k="addr:street" v="Southeast Risley Court"/></node>
<node id="-27" lat="45.411450279" lon="-122.630009112" visible="true"><tag k="addr:housenumber" v="15325"/><tag k="addr:postcode" v="97267"/><tag k="addr:city" v="Portland"/><tag k="addr:street" v="Southeast Risley Court"/></node>
<node id="-28" lat="45.411400469" lon="-122.629943214" visible="true"><tag k="addr:housenumber" v="15327"/><tag k="addr:postcode" v="97267"/><tag k="addr:city" v="Portland"/><tag k="addr:street" v="Southeast Risley Court"/></node>
<node id="-29" lat="45.413040326" lon="-122.622452228" visible="true"><tag k="addr:housenumber" v="3913"/><tag k="addr:postcode" v="97267"/><tag k="addr:city" v="Portland"/><tag k="addr:street" v="Southeast View Acres Road"/></node>
<node id="-30" lat="45.413101109" lon="-122.622360552" visible="true"><tag k="addr:housenumber" v="3915"/><tag k="addr:postcode" v="97267"/><tag k="addr:city" v="Portland"/><tag k="addr:street" v="Southeast View Acres Road"/></node>
<node id="-31" lat="45.404451866" lon="-122.626354442" visible="true"><tag k="addr:housenumber" v="16373"/><tag k="addr:postcode" v="97267"/><tag k="addr:city" v="Portland"/><tag k="addr:street" v="Southeast Vineyard Lane"/></node>
<node id="-32" lat="45.404473447" lon="-122.626303206" visible="true"><tag k="addr:housenumber" v="16375"/><tag k="addr:postcode" v="97267"/><tag k="addr:city" v="Portland"/><tag k="addr:street" v="Southeast Vineyard Lane"/></node>
</osm>