<?xml version="1.0"?>
<osm version="0.6" upload="false" generator="uvmogr2osm">
<node id="-1" lat="45.422491367" lon="-122.665049801" visible="true"><tag k="addr:housenumber" v="630"/><tag k="addr:postcode" v="97034"/><tag k="addr:city" v="Lake Oswego"/><tag k="addr:street" v="2nd Street"/></node>
<node id="-2" lat="45.422508974" lon="-122.665210687" visible="true"><tag k="addr:housenumber" v="632"/><tag k="addr:postcode" v="97034"/><tag k="addr:city" v="Lake Oswego"/><tag k="addr:street" v="2nd Street"/></node>
<node id="-3" lat="45.422482131" lon="-122.664570665" visible="true"><tag k="addr:housenumber" v="633"/><tag k="addr:postcode" v="97034"/><tag k="addr:city" v="Lake Oswego"/><tag k="addr:street" v="2nd Street"/></node>
<node id="-4" lat="45.422536824" lon="-122.665093794" visible="true"><tag k="addr:housenumber" v="634"/><tag k="addr:postcode" v="97034"/><tag k="addr:city" v="Lake Oswego"/><tag k="addr:street" v="2nd Street"/></node>
<node id="-5" lat="45.422482528" lon="-122.664470573" visible="true"><tag k="addr:housenumber" v="635"/><tag k="addr:postcode" v="97034"/><tag k="addr:city" v="Lake Oswego"/><tag k="addr:street" v="2nd Street"/></node>
<node id="-6" lat="45.422554602" lon="-122.665224526" visible="true"><tag k="addr:housenumber" v="636"/><tag k="addr:postcode" v="97034"/><tag k="addr:city" v="Lake Oswego"/><tag k="addr:street" v="2nd Street"/></node>
<node id="-7" lat="45.42252902" lon="-122.665286947" visible="true"><tag k="addr:housenumber" v="638"/><tag k="addr:postcode" v="97034"/><tag k="addr:city" v="Lake Oswego"/><tag k="addr:street" v="2nd Street"/></node>
<node id="-8" lat="45.42180369" lon="-122.666516133" visible="true"><tag k="addr:housenumber" v="568"/><tag k="addr:postcode" v="97034"/><tag k="addr:city" v="Lake Oswego"/><tag k="addr:street" v="3rd Street"/></node>
<node id="-9" lat="45.42184425" lon="-122.666699696" visible="true"><tag k="addr:housenumber" v="570"/><tag k="addr:postcode" v="97034"/><tag k="addr:city" v="Lake Oswego"/><tag k="addr:street" v="3rd Street"/></node>
<node id="-10" lat="45.422647086" lon="-122.666332357" visible="true"><tag k="addr:housenumber" v="630"/><tag k="addr:postcode" v="97034"/><tag k="addr:city" v="Lake Oswego"/><tag k="addr:street" v="3rd Street"/></node>
<node id="-11" lat="45.422672789" lon="-122.666469422" visible="true"><tag k="addr:housenumber" v="636"/><tag k="addr:postcode" v="97034"/><tag k="addr:city" v="Lake Oswego"/><tag k="addr:street" v="3rd Street"/></node>
<node id="-12" lat="45.421372625" lon="-122.667868697" visible="true"><tag k="addr:housenumber" v="516"/><tag k="addr:postcode" v="97034"/><tag k="addr:city" v="Lake Oswego"/><tag k="addr:street" v="4th Street"/></node>
<node id="-13" lat="45.421400479" lon="-122.668030005" visible="true"><tag k="addr:housenumber" v="518"/><tag k="addr:postcode" v="97034"/><tag k="addr:city" v="Lake Oswego"/><tag k="addr:street" v="4th Street"/></node>
<node id="-14" lat="45.422072291" lon="-122.667687492" visible="true"><tag k="addr:housenumber" v="578"/><tag k="addr:postcode" v="97034"/><tag k="addr:city" v="Lake Oswego"/><tag k="addr:street" v="4th Street"/></node>
<node id="-15" lat="45.422069498" lon="-122.667872043" visible="true"><tag k="addr:housenumber" v="584"/><tag k="addr:postcode" v="97034"/><tag k="addr:city" v="Lake Oswego"/><tag k="addr:street" v="4th Street"/></node>
<node id="-16" lat="45.422715717" lon="-122.667021476" visible="true"><tag k="addr:housenumber" v="625"/><tag k="addr:postcode" v="97034"/><tag k="addr:city" v="Lake Oswego"/><tag k="addr:street" v="4th Street"/></node>
<node id="-17" lat="45.422762086" lon="-122.667015686" visible="true"><tag k="addr:housenumber" v="627"/><tag k="addr:postcode" v="97034"/><tag k="addr:city" v="Lake Oswego"/><tag k="addr:street" v="4th Street"/></node>
<node id="-18" lat="45.423304264" lon="-122.666934619" visible="true"><tag k="addr:housenumber" v="675"/><tag k="addr:postcode" v="97034"/><tag k="addr:city" v="Lake Oswego"/><tag k="addr:street" v="4th Street"/></node>
<node id="-19" lat="45.423379852" lon="-122.666908281" visible="true"><tag k="addr:housenumber" v="677"/><tag k="addr:postcode" v="97034"/><tag k="addr:city" v="Lake Oswego"/><tag k="addr:street" v="4th Street"/></node>
<node id="-20" lat="45.421771717" lon="-122.669025896" visible="true"><tag k="addr:housenumber" v="540"/><tag k="addr:postcode" v="97034"/><tag k="addr:city" v="Lake Oswego"/><tag k="addr:street" v="5th Street"/></node>
<node id="-21" lat="45.421820032" lon="-122.669294189" visible="true"><tag k="addr:housenumber" v="542"/><tag k="addr:postcode" v="97034"/><tag k="addr:city" v="Lake Oswego"/><tag k="addr:street" v="5th Street"/></node>
<node id="-22" lat="45.422134133" lon="-122.668441356" visible="true"><tag k="addr:housenumber" v="577"/><tag k="addr:postcode" v="97034"/><tag k="addr:city" v="Lake Oswego"/><tag k="addr:street" v="5th Street"/></node>
<node id="-23" lat="45.422187615" lon="-122.668410183" visible="true"><tag k="addr:housenumber" v="587"/><tag k="addr:postcode" v="97034"/><tag k="addr:city" v="Lake Oswego"/><tag k="addr:street" v="5th Street"/></node>
<node id="-24" lat="45.422877502" lon="-122.66880322" visible="true"><tag k="addr:housenumber" v="628"/><tag k="addr:postcode" v="97034"/><tag k="addr:city" v="Lake Oswego"/><tag k="addr:street" v="5th Street"/></node>
<node id="-25" lat="45.422944205" lon="-122.668795993" visible="true"><tag k="addr:housenumber" v="630"/><tag k="addr:postcode" v="97034"/><tag k="addr:city" v="Lake Oswego"/><tag k="addr:street" v="5th Street"/></node>
<node id="-26" lat="45.422963638" lon="-122.668121155" visible="true"><tag k="addr:housenumber" v="651"/><tag k="addr:postcode" v="97034"/><tag k="addr:city" v="Lake Oswego"/><tag k="addr:street" v="5th Street"/></node>
<node id="-27" lat="45.422971401" lon="-122.668122284" visible="true"><tag k="addr:housenumber" v="653"/><tag k="addr:postcode" v="97034"/><tag k="addr:city" v="Lake Oswego"/><tag k="addr:street" v="5th Street"/></node>
<node id="-28" lat="45.423113484" lon="-122.668078671" visible="true"><tag k="addr:housenumber" v="657"/><tag k="addr:postcode" v="97034"/><tag k="addr:city" v="Lake Oswego"/><tag k="addr:street" v="5th Street"/></node>
<node id="-29" lat="45.423121115" lon="-122.66807937" visible="true"><tag k="addr:housenumber" v="659"/><tag k="addr:postcode" v="97034"/><tag k="addr:city" v="Lake Oswego"/><tag k="addr:street" v="5th Street"/></node>
<node id="-30" lat="45.418987222" lon="-122.670383246" visible="true"><tag k="addr:housenumber" v="323"/><tag k="addr:postcode" v="97034"/><tag k="addr:city" v="Lake Oswego"/><tag k="addr:street" v="6th Street"/></node>
<node id="-31" lat="45.418972534" lon="-122.670221799" visible="true"><tag k="addr:housenumber" v="325"/><tag k="addr:postcode" v="97034"/><tag k="addr:city" v="Lake Oswego"/><tag k="addr:street" v="6th Street"/></node>
<node id="-32" lat="45.421009681" lon="-122.669956948" visible="true"><tag k="addr:housenumber" v="477"/><tag k="addr:postcode" v="97034"/><tag k="addr:city" v="Lake Oswego"/><tag k="addr:street" v="6th Street"/></node>
<node id="-33" lat="45.421011706" lon="-122.669806806" visible="true"><tag k="addr:housenumber" v="479"/><tag k="addr:postcode" v="97034"/><tag k="addr:city" v="Lake Oswego"/><tag k="addr:street" v="6th Street"/></node>
<node id="-34" lat="45.421712809" lon="-122.669663451" visible="true"><tag k="addr:housenumber" v="529"/><tag k="addr:postcode" v="97034"/><tag k="addr:city" v="Lake Oswego"/><tag k="addr:street" v="6th Street"/></node>
<node id="-35" lat="45.421757666" lon="-122.669653083" visible="true"><tag k="addr:housenumber" v="535"/><tag k="addr:postcode" v="97034"/><tag k="addr:city" v="Lake Oswego"/><tag k="addr:street" v="6th Street"/></node>
<node id="-36" lat="45.42285536" lon="-122.669431607" visible="true"><tag k="addr:housenumber" v="615"/><tag k="addr:postcode" v="97034"/><tag k="addr:city" v="Lake Oswego"/><tag k="addr:street" v="6th Street"/></node>
<node id="-37" lat="45.422849946" lon="-122.669428262" visible="true"><tag k="addr:housenumber" v="623"/><tag k="addr:postcode" v="97034"/><tag k="addr:city" v="Lake Oswego"/><tag k="addr:street" v="6th Street"/></node>
<node id="-38" lat="45.42212168" lon="-122.66385511" visible="true"><tag k="addr:housenumber" v="111"/><tag k="addr:postcode" v="97034"/><tag k="addr:city" v="Lake Oswego"/><tag k="addr:street" v="C Avenue"/></node>
<node id="-39" lat="45.422133152" lon="-122.663923524" visible="true"><tag k="addr:housenumber" v="121"/><tag k="addr:postcode" v="97034"/><tag k="addr:city" v="Lake Oswego"/><tag k="addr:street" v="C Avenue"/></node>
<node id="-40" lat="45.422147004" lon="-122.663983754" visible="true"><tag k="addr:housenumber" v="123"/><tag k="addr:postcode" v="97034"/><tag k="addr:city" v="Lake Oswego"/><tag k="addr:street" v="C Avenue"/></node>
<node id="-41" lat="45.422150124" lon="-122.66405233" visible="true"><tag k="addr:housenumber" v="125"/><tag k="addr:postcode" v="97034"/><tag k="addr:city" v="Lake Oswego"/><tag k="addr:street" v="C Avenue"/></node>
<node id="-42" lat="45.422301878" lon="-122.665708466" visible="true"><tag k="addr:housenumber" v="241"/><tag k="addr:postcode" v="97034"/><tag k="addr:city" v="Lake Oswego"/><tag k="addr:street" v="C Avenue"/></node>
<node id="-43" lat="45.42187327" lon="-122.665742863" visible="true"><tag k="addr:housenumber" v="244"/><tag k="addr:postcode" v="97034"/><tag k="addr:city" v="Lake Oswego"/><tag k="addr:street" v="C Avenue"/></node>
<node id="-44" lat="45.421976798" lon="-122.665723987" visible="true"><tag k="addr:housenumber" v="246"/><tag k="addr:postcode" v="97034"/><tag k="addr:city" v="Lake Oswego"/><tag k="addr:street" v="C Avenue"/></node>
<node id="-45" lat="45.421996104" lon="-122.665819056" visible="true"><tag k="addr:housenumber" v="248"/><tag k="addr:postcode" v="97034"/><tag k="addr:city" v="Lake Oswego"/><tag k="addr:street" v="C Avenue"/></node>
<node id="-46" lat="45.422319552" lon="-122.66588594" visible="true"><tag k="addr:housenumber" v="257"/><tag k="addr:postcode" v="97034"/><tag k="addr:city" v="Lake Oswego"/><tag k="addr:street" v="C Avenue"/></node>
<node id="-47" lat="45.422386903" lon="-122.666417171" visible="true"><tag k="addr:housenumber" v="301"/><tag k="addr:postcode" v="97034"/><tag k="addr:city" v="Lake Oswego"/><tag k="addr:street" v="C Avenue"/></node>
<node id="-48" lat="45.422416176" lon="-122.666608262" visible="true"><tag k="addr:housenumber" v="303"/><tag k="addr:postcode" v="97034"/><tag k="addr:city" v="Lake Oswego"/><tag k="addr:street" v="C Avenue"/></node>
<node id="-49" lat="45.422279206" lon="-122.668303986" visible="true"><tag k="addr:housenumber" v="480"/><tag k="addr:postcode" v="97034"/><tag k="addr:city" v="Lake Oswego"/><tag k="addr:street" v="C Avenue"/></node>
<node id="-50" lat="45.422288122" lon="-122.668408959" visible="true"><tag k="addr:housenumber" v="482"/><tag k="addr:postcode" v="97034"/><tag k="addr:city" v="Lake Oswego"/><tag k="addr:street" v="C Avenue"/></node>
<node id="-51" lat="45.42332819" lon="-122.666279572" visible="true"><tag k="addr:housenumber" v="330"/><tag k="addr:postcode" v="97034"/><tag k="addr:city" v="Lake Oswego"/><tag k="addr:street" v="D Avenue"/></node>
<node id="-52" lat="45.423353262" lon="-122.666414387" visible="true"><tag k="addr:housenumber" v="340"/><tag k="addr:postcode" v="97034"/><tag k="addr:city" v="Lake Oswego"/><tag k="addr:street" v="D Avenue"/></node>
<node id="-53" lat="45.42365536" lon="-122.669227664" visible="true"><tag k="addr:housenumber" v="526"/><tag k="addr:postcode" v="97034"/><tag k="addr:city" v="Lake Oswego"/><tag k="addr:street" v="D Avenue"/></node>
<node id="-54" lat="45.423669842" lon="-122.669336827" visible="true"><tag k="addr:housenumber" v="534"/><tag k="addr:postcode" v="97034"/><tag k="addr:city" v="Lake Oswego"/><tag k="addr:street" v="D Avenue"/></node>
<node id="-55" lat="45.412737083" lon="-122.662821254" visible="true"><tag k="addr:housenumber" v="410"/><tag k="addr:postcode" v="97034"/><tag k="addr:city" v="Lake Oswego"/><tag k="addr:street" v="Durham Street"/></node>
<node id="-56" lat="45.412642878" lon="-122.662843655" visible="true"><tag k="addr:housenumber" v="412"/><tag k="addr:postcode" v="97034"/><tag k="addr:city" v="Lake Oswego"/><tag k="addr:street" v="Durham Street"/></node>
<node id="-57" lat="45.412351473" lon="-122.662413749" visible="true"><tag k="addr:housenumber" v="107"/><tag k="addr:postcode" v="97034"/><tag k="addr:city" v="Lake Oswego"/><tag k="addr:street" v="Ladd Street"/></node>
<node id="-58" lat="45.412350763" lon="-122.662417109" visible="true"><tag k="addr:housenumber" v="111"/><tag k="addr:postcode" v="97034"/><tag k="addr:city" v="Lake Oswego"/><tag k="addr:street" v="Ladd Street"/></node>
<node id="-59" lat="45.412442266" lon="-122.663202965" visible="true"><tag k="addr:housenumber" v="47"/><tag k="addr:postcode" v="97034"/><tag k="addr:city" v="Lake Oswego"/><tag k="addr:street" v="Ladd Street"/></node>
<node id="-60" lat="45.412363765" lon="-122.663216954" visible="true"><tag k="addr:housenumber" v="49"/><tag k="addr:postcode" v="97034"/><tag k="addr:city" v="Lake Oswego"/><tag k="addr:street" v="Ladd Street"/></node>
<node id="-61" lat="45.413301342" lon="-122.668152355" visible="true"><tag k="addr:housenumber" v="347"/><tag k="addr:postcode" v="97034"/><tag k="addr:city" v="Lake Oswego"/><tag k="addr:street" v="Middlecrest Road"/></node>
<node id="-62" lat="45.413300492" lon="-122.66815341" visible="true"><tag k="addr:housenumber" v="349"/><tag k="addr:postcode" v="97034"/><tag k="addr:city" v="Lake Oswego"/><tag k="addr:street" v="Middlecrest Road"/></node>
<node id="-63" lat="45.419310112" lon="-122.66262215" visible="true"><tag k="addr:housenumber" v="355"/><tag k="addr:postcode" v="97034"/><tag k="addr:city" v="Lake Oswego"/><tag k="addr:street" v="North State Street"/></node>
<node id="-64" lat="45.419311143" lon="-122.662616566" visible="true"><tag k="addr:housenumber" v="365"/><tag k="addr:postcode" v="97034"/><tag k="addr:city" v="Lake Oswego"/><tag k="addr:street" v="North State Street"/></node>
<node id="-65" lat="45.419312393" lon="-122.662623059" visible="true"><tag k="addr:housenumber" v="375"/><tag k="addr:postcode" v="97034"/><tag k="addr:city" v="Lake Oswego"/><tag k="addr:street" v="North State Street"/></node>
<node id="-66" lat="45.419314903" lon="-122.662615144" visible="true"><tag k="addr:housenumber" v="385"/><tag k="addr:postcode" v="97034"/><tag k="addr:city" v="Lake Oswego"/><tag k="addr:street" v="North State Street"/></node>
<node id="-67" lat="45.419309583" lon="-122.662616746" visible="true"><tag k="addr:housenumber" v="393"/><tag k="addr:postcode" v="97034"/><tag k="addr:city" v="Lake Oswego"/><tag k="addr:street" v="North State Street"/></node>
<node id="-68" lat="45.419316945" lon="-122.662619648" visible="true"><tag k="addr:housenumber" v="395"/><tag k="addr:postcode" v="97034"/><tag k="addr:city" v="Lake Oswego"/><tag k="addr:street" v="North State Street"/></node>
<node id="-69" lat="45.419313089" lon="-122.662622022" visible="true"><tag k="addr:housenumber" v="397"/><tag k="addr:postcode" v="97034"/><tag k="addr:city" v="Lake Oswego"/><tag k="addr:street" v="North State Street"/></node>
<node id="-70" lat="45.415408844" lon="-122.661768807" visible="true"><tag k="addr:housenumber" v="15"/><tag k="addr:postcode" v="97034"/><tag k="addr:city" v="Lake Oswego"/><tag k="addr:street" v="South State Street"/></node>
<node id="-71" lat="45.41533631" lon="-122.661794315" visible="true"><tag k="addr:housenumber" v="17"/><tag k="addr:postcode" v="97034"/><tag k="addr:city" v="Lake Oswego"/><tag k="addr:street" v="South State Street"/></node>
<node id="-72" lat="45.415271216" lon="-122.661798225" visible="true"><tag k="addr:housenumber" v="19"/><tag k="addr:postcode" v="97034"/><tag k="addr:city" v="Lake Oswego"/><tag k="addr:street" v="South State Street"/></node>
<node id="-73" lat="45.415222466" lon="-122.661806053" visible="true"><tag k="addr:housenumber" v="21"/><tag k="addr:postcode" v="97034"/><tag k="addr:city" v="Lake Oswego"/><tag k="addr:street" v="South State Street"/></node>
<node id="-74" lat="45.415169772" lon="-122.66180906" visible="true"><tag k="addr:housenumber" v="25"/><tag k="addr:postcode" v="97034"/><tag k="addr:city" v="Lake Oswego"/><tag k="addr:street" v="South State Street"/></node>
</osm>