<?xml version="1.0"?>
<osm version="0.6" upload="false" generator="uvmogr2osm">
<node id="-1" lat="45.358363187" lon="-122.623378773" visible="true"><tag k="addr:housenumber" v="2130"/><tag k="addr:postcode" v="97068"/><tag k="addr:city" v="West Linn"/><tag k="addr:street" v="Charman Street"/></node>
<node id="-2" lat="45.358887538" lon="-122.626975659" visible="true"><tag k="addr:housenumber" v="4573"/><tag k="addr:postcode" v="97068"/><tag k="addr:city" v="West Linn"/><tag k="addr:street" v="Exeter Street"/></node>
<node id="-3" lat="45.358884371" lon="-122.626975122" visible="true"><tag k="addr:housenumber" v="4575"/><tag k="addr:postcode" v="97068"/><tag k="addr:city" v="West Linn"/><tag k="addr:street" v="Exeter Street"/></node>
<node id="-4" lat="45.353572902" lon="-122.626463739" visible="true"><tag k="addr:housenumber" v="4197"/><tag k="addr:postcode" v="97068"/><tag k="addr:city" v="West Linn"/><tag k="addr:street" v="Imperial Drive"/></node>
<node id="-5" lat="45.353616885" lon="-122.626354769" visible="true"><tag k="addr:housenumber" v="4199"/><tag k="addr:postcode" v="97068"/><tag k="addr:city" v="West Linn"/><tag k="addr:street" v="Imperial Drive"/></node>
<node id="-6" lat="45.353678061" lon="-122.626173008" visible="true"><tag k="addr:housenumber" v="4201"/><tag k="addr:postcode" v="97068"/><tag k="addr:city" v="West Linn"/><tag k="addr:street" v="Imperial Drive"/></node>
<node id="-7" lat="45.353743377" lon="-122.626052694" visible="true"><tag k="addr:housenumber" v="4203"/><tag k="addr:postcode" v="97068"/><tag k="addr:city" v="West Linn"/><tag k="addr:street" v="Imperial Drive"/></node>
<node id="-8" lat="45.354044841" lon="-122.625484339" visible="true"><tag k="addr:housenumber" v="4205"/><tag k="addr:postcode" v="97068"/><tag k="addr:city" v="West Linn"/><tag k="addr:street" v="Imperial Drive"/></node>
<node id="-9" lat="45.354099758" lon="-122.625389808" visible="true"><tag k="addr:housenumber" v="4215"/><tag k="addr:postcode" v="97068"/><tag k="addr:city" v="West Linn"/><tag k="addr:street" v="Imperial Drive"/></node>
<node id="-10" lat="45.354193328" lon="-122.625238407" visible="true"><tag k="addr:housenumber" v="4221"/><tag k="addr:postcode" v="97068"/><tag k="addr:city" v="West Linn"/><tag k="addr:street" v="Imperial Drive"/></node>
<node id="-11" lat="45.354265542" lon="-122.625114941" visible="true"><tag k="addr:housenumber" v="4225"/><tag k="addr:postcode" v="97068"/><tag k="addr:city" v="West Linn"/><tag k="addr:street" v="Imperial Drive"/></node>
<node id="-12" lat="45.354400591" lon="-122.624950291" visible="true"><tag k="addr:housenumber" v="4237"/><tag k="addr:postcode" v="97068"/><tag k="addr:city" v="West Linn"/><tag k="addr:street" v="Imperial Drive"/></node>
<node id="-13" lat="45.354394595" lon="-122.624950256" visible="true"><tag k="addr:housenumber" v="4239"/><tag k="addr:postcode" v="97068"/><tag k="addr:city" v="West Linn"/><tag k="addr:street" v="Imperial Drive"/></node>
<node id="-14" lat="45.35446039" lon="-122.624665144" visible="true"><tag k="addr:housenumber" v="4245"/><tag k="addr:postcode" v="97068"/><tag k="addr:city" v="West Linn"/><tag k="addr:street" v="Imperial Drive"/></node>
<node id="-15" lat="45.35451967" lon="-122.624564035" visible="true"><tag k="addr:housenumber" v="4247"/><tag k="addr:postcode" v="97068"/><tag k="addr:city" v="West Linn"/><tag k="addr:street" v="Imperial Drive"/></node>
<node id="-16" lat="45.354606012" lon="-122.624409015" visible="true"><tag k="addr:housenumber" v="4257"/><tag k="addr:postcode" v="97068"/><tag k="addr:city" v="West Linn"/><tag k="addr:street" v="Imperial Drive"/></node>
<node id="-17" lat="45.354657482" lon="-122.624288347" visible="true"><tag k="addr:housenumber" v="4259"/><tag k="addr:postcode" v="97068"/><tag k="addr:city" v="West Linn"/><tag k="addr:street" v="Imperial Drive"/></node>
<node id="-18" lat="45.354777627" lon="-122.624114338" visible="true"><tag k="addr:housenumber" v="4271"/><tag k="addr:postcode" v="97068"/><tag k="addr:city" v="West Linn"/><tag k="addr:street" v="Imperial Drive"/></node>
<node id="-19" lat="45.354776973" lon="-122.624112935" visible="true"><tag k="addr:housenumber" v="4275"/><tag k="addr:postcode" v="97068"/><tag k="addr:city" v="West Linn"/><tag k="addr:street" v="Imperial Drive"/></node>
<node id="-20" lat="45.354876699" lon="-122.623873839" visible="true"><tag k="addr:housenumber" v="4283"/><tag k="addr:postcode" v="97068"/><tag k="addr:city" v="West Linn"/><tag k="addr:street" v="Imperial Drive"/></node>
<node id="-21" lat="45.354938417" lon="-122.623764815" visible="true"><tag k="addr:housenumber" v="4285"/><tag k="addr:postcode" v="97068"/><tag k="addr:city" v="West Linn"/><tag k="addr:street" v="Imperial Drive"/></node>
<node id="-22" lat="45.355144938" lon="-122.623359739" visible="true"><tag k="addr:housenumber" v="4303"/><tag k="addr:postcode" v="97068"/><tag k="addr:city" v="West Linn"/><tag k="addr:street" v="Imperial Drive"/></node>
<node id="-23" lat="45.355336534" lon="-122.623127338" visible="true"><tag k="addr:housenumber" v="4305"/><tag k="addr:postcode" v="97068"/><tag k="addr:city" v="West Linn"/><tag k="addr:street" v="Imperial Drive"/></node>
<node id="-24" lat="45.355194884" lon="-122.623266314" visible="true"><tag k="addr:housenumber" v="4307"/><tag k="addr:postcode" v="97068"/><tag k="addr:city" v="West Linn"/><tag k="addr:street" v="Imperial Drive"/></node>
<node id="-25" lat="45.355334602" lon="-122.623118764" visible="true"><tag k="addr:housenumber" v="4315"/><tag k="addr:postcode" v="97068"/><tag k="addr:city" v="West Linn"/><tag k="addr:street" v="Imperial Drive"/></node>
<node id="-26" lat="45.355552606" lon="-122.622645352" visible="true"><tag k="addr:housenumber" v="4323"/><tag k="addr:postcode" v="97068"/><tag k="addr:city" v="West Linn"/><tag k="addr:street" v="Imperial Drive"/></node>
<node id="-27" lat="45.355552482" lon="-122.622642911" visible="true"><tag k="addr:housenumber" v="4329"/><tag k="addr:postcode" v="97068"/><tag k="addr:city" v="West Linn"/><tag k="addr:street" v="Imperial Drive"/></node>
<node id="-28" lat="45.355717707" lon="-122.622461871" visible="true"><tag k="addr:housenumber" v="4351"/><tag k="addr:postcode" v="97068"/><tag k="addr:city" v="West Linn"/><tag k="addr:street" v="Imperial Drive"/></node>
<node id="-29" lat="45.355712706" lon="-122.622464886" visible="true"><tag k="addr:housenumber" v="4353"/><tag k="addr:postcode" v="97068"/><tag k="addr:city" v="West Linn"/><tag k="addr:street" v="Imperial Drive"/></node>
<node id="-30" lat="45.356109456" lon="-122.622731147" visible="true"><tag k="addr:housenumber" v="4360"/><tag k="addr:postcode" v="97068"/><tag k="addr:city" v="West Linn"/><tag k="addr:street" v="Imperial Drive"/></node>
<node id="-31" lat="45.355856526" lon="-122.62221059" visible="true"><tag k="addr:housenumber" v="4365"/><tag k="addr:postcode" v="97068"/><tag k="addr:city" v="West Linn"/><tag k="addr:street" v="Imperial Drive"/></node>
<node id="-32" lat="45.355856378" lon="-122.622206225" visible="true"><tag k="addr:housenumber" v="4367"/><tag k="addr:postcode" v="97068"/><tag k="addr:city" v="West Linn"/><tag k="addr:street" v="Imperial Drive"/></node>
<node id="-33" lat="45.356166803" lon="-122.622630665" visible="true"><tag k="addr:housenumber" v="4368"/><tag k="addr:postcode" v="97068"/><tag k="addr:city" v="West Linn"/><tag k="addr:street" v="Imperial Drive"/></node>
<node id="-34" lat="45.356265983" lon="-122.622484973" visible="true"><tag k="addr:housenumber" v="4370"/><tag k="addr:postcode" v="97068"/><tag k="addr:city" v="West Linn"/><tag k="addr:street" v="Imperial Drive"/></node>
<node id="-35" lat="45.355988172" lon="-122.621994709" visible="true"><tag k="addr:housenumber" v="4373"/><tag k="addr:postcode" v="97068"/><tag k="addr:city" v="West Linn"/><tag k="addr:street" v="Imperial Drive"/></node>
<node id="-36" lat="45.355983693" lon="-122.621994343" visible="true"><tag k="addr:housenumber" v="4377"/><tag k="addr:postcode" v="97068"/><tag k="addr:city" v="West Linn"/><tag k="addr:street" v="Imperial Drive"/></node>
<node id="-37" lat="45.356310921" lon="-122.622389794" visible="true"><tag k="addr:housenumber" v="4378"/><tag k="addr:postcode" v="97068"/><tag k="addr:city" v="West Linn"/><tag k="addr:street" v="Imperial Drive"/></node>
<node id="-38" lat="45.356423255" lon="-122.622160327" visible="true"><tag k="addr:housenumber" v="4380"/><tag k="addr:postcode" v="97068"/><tag k="addr:city" v="West Linn"/><tag k="addr:street" v="Imperial Drive"/></node>
<node id="-39" lat="45.356108443" lon="-122.621781737" visible="true"><tag k="addr:housenumber" v="4381"/><tag k="addr:postcode" v="97068"/><tag k="addr:city" v="West Linn"/><tag k="addr:street" v="Imperial Drive"/></node>
<node id="-40" lat="45.356102225" lon="-122.621777565" visible="true"><tag k="addr:housenumber" v="4385"/><tag k="addr:postcode" v="97068"/><tag k="addr:city" v="West Linn"/><tag k="addr:street" v="Imperial Drive"/></node>
<node id="-41" lat="45.356252245" lon="-122.621569742" visible="true"><tag k="addr:housenumber" v="4387"/><tag k="addr:postcode" v="97068"/><tag k="addr:city" v="West Linn"/><tag k="addr:street" v="Imperial Drive"/></node>
<node id="-42" lat="45.356432097" lon="-122.622167097" visible="true"><tag k="addr:housenumber" v="4388"/><tag k="addr:postcode" v="97068"/><tag k="addr:city" v="West Linn"/><tag k="addr:street" v="Imperial Drive"/></node>
<node id="-43" lat="45.35625947" lon="-122.621571507" visible="true"><tag k="addr:housenumber" v="4389"/><tag k="addr:postcode" v="97068"/><tag k="addr:city" v="West Linn"/><tag k="addr:street" v="Imperial Drive"/></node>
<node id="-44" lat="45.35643664" lon="-122.621477262" visible="true"><tag k="addr:housenumber" v="4391"/><tag k="addr:postcode" v="97068"/><tag k="addr:city" v="West Linn"/><tag k="addr:street" v="Imperial Drive"/></node>
<node id="-45" lat="45.356436394" lon="-122.62147867" visible="true"><tag k="addr:housenumber" v="4395"/><tag k="addr:postcode" v="97068"/><tag k="addr:city" v="West Linn"/><tag k="addr:street" v="Imperial Drive"/></node>
<node id="-46" lat="45.356621279" lon="-122.621467505" visible="true"><tag k="addr:housenumber" v="4397"/><tag k="addr:postcode" v="97068"/><tag k="addr:city" v="West Linn"/><tag k="addr:street" v="Imperial Drive"/></node>
<node id="-47" lat="45.356618188" lon="-122.62146639" visible="true"><tag k="addr:housenumber" v="4399"/><tag k="addr:postcode" v="97068"/><tag k="addr:city" v="West Linn"/><tag k="addr:street" v="Imperial Drive"/></node>
<node id="-48" lat="45.358920493" lon="-122.623363408" visible="true"><tag k="addr:housenumber" v="2065"/><tag k="addr:postcode" v="97068"/><tag k="addr:city" v="West Linn"/><tag k="addr:street" v="Long Street"/></node>
<node id="-49" lat="45.358921859" lon="-122.623364734" visible="true"><tag k="addr:housenumber" v="2110"/><tag k="addr:postcode" v="97068"/><tag k="addr:city" v="West Linn"/><tag k="addr:street" v="Long Street"/></node>
<node id="-50" lat="45.358581284" lon="-122.62299481" visible="true"><tag k="addr:housenumber" v="2061"/><tag k="addr:postcode" v="97068"/><tag k="addr:city" v="West Linn"/><tag k="addr:street" v="Oak Street"/></node>
<node id="-51" lat="45.358575548" lon="-122.622995835" visible="true"><tag k="addr:housenumber" v="2065"/><tag k="addr:postcode" v="97068"/><tag k="addr:city" v="West Linn"/><tag k="addr:street" v="Oak Street"/></node>
<node id="-52" lat="45.358363409" lon="-122.623373352" visible="true"><tag k="addr:housenumber" v="2088"/><tag k="addr:postcode" v="97068"/><tag k="addr:city" v="West Linn"/><tag k="addr:street" v="Oak Street"/></node>
<node id="-53" lat="45.35836477" lon="-122.623379942" visible="true"><tag k="addr:housenumber" v="2090"/><tag k="addr:postcode" v="97068"/><tag k="addr:city" v="West Linn"/><tag k="addr:street" v="Oak Street"/></node>
<node id="-54" lat="45.359057169" lon="-122.622216321" visible="true"><tag k="addr:housenumber" v="2073"/><tag k="addr:postcode" v="97068"/><tag k="addr:city" v="West Linn"/><tag k="addr:street" v="Walden Street"/></node>
<node id="-55" lat="45.359058003" lon="-122.622211379" visible="true"><tag k="addr:housenumber" v="2075"/><tag k="addr:postcode" v="97068"/><tag k="addr:city" v="West Linn"/><tag k="addr:street" v="Walden Street"/></node>
</osm>