<?xml version="1.0"?>
<osm version="0.6" upload="false" generator="uvmogr2osm">
<node id="-1" lat="45.37352793" lon="-122.631935199" visible="true"><tag k="addr:housenumber" v="6860"/><tag k="addr:postcode" v="97068"/><tag k="addr:city" v="West Linn"/><tag k="addr:street" v="Apollo Road"/></node>
<node id="-2" lat="45.373526513" lon="-122.631936795" visible="true"><tag k="addr:housenumber" v="6868"/><tag k="addr:postcode" v="97068"/><tag k="addr:city" v="West Linn"/><tag k="addr:street" v="Apollo Road"/></node>
<node id="-3" lat="45.37278185" lon="-122.631969439" visible="true"><tag k="addr:housenumber" v="6881"/><tag k="addr:postcode" v="97068"/><tag k="addr:city" v="West Linn"/><tag k="addr:street" v="Apollo Road"/></node>
<node id="-4" lat="45.372779668" lon="-122.631970095" visible="true"><tag k="addr:housenumber" v="6889"/><tag k="addr:postcode" v="97068"/><tag k="addr:city" v="West Linn"/><tag k="addr:street" v="Apollo Road"/></node>
<node id="-5" lat="45.369997296" lon="-122.635726376" visible="true"><tag k="addr:housenumber" v="21385"/><tag k="addr:postcode" v="97068"/><tag k="addr:city" v="West Linn"/><tag k="addr:street" v="Parkview Terrace"/></node>
<node id="-6" lat="45.36999358" lon="-122.635725631" visible="true"><tag k="addr:housenumber" v="21460"/><tag k="addr:postcode" v="97068"/><tag k="addr:city" v="West Linn"/><tag k="addr:street" v="Rosepark Court"/></node>
<node id="-7" lat="45.372005559" lon="-122.631678011" visible="true"><tag k="addr:housenumber" v="5435"/><tag k="addr:postcode" v="97068"/><tag k="addr:city" v="West Linn"/><tag k="addr:street" v="Summit Street"/></node>
<node id="-8" lat="45.372004607" lon="-122.631673104" visible="true"><tag k="addr:housenumber" v="5455"/><tag k="addr:postcode" v="97068"/><tag k="addr:city" v="West Linn"/><tag k="addr:street" v="Summit Street"/></node>
</osm>