<?xml version="1.0"?>
<osm version="0.6" upload="false" generator="uvmogr2osm">
<node id="-1" lat="45.400152058" lon="-122.744270105" visible="true"><tag k="addr:housenumber" v="17555"/><tag k="addr:postcode" v="97035"/><tag k="addr:city" v="Lake Oswego"/><tag k="addr:street" v="Southwest 65th Avenue"/></node>
<node id="-2" lat="45.407513175" lon="-122.749893503" visible="true"><tag k="addr:housenumber" v="15605"/><tag k="addr:postcode" v="97224"/><tag k="addr:city" v="Tigard"/><tag k="addr:street" v="Southwest 72nd Avenue"/></node>
<node id="-3" lat="45.407272818" lon="-122.749807582" visible="true"><tag k="addr:housenumber" v="15625"/><tag k="addr:postcode" v="97224"/><tag k="addr:city" v="Tigard"/><tag k="addr:street" v="Southwest 72nd Avenue"/></node>
<node id="-4" lat="45.406308751" lon="-122.749976081" visible="true"><tag k="addr:housenumber" v="15675"/><tag k="addr:postcode" v="97224"/><tag k="addr:city" v="Tigard"/><tag k="addr:street" v="Southwest 72nd Avenue"/></node>
<node id="-5" lat="45.406973993" lon="-122.749780133" visible="true"><tag k="addr:housenumber" v="15705"/><tag k="addr:postcode" v="97224"/><tag k="addr:city" v="Tigard"/><tag k="addr:street" v="Southwest 72nd Avenue"/></node>
<node id="-6" lat="45.404913463" lon="-122.750205703" visible="true"><tag k="addr:housenumber" v="15951"/><tag k="addr:postcode" v="97224"/><tag k="addr:city" v="Tigard"/><tag k="addr:street" v="Southwest 72nd Avenue"/></node>
<node id="-7" lat="45.404715516" lon="-122.750188417" visible="true"><tag k="addr:housenumber" v="15957"/><tag k="addr:postcode" v="97224"/><tag k="addr:city" v="Tigard"/><tag k="addr:street" v="Southwest 72nd Avenue"/></node>
<node id="-8" lat="45.404657925" lon="-122.750137881" visible="true"><tag k="addr:housenumber" v="15961"/><tag k="addr:postcode" v="97224"/><tag k="addr:city" v="Tigard"/><tag k="addr:street" v="Southwest 72nd Avenue"/></node>
<node id="-9" lat="45.404602663" lon="-122.750068955" visible="true"><tag k="addr:housenumber" v="15965"/><tag k="addr:postcode" v="97224"/><tag k="addr:city" v="Tigard"/><tag k="addr:street" v="Southwest 72nd Avenue"/></node>
<node id="-10" lat="45.404547775" lon="-122.750002228" visible="true"><tag k="addr:housenumber" v="15967"/><tag k="addr:postcode" v="97224"/><tag k="addr:city" v="Tigard"/><tag k="addr:street" v="Southwest 72nd Avenue"/></node>
<node id="-11" lat="45.404498318" lon="-122.749957402" visible="true"><tag k="addr:housenumber" v="15969"/><tag k="addr:postcode" v="97224"/><tag k="addr:city" v="Tigard"/><tag k="addr:street" v="Southwest 72nd Avenue"/></node>
<node id="-12" lat="45.404435682" lon="-122.749861263" visible="true"><tag k="addr:housenumber" v="15975"/><tag k="addr:postcode" v="97224"/><tag k="addr:city" v="Tigard"/><tag k="addr:street" v="Southwest 72nd Avenue"/></node>
<node id="-13" lat="45.404388167" lon="-122.749803138" visible="true"><tag k="addr:housenumber" v="15983"/><tag k="addr:postcode" v="97224"/><tag k="addr:city" v="Tigard"/><tag k="addr:street" v="Southwest 72nd Avenue"/></node>
<node id="-14" lat="45.404346999" lon="-122.74973803" visible="true"><tag k="addr:housenumber" v="15985"/><tag k="addr:postcode" v="97224"/><tag k="addr:city" v="Tigard"/><tag k="addr:street" v="Southwest 72nd Avenue"/></node>
<node id="-15" lat="45.404299895" lon="-122.74968508" visible="true"><tag k="addr:housenumber" v="15989"/><tag k="addr:postcode" v="97224"/><tag k="addr:city" v="Tigard"/><tag k="addr:street" v="Southwest 72nd Avenue"/></node>
<node id="-16" lat="45.404254356" lon="-122.749629188" visible="true"><tag k="addr:housenumber" v="15999"/><tag k="addr:postcode" v="97224"/><tag k="addr:city" v="Tigard"/><tag k="addr:street" v="Southwest 72nd Avenue"/></node>
<node id="-17" lat="45.403840587" lon="-122.746206792" visible="true"><tag k="addr:housenumber" v="16332"/><tag k="addr:postcode" v="97224"/><tag k="addr:city" v="Tigard"/><tag k="addr:street" v="Southwest 72nd Avenue"/></node>
<node id="-18" lat="45.403681814" lon="-122.746046082" visible="true"><tag k="addr:housenumber" v="16334"/><tag k="addr:postcode" v="97224"/><tag k="addr:city" v="Tigard"/><tag k="addr:street" v="Southwest 72nd Avenue"/></node>
<node id="-19" lat="45.403553537" lon="-122.74590519" visible="true"><tag k="addr:housenumber" v="16342"/><tag k="addr:postcode" v="97224"/><tag k="addr:city" v="Tigard"/><tag k="addr:street" v="Southwest 72nd Avenue"/></node>
<node id="-20" lat="45.403413786" lon="-122.745756114" visible="true"><tag k="addr:housenumber" v="16350"/><tag k="addr:postcode" v="97224"/><tag k="addr:city" v="Tigard"/><tag k="addr:street" v="Southwest 72nd Avenue"/></node>
<node id="-21" lat="45.403322138" lon="-122.745595683" visible="true"><tag k="addr:housenumber" v="16358"/><tag k="addr:postcode" v="97224"/><tag k="addr:city" v="Tigard"/><tag k="addr:street" v="Southwest 72nd Avenue"/></node>
<node id="-22" lat="45.387338056" lon="-122.744478037" visible="true"><tag k="addr:housenumber" v="6695"/><tag k="addr:postcode" v="97035"/><tag k="addr:city" v="Lake Oswego"/><tag k="addr:street" v="Southwest Childs Road"/></node>
<node id="-23" lat="45.387342963" lon="-122.744524714" visible="true"><tag k="addr:housenumber" v="6697"/><tag k="addr:postcode" v="97035"/><tag k="addr:city" v="Lake Oswego"/><tag k="addr:street" v="Southwest Childs Road"/></node>
<node id="-24" lat="45.387322249" lon="-122.744651379" visible="true"><tag k="addr:housenumber" v="6699"/><tag k="addr:postcode" v="97035"/><tag k="addr:city" v="Lake Oswego"/><tag k="addr:street" v="Southwest Childs Road"/></node>
<node id="-25" lat="45.387366888" lon="-122.744627595" visible="true"><tag k="addr:housenumber" v="6701"/><tag k="addr:postcode" v="97035"/><tag k="addr:city" v="Lake Oswego"/><tag k="addr:street" v="Southwest Childs Road"/></node>
<node id="-26" lat="45.407224736" lon="-122.751027159" visible="true"><tag k="addr:housenumber" v="7342"/><tag k="addr:postcode" v="97224"/><tag k="addr:city" v="Tigard"/><tag k="addr:street" v="Southwest Kable Lane"/></node>
<node id="-27" lat="45.406322301" lon="-122.751023486" visible="true"><tag k="addr:housenumber" v="7380"/><tag k="addr:postcode" v="97224"/><tag k="addr:city" v="Tigard"/><tag k="addr:street" v="Southwest Kable Lane"/></node>
<node id="-28" lat="45.390354861" lon="-122.753820907" visible="true"><tag k="addr:housenumber" v="18083"/><tag k="addr:postcode" v="97224"/><tag k="addr:city" v="Tigard"/><tag k="addr:street" v="Southwest Lower Boones Ferry Road"/></node>
<node id="-29" lat="45.390235463" lon="-122.753944629" visible="true"><tag k="addr:housenumber" v="18085"/><tag k="addr:postcode" v="97224"/><tag k="addr:city" v="Tigard"/><tag k="addr:street" v="Southwest Lower Boones Ferry Road"/></node>
<node id="-30" lat="45.390450656" lon="-122.753913738" visible="true"><tag k="addr:housenumber" v="18089"/><tag k="addr:postcode" v="97224"/><tag k="addr:city" v="Tigard"/><tag k="addr:street" v="Southwest Lower Boones Ferry Road"/></node>
<node id="-31" lat="45.390562571" lon="-122.753798387" visible="true"><tag k="addr:housenumber" v="18091"/><tag k="addr:postcode" v="97224"/><tag k="addr:city" v="Tigard"/><tag k="addr:street" v="Southwest Lower Boones Ferry Road"/></node>
<node id="-32" lat="45.391401807" lon="-122.745871419" visible="true"><tag k="addr:housenumber" v="7015"/><tag k="addr:postcode" v="97035"/><tag k="addr:city" v="Lake Oswego"/><tag k="addr:street" v="Southwest Mcewan Road"/></node>
<node id="-33" lat="45.391436384" lon="-122.745809405" visible="true"><tag k="addr:housenumber" v="7017"/><tag k="addr:postcode" v="97035"/><tag k="addr:city" v="Lake Oswego"/><tag k="addr:street" v="Southwest Mcewan Road"/></node>
<node id="-34" lat="45.391487762" lon="-122.745832108" visible="true"><tag k="addr:housenumber" v="7021"/><tag k="addr:postcode" v="97035"/><tag k="addr:city" v="Lake Oswego"/><tag k="addr:street" v="Southwest Mcewan Road"/></node>
<node id="-35" lat="45.391554359" lon="-122.745698138" visible="true"><tag k="addr:housenumber" v="7023"/><tag k="addr:postcode" v="97035"/><tag k="addr:city" v="Lake Oswego"/><tag k="addr:street" v="Southwest Mcewan Road"/></node>
<node id="-36" lat="45.391400255" lon="-122.745922275" visible="true"><tag k="addr:housenumber" v="7025"/><tag k="addr:postcode" v="97035"/><tag k="addr:city" v="Lake Oswego"/><tag k="addr:street" v="Southwest Mcewan Road"/></node>
<node id="-37" lat="45.400365574" lon="-122.744223678" visible="true"><tag k="addr:housenumber" v="6510"/><tag k="addr:postcode" v="97035"/><tag k="addr:city" v="Lake Oswego"/><tag k="addr:street" v="Southwest Rosewood Street"/></node>
<node id="-38" lat="45.40036641" lon="-122.744307169" visible="true"><tag k="addr:housenumber" v="6520"/><tag k="addr:postcode" v="97035"/><tag k="addr:city" v="Lake Oswego"/><tag k="addr:street" v="Southwest Rosewood Street"/></node>
<node id="-39" lat="45.406000354" lon="-122.746371916" visible="true"><tag k="addr:housenumber" v="15750"/><tag k="addr:postcode" v="97035"/><tag k="addr:city" v="Lake Oswego"/><tag k="addr:street" v="Southwest Upper Boones Ferry Road"/></node>
<node id="-40" lat="45.405933705" lon="-122.746236802" visible="true"><tag k="addr:housenumber" v="15770"/><tag k="addr:postcode" v="97035"/><tag k="addr:city" v="Lake Oswego"/><tag k="addr:street" v="Southwest Upper Boones Ferry Road"/></node>
<node id="-41" lat="45.405765456" lon="-122.746385585" visible="true"><tag k="addr:housenumber" v="15780"/><tag k="addr:postcode" v="97035"/><tag k="addr:city" v="Lake Oswego"/><tag k="addr:street" v="Southwest Upper Boones Ferry Road"/></node>
<node id="-42" lat="45.405675006" lon="-122.746263642" visible="true"><tag k="addr:housenumber" v="15786"/><tag k="addr:postcode" v="97035"/><tag k="addr:city" v="Lake Oswego"/><tag k="addr:street" v="Southwest Upper Boones Ferry Road"/></node>
<node id="-43" lat="45.399218728" lon="-122.75389648" visible="true"><tag k="addr:housenumber" v="16650"/><tag k="addr:postcode" v="97224"/><tag k="addr:city" v="Tigard"/><tag k="addr:street" v="Southwest Upper Boones Ferry Road"/></node>
<node id="-44" lat="45.399218608" lon="-122.753894723" visible="true"><tag k="addr:housenumber" v="16730"/><tag k="addr:postcode" v="97224"/><tag k="addr:city" v="Tigard"/><tag k="addr:street" v="Southwest Upper Boones Ferry Road"/></node>
<node id="-45" lat="45.399227535" lon="-122.753894142" visible="true"><tag k="addr:housenumber" v="16760"/><tag k="addr:postcode" v="97224"/><tag k="addr:city" v="Tigard"/><tag k="addr:street" v="Southwest Upper Boones Ferry Road"/></node>
<node id="-46" lat="45.398201831" lon="-122.754451632" visible="true"><tag k="addr:housenumber" v="16792"/><tag k="addr:postcode" v="97224"/><tag k="addr:city" v="Tigard"/><tag k="addr:street" v="Southwest Upper Boones Ferry Road"/></node>
<node id="-47" lat="45.39819612" lon="-122.754457683" visible="true"><tag k="addr:housenumber" v="16798"/><tag k="addr:postcode" v="97224"/><tag k="addr:city" v="Tigard"/><tag k="addr:street" v="Southwest Upper Boones Ferry Road"/></node>
</osm>