<?xml version="1.0"?>
<osm version="0.6" upload="false" generator="uvmogr2osm">
<node id="-1" lat="45.355947431" lon="-122.842188263" visible="true"><tag k="addr:housenumber" v="16198"/><tag k="addr:postcode" v="97140"/><tag k="addr:city" v="Sherwood"/><tag k="addr:street" v="Southwest 1st Street"/></node>
<node id="-2" lat="45.357861153" lon="-122.84317467" visible="true"><tag k="addr:housenumber" v="16041"/><tag k="addr:postcode" v="97140"/><tag k="addr:city" v="Sherwood"/><tag k="addr:street" v="Southwest 3rd Street"/></node>
<node id="-3" lat="45.353526277" lon="-122.842068447" visible="true"><tag k="addr:housenumber" v="16015"/><tag k="addr:postcode" v="97140"/><tag k="addr:city" v="Sherwood"/><tag k="addr:street" v="Southwest Division Street"/></node>
<node id="-4" lat="45.353534635" lon="-122.842215216" visible="true"><tag k="addr:housenumber" v="16027"/><tag k="addr:postcode" v="97140"/><tag k="addr:city" v="Sherwood"/><tag k="addr:street" v="Southwest Division Street"/></node>
<node id="-5" lat="45.362433544" lon="-122.845847382" visible="true"><tag k="addr:housenumber" v="16410"/><tag k="addr:postcode" v="97140"/><tag k="addr:city" v="Sherwood"/><tag k="addr:street" v="Southwest Gleneagle Drive"/></node>
<node id="-6" lat="45.362401767" lon="-122.845898955" visible="true"><tag k="addr:housenumber" v="16420"/><tag k="addr:postcode" v="97140"/><tag k="addr:city" v="Sherwood"/><tag k="addr:street" v="Southwest Gleneagle Drive"/></node>
<node id="-7" lat="45.362365618" lon="-122.84595124" visible="true"><tag k="addr:housenumber" v="16424"/><tag k="addr:postcode" v="97140"/><tag k="addr:city" v="Sherwood"/><tag k="addr:street" v="Southwest Gleneagle Drive"/></node>
<node id="-8" lat="45.362287745" lon="-122.846028473" visible="true"><tag k="addr:housenumber" v="16430"/><tag k="addr:postcode" v="97140"/><tag k="addr:city" v="Sherwood"/><tag k="addr:street" v="Southwest Gleneagle Drive"/></node>
<node id="-9" lat="45.362257776" lon="-122.846079581" visible="true"><tag k="addr:housenumber" v="16440"/><tag k="addr:postcode" v="97140"/><tag k="addr:city" v="Sherwood"/><tag k="addr:street" v="Southwest Gleneagle Drive"/></node>
<node id="-10" lat="45.362220141" lon="-122.846127186" visible="true"><tag k="addr:housenumber" v="16446"/><tag k="addr:postcode" v="97140"/><tag k="addr:city" v="Sherwood"/><tag k="addr:street" v="Southwest Gleneagle Drive"/></node>
<node id="-11" lat="45.362100739" lon="-122.846293133" visible="true"><tag k="addr:housenumber" v="16450"/><tag k="addr:postcode" v="97140"/><tag k="addr:city" v="Sherwood"/><tag k="addr:street" v="Southwest Gleneagle Drive"/></node>
<node id="-12" lat="45.36205764" lon="-122.846354325" visible="true"><tag k="addr:housenumber" v="16460"/><tag k="addr:postcode" v="97140"/><tag k="addr:city" v="Sherwood"/><tag k="addr:street" v="Southwest Gleneagle Drive"/></node>
<node id="-13" lat="45.361977039" lon="-122.84649577" visible="true"><tag k="addr:housenumber" v="16470"/><tag k="addr:postcode" v="97140"/><tag k="addr:city" v="Sherwood"/><tag k="addr:street" v="Southwest Gleneagle Drive"/></node>
<node id="-14" lat="45.361919961" lon="-122.846593193" visible="true"><tag k="addr:housenumber" v="16480"/><tag k="addr:postcode" v="97140"/><tag k="addr:city" v="Sherwood"/><tag k="addr:street" v="Southwest Gleneagle Drive"/></node>
<node id="-15" lat="45.355853113" lon="-122.84205684" visible="true"><tag k="addr:housenumber" v="22540"/><tag k="addr:postcode" v="97140"/><tag k="addr:city" v="Sherwood"/><tag k="addr:street" v="Southwest Main Street"/></node>
<node id="-16" lat="45.361519684" lon="-122.839080011" visible="true"><tag k="addr:housenumber" v="15643"/><tag k="addr:postcode" v="97140"/><tag k="addr:city" v="Sherwood"/><tag k="addr:street" v="Southwest Oregon Street"/></node>
<node id="-17" lat="45.361006588" lon="-122.839090097" visible="true"><tag k="addr:housenumber" v="15651"/><tag k="addr:postcode" v="97140"/><tag k="addr:city" v="Sherwood"/><tag k="addr:street" v="Southwest Oregon Street"/></node>
<node id="-18" lat="45.357677847" lon="-122.842377476" visible="true"><tag k="addr:housenumber" v="22331"/><tag k="addr:postcode" v="97140"/><tag k="addr:city" v="Sherwood"/><tag k="addr:street" v="Southwest Pine Street"/></node>
<node id="-19" lat="45.357605824" lon="-122.84247242" visible="true"><tag k="addr:housenumber" v="22347"/><tag k="addr:postcode" v="97140"/><tag k="addr:city" v="Sherwood"/><tag k="addr:street" v="Southwest Pine Street"/></node>
<node id="-20" lat="45.355213439" lon="-122.838338513" visible="true"><tag k="addr:housenumber" v="22904"/><tag k="addr:postcode" v="97140"/><tag k="addr:city" v="Sherwood"/><tag k="addr:street" v="Southwest Pine Street"/></node>
<node id="-21" lat="45.368697321" lon="-122.818480403" visible="true"><tag k="addr:housenumber" v="13921"/><tag k="addr:postcode" v="97140"/><tag k="addr:city" v="Sherwood"/><tag k="addr:street" v="Southwest Tualatin Sherwood Road"/></node>
<node id="-22" lat="45.368557726" lon="-122.818625805" visible="true"><tag k="addr:housenumber" v="13923"/><tag k="addr:postcode" v="97140"/><tag k="addr:city" v="Sherwood"/><tag k="addr:street" v="Southwest Tualatin Sherwood Road"/></node>
<node id="-23" lat="45.368526786" lon="-122.818837402" visible="true"><tag k="addr:housenumber" v="13925"/><tag k="addr:postcode" v="97140"/><tag k="addr:city" v="Sherwood"/><tag k="addr:street" v="Southwest Tualatin Sherwood Road"/></node>
<node id="-24" lat="45.368426674" lon="-122.819103118" visible="true"><tag k="addr:housenumber" v="13927"/><tag k="addr:postcode" v="97140"/><tag k="addr:city" v="Sherwood"/><tag k="addr:street" v="Southwest Tualatin Sherwood Road"/></node>
<node id="-25" lat="45.370536637" lon="-122.807228401" visible="true"><tag k="addr:housenumber" v="12555"/><tag k="addr:postcode" v="97062"/><tag k="addr:city" v="Tualatin"/><tag k="addr:street" v="Southwest Tualatin-Sherwood Road"/></node>
<node id="-26" lat="45.370401206" lon="-122.808525717" visible="true"><tag k="addr:housenumber" v="12777"/><tag k="addr:postcode" v="97062"/><tag k="addr:city" v="Tualatin"/><tag k="addr:street" v="Southwest Tualatin-Sherwood Road"/></node>
<node id="-27" lat="45.357811713" lon="-122.843285218" visible="true"><tag k="addr:housenumber" v="22276"/><tag k="addr:postcode" v="97140"/><tag k="addr:city" v="Sherwood"/><tag k="addr:street" v="Southwest Washington Street"/></node>
<node id="-28" lat="45.356747318" lon="-122.836814538" visible="true"><tag k="addr:housenumber" v="15527"/><tag k="addr:postcode" v="97140"/><tag k="addr:city" v="Sherwood"/><tag k="addr:street" v="Southwest Willamette Street"/></node>
<node id="-29" lat="45.357035278" lon="-122.837065692" visible="true"><tag k="addr:housenumber" v="15543"/><tag k="addr:postcode" v="97140"/><tag k="addr:city" v="Sherwood"/><tag k="addr:street" v="Southwest Willamette Street"/></node>
<node id="-30" lat="45.355213577" lon="-122.838333574" visible="true"><tag k="addr:housenumber" v="15686"/><tag k="addr:postcode" v="97140"/><tag k="addr:city" v="Sherwood"/><tag k="addr:street" v="Southwest Willamette Street"/></node>
</osm>