<?xml version="1.0"?>
<osm version="0.6" upload="false" generator="uvmogr2osm">
<node id="-1" lat="45.435698638" lon="-122.744876607" visible="true"><tag k="addr:housenumber" v="11625"/><tag k="addr:postcode" v="97223"/><tag k="addr:city" v="Tigard"/><tag k="addr:street" v="Southwest 66th Avenue"/></node>
<node id="-2" lat="45.435475787" lon="-122.744898176" visible="true"><tag k="addr:housenumber" v="11675"/><tag k="addr:postcode" v="97223"/><tag k="addr:city" v="Tigard"/><tag k="addr:street" v="Southwest 66th Avenue"/></node>
<node id="-3" lat="45.435318516" lon="-122.744892253" visible="true"><tag k="addr:housenumber" v="11685"/><tag k="addr:postcode" v="97223"/><tag k="addr:city" v="Tigard"/><tag k="addr:street" v="Southwest 66th Avenue"/></node>
<node id="-4" lat="45.432333236" lon="-122.745092832" visible="true"><tag k="addr:housenumber" v="12000"/><tag k="addr:postcode" v="97223"/><tag k="addr:city" v="Tigard"/><tag k="addr:street" v="Southwest 66th Avenue"/></node>
<node id="-5" lat="45.432401632" lon="-122.74559185" visible="true"><tag k="addr:housenumber" v="12150"/><tag k="addr:postcode" v="97223"/><tag k="addr:city" v="Tigard"/><tag k="addr:street" v="Southwest 68th Avenue"/></node>
<node id="-6" lat="45.428992012" lon="-122.747144825" visible="true"><tag k="addr:housenumber" v="12585"/><tag k="addr:postcode" v="97223"/><tag k="addr:city" v="Tigard"/><tag k="addr:street" v="Southwest 68th Avenue"/></node>
<node id="-7" lat="45.428991087" lon="-122.747143051" visible="true"><tag k="addr:housenumber" v="12587"/><tag k="addr:postcode" v="97223"/><tag k="addr:city" v="Tigard"/><tag k="addr:street" v="Southwest 68th Avenue"/></node>
<node id="-8" lat="45.435700753" lon="-122.748242867" visible="true"><tag k="addr:housenumber" v="6940"/><tag k="addr:postcode" v="97223"/><tag k="addr:city" v="Tigard"/><tag k="addr:street" v="Southwest Baylor Street"/></node>
<node id="-9" lat="45.435696551" lon="-122.74823684" visible="true"><tag k="addr:housenumber" v="6950"/><tag k="addr:postcode" v="97223"/><tag k="addr:city" v="Tigard"/><tag k="addr:street" v="Southwest Baylor Street"/></node>
<node id="-10" lat="45.429189318" lon="-122.748647391" visible="true"><tag k="addr:housenumber" v="6988"/><tag k="addr:postcode" v="97223"/><tag k="addr:city" v="Tigard"/><tag k="addr:street" v="Southwest Beveland Road"/></node>
<node id="-11" lat="45.429194588" lon="-122.748638696" visible="true"><tag k="addr:housenumber" v="6990"/><tag k="addr:postcode" v="97223"/><tag k="addr:city" v="Tigard"/><tag k="addr:street" v="Southwest Beveland Road"/></node>
<node id="-12" lat="45.431790795" lon="-122.763811647" visible="true"><tag k="addr:housenumber" v="12168"/><tag k="addr:postcode" v="97223"/><tag k="addr:city" v="Tigard"/><tag k="addr:street" v="Southwest Garden Place"/></node>
<node id="-13" lat="45.431777912" lon="-122.763619942" visible="true"><tag k="addr:housenumber" v="12178"/><tag k="addr:postcode" v="97223"/><tag k="addr:city" v="Tigard"/><tag k="addr:street" v="Southwest Garden Place"/></node>
<node id="-14" lat="45.431792174" lon="-122.763192655" visible="true"><tag k="addr:housenumber" v="12232"/><tag k="addr:postcode" v="97223"/><tag k="addr:city" v="Tigard"/><tag k="addr:street" v="Southwest Garden Place"/></node>
<node id="-15" lat="45.431874103" lon="-122.763415725" visible="true"><tag k="addr:housenumber" v="12242"/><tag k="addr:postcode" v="97223"/><tag k="addr:city" v="Tigard"/><tag k="addr:street" v="Southwest Garden Place"/></node>
<node id="-16" lat="45.431922378" lon="-122.763570303" visible="true"><tag k="addr:housenumber" v="12244"/><tag k="addr:postcode" v="97223"/><tag k="addr:city" v="Tigard"/><tag k="addr:street" v="Southwest Garden Place"/></node>
<node id="-17" lat="45.432194258" lon="-122.763771909" visible="true"><tag k="addr:housenumber" v="12250"/><tag k="addr:postcode" v="97223"/><tag k="addr:city" v="Tigard"/><tag k="addr:street" v="Southwest Garden Place"/></node>
<node id="-18" lat="45.431997922" lon="-122.763820548" visible="true"><tag k="addr:housenumber" v="12254"/><tag k="addr:postcode" v="97223"/><tag k="addr:city" v="Tigard"/><tag k="addr:street" v="Southwest Garden Place"/></node>
<node id="-19" lat="45.431879373" lon="-122.763827919" visible="true"><tag k="addr:housenumber" v="12256"/><tag k="addr:postcode" v="97223"/><tag k="addr:city" v="Tigard"/><tag k="addr:street" v="Southwest Garden Place"/></node>
<node id="-20" lat="45.439750157" lon="-122.750222307" visible="true"><tag k="addr:housenumber" v="11560"/><tag k="addr:postcode" v="97223"/><tag k="addr:city" v="Tigard"/><tag k="addr:street" v="Southwest Pacific Highway"/></node>
<node id="-21" lat="45.43974806" lon="-122.750230608" visible="true"><tag k="addr:housenumber" v="11564"/><tag k="addr:postcode" v="97223"/><tag k="addr:city" v="Tigard"/><tag k="addr:street" v="Southwest Pacific Highway"/></node>
<node id="-22" lat="45.437545789" lon="-122.756821153" visible="true"><tag k="addr:housenumber" v="11681"/><tag k="addr:postcode" v="97223"/><tag k="addr:city" v="Tigard"/><tag k="addr:street" v="Southwest Pacific Highway"/></node>
<node id="-23" lat="45.437542202" lon="-122.756812648" visible="true"><tag k="addr:housenumber" v="11685"/><tag k="addr:postcode" v="97223"/><tag k="addr:city" v="Tigard"/><tag k="addr:street" v="Southwest Pacific Highway"/></node>
<node id="-24" lat="45.438158291" lon="-122.757667841" visible="true"><tag k="addr:housenumber" v="7805"/><tag k="addr:postcode" v="97223"/><tag k="addr:city" v="Tigard"/><tag k="addr:street" v="Southwest Pfaffle Street"/></node>
<node id="-25" lat="45.438162454" lon="-122.757672874" visible="true"><tag k="addr:housenumber" v="7825"/><tag k="addr:postcode" v="97223"/><tag k="addr:city" v="Tigard"/><tag k="addr:street" v="Southwest Pfaffle Street"/></node>
</osm>