<?xml version="1.0"?>
<osm version="0.6" upload="false" generator="uvmogr2osm">
<node id="-1" lat="45.40634951" lon="-122.797228139" visible="true"><tag k="addr:housenumber" v="15525"/><tag k="addr:postcode" v="97224"/><tag k="addr:city" v="Tigard"/><tag k="addr:street" v="Southwest 116th Avenue"/></node>
<node id="-2" lat="45.406348255" lon="-122.797236026" visible="true"><tag k="addr:housenumber" v="15545"/><tag k="addr:postcode" v="97224"/><tag k="addr:city" v="Tigard"/><tag k="addr:street" v="Southwest 116th Avenue"/></node>
<node id="-3" lat="45.406351881" lon="-122.797236404" visible="true"><tag k="addr:housenumber" v="15555"/><tag k="addr:postcode" v="97224"/><tag k="addr:city" v="Tigard"/><tag k="addr:street" v="Southwest 116th Avenue"/></node>
<node id="-4" lat="45.406352856" lon="-122.797231117" visible="true"><tag k="addr:housenumber" v="15575"/><tag k="addr:postcode" v="97224"/><tag k="addr:city" v="Tigard"/><tag k="addr:street" v="Southwest 116th Avenue"/></node>
<node id="-5" lat="45.406350121" lon="-122.797228906" visible="true"><tag k="addr:housenumber" v="15577"/><tag k="addr:postcode" v="97224"/><tag k="addr:city" v="Tigard"/><tag k="addr:street" v="Southwest 116th Avenue"/></node>
<node id="-6" lat="45.406350059" lon="-122.797233151" visible="true"><tag k="addr:housenumber" v="15581"/><tag k="addr:postcode" v="97224"/><tag k="addr:city" v="Tigard"/><tag k="addr:street" v="Southwest 116th Avenue"/></node>
<node id="-7" lat="45.406352561" lon="-122.797231621" visible="true"><tag k="addr:housenumber" v="15585"/><tag k="addr:postcode" v="97224"/><tag k="addr:city" v="Tigard"/><tag k="addr:street" v="Southwest 116th Avenue"/></node>
<node id="-8" lat="45.406349742" lon="-122.797234733" visible="true"><tag k="addr:housenumber" v="15591"/><tag k="addr:postcode" v="97224"/><tag k="addr:city" v="Tigard"/><tag k="addr:street" v="Southwest 116th Avenue"/></node>
<node id="-9" lat="45.406351714" lon="-122.797235587" visible="true"><tag k="addr:housenumber" v="15595"/><tag k="addr:postcode" v="97224"/><tag k="addr:city" v="Tigard"/><tag k="addr:street" v="Southwest 116th Avenue"/></node>
<node id="-10" lat="45.406349362" lon="-122.797236617" visible="true"><tag k="addr:housenumber" v="15599"/><tag k="addr:postcode" v="97224"/><tag k="addr:city" v="Tigard"/><tag k="addr:street" v="Southwest 116th Avenue"/></node>
<node id="-11" lat="45.406347378" lon="-122.797235376" visible="true"><tag k="addr:housenumber" v="15601"/><tag k="addr:postcode" v="97224"/><tag k="addr:city" v="Tigard"/><tag k="addr:street" v="Southwest 116th Avenue"/></node>
<node id="-12" lat="45.406345501" lon="-122.797232124" visible="true"><tag k="addr:housenumber" v="15603"/><tag k="addr:postcode" v="97224"/><tag k="addr:city" v="Tigard"/><tag k="addr:street" v="Southwest 116th Avenue"/></node>
<node id="-13" lat="45.406350149" lon="-122.79723069" visible="true"><tag k="addr:housenumber" v="15605"/><tag k="addr:postcode" v="97224"/><tag k="addr:city" v="Tigard"/><tag k="addr:street" v="Southwest 116th Avenue"/></node>
<node id="-14" lat="45.406347747" lon="-122.797229044" visible="true"><tag k="addr:housenumber" v="15655"/><tag k="addr:postcode" v="97224"/><tag k="addr:city" v="Tigard"/><tag k="addr:street" v="Southwest 116th Avenue"/></node>
<node id="-15" lat="45.406349447" lon="-122.797230668" visible="true"><tag k="addr:housenumber" v="15685"/><tag k="addr:postcode" v="97224"/><tag k="addr:city" v="Tigard"/><tag k="addr:street" v="Southwest 116th Avenue"/></node>
<node id="-16" lat="45.406354074" lon="-122.797226679" visible="true"><tag k="addr:housenumber" v="15705"/><tag k="addr:postcode" v="97224"/><tag k="addr:city" v="Tigard"/><tag k="addr:street" v="Southwest 116th Avenue"/></node>
<node id="-17" lat="45.406348964" lon="-122.797233308" visible="true"><tag k="addr:housenumber" v="15715"/><tag k="addr:postcode" v="97224"/><tag k="addr:city" v="Tigard"/><tag k="addr:street" v="Southwest 116th Avenue"/></node>
<node id="-18" lat="45.405859871" lon="-122.797580381" visible="true"><tag k="addr:housenumber" v="15725"/><tag k="addr:postcode" v="97224"/><tag k="addr:city" v="Tigard"/><tag k="addr:street" v="Southwest 116th Avenue"/></node>
<node id="-19" lat="45.406348059" lon="-122.797227713" visible="true"><tag k="addr:housenumber" v="15745"/><tag k="addr:postcode" v="97224"/><tag k="addr:city" v="Tigard"/><tag k="addr:street" v="Southwest 116th Avenue"/></node>
<node id="-20" lat="45.406351862" lon="-122.797227456" visible="true"><tag k="addr:housenumber" v="15785"/><tag k="addr:postcode" v="97224"/><tag k="addr:city" v="Tigard"/><tag k="addr:street" v="Southwest 116th Avenue"/></node>
<node id="-21" lat="45.381033553" lon="-122.798363365" visible="true"><tag k="addr:housenumber" v="19300"/><tag k="addr:postcode" v="97062"/><tag k="addr:city" v="Tualatin"/><tag k="addr:street" v="Southwest 118th Avenue"/></node>
<node id="-22" lat="45.381195643" lon="-122.799685704" visible="true"><tag k="addr:housenumber" v="19333"/><tag k="addr:postcode" v="97062"/><tag k="addr:city" v="Tualatin"/><tag k="addr:street" v="Southwest 118th Avenue"/></node>
<node id="-23" lat="45.381100682" lon="-122.798451197" visible="true"><tag k="addr:housenumber" v="19350"/><tag k="addr:postcode" v="97062"/><tag k="addr:city" v="Tualatin"/><tag k="addr:street" v="Southwest 118th Avenue"/></node>
<node id="-24" lat="45.38118764" lon="-122.79839137" visible="true"><tag k="addr:housenumber" v="19380"/><tag k="addr:postcode" v="97062"/><tag k="addr:city" v="Tualatin"/><tag k="addr:street" v="Southwest 118th Avenue"/></node>
<node id="-25" lat="45.377481113" lon="-122.79803512" visible="true"><tag k="addr:housenumber" v="19650"/><tag k="addr:postcode" v="97062"/><tag k="addr:city" v="Tualatin"/><tag k="addr:street" v="Southwest 118th Avenue"/></node>
<node id="-26" lat="45.377822748" lon="-122.798083187" visible="true"><tag k="addr:housenumber" v="19670"/><tag k="addr:postcode" v="97062"/><tag k="addr:city" v="Tualatin"/><tag k="addr:street" v="Southwest 118th Avenue"/></node>
<node id="-27" lat="45.37773965" lon="-122.79830464" visible="true"><tag k="addr:housenumber" v="19680"/><tag k="addr:postcode" v="97062"/><tag k="addr:city" v="Tualatin"/><tag k="addr:street" v="Southwest 118th Avenue"/></node>
<node id="-28" lat="45.377608129" lon="-122.798038093" visible="true"><tag k="addr:housenumber" v="19700"/><tag k="addr:postcode" v="97062"/><tag k="addr:city" v="Tualatin"/><tag k="addr:street" v="Southwest 118th Avenue"/></node>
<node id="-29" lat="45.410202804" lon="-122.799735305" visible="true"><tag k="addr:housenumber" v="15170"/><tag k="addr:postcode" v="97224"/><tag k="addr:city" v="Tigard"/><tag k="addr:street" v="Southwest 119th Avenue"/></node>
<node id="-30" lat="45.410209108" lon="-122.799734732" visible="true"><tag k="addr:housenumber" v="15172"/><tag k="addr:postcode" v="97224"/><tag k="addr:city" v="Tigard"/><tag k="addr:street" v="Southwest 119th Avenue"/></node>
<node id="-31" lat="45.410253909" lon="-122.800321925" visible="true"><tag k="addr:housenumber" v="15185"/><tag k="addr:postcode" v="97224"/><tag k="addr:city" v="Tigard"/><tag k="addr:street" v="Southwest 119th Avenue"/></node>
<node id="-32" lat="45.410255561" lon="-122.800326665" visible="true"><tag k="addr:housenumber" v="15187"/><tag k="addr:postcode" v="97224"/><tag k="addr:city" v="Tigard"/><tag k="addr:street" v="Southwest 119th Avenue"/></node>
<node id="-33" lat="45.40998698" lon="-122.800302868" visible="true"><tag k="addr:housenumber" v="15205"/><tag k="addr:postcode" v="97224"/><tag k="addr:city" v="Tigard"/><tag k="addr:street" v="Southwest 119th Avenue"/></node>
<node id="-34" lat="45.409985983" lon="-122.8003078" visible="true"><tag k="addr:housenumber" v="15207"/><tag k="addr:postcode" v="97224"/><tag k="addr:city" v="Tigard"/><tag k="addr:street" v="Southwest 119th Avenue"/></node>
<node id="-35" lat="45.379911039" lon="-122.805785023" visible="true"><tag k="addr:housenumber" v="19350"/><tag k="addr:postcode" v="97062"/><tag k="addr:city" v="Tualatin"/><tag k="addr:street" v="Southwest 125th Court"/></node>
<node id="-36" lat="45.37999154" lon="-122.80769359" visible="true"><tag k="addr:housenumber" v="19355"/><tag k="addr:postcode" v="97062"/><tag k="addr:city" v="Tualatin"/><tag k="addr:street" v="Southwest 125th Court"/></node>
<node id="-37" lat="45.379953338" lon="-122.805908793" visible="true"><tag k="addr:housenumber" v="19400"/><tag k="addr:postcode" v="97062"/><tag k="addr:city" v="Tualatin"/><tag k="addr:street" v="Southwest 125th Court"/></node>
<node id="-38" lat="45.379938128" lon="-122.807526451" visible="true"><tag k="addr:housenumber" v="19405"/><tag k="addr:postcode" v="97062"/><tag k="addr:city" v="Tualatin"/><tag k="addr:street" v="Southwest 125th Court"/></node>
<node id="-39" lat="45.386956392" lon="-122.805063143" visible="true"><tag k="addr:housenumber" v="18300"/><tag k="addr:postcode" v="97062"/><tag k="addr:city" v="Tualatin"/><tag k="addr:street" v="Southwest 126th Place"/></node>
<node id="-40" lat="45.386958125" lon="-122.804958423" visible="true"><tag k="addr:housenumber" v="18340"/><tag k="addr:postcode" v="97062"/><tag k="addr:city" v="Tualatin"/><tag k="addr:street" v="Southwest 126th Place"/></node>
<node id="-41" lat="45.386965302" lon="-122.804875944" visible="true"><tag k="addr:housenumber" v="18348"/><tag k="addr:postcode" v="97062"/><tag k="addr:city" v="Tualatin"/><tag k="addr:street" v="Southwest 126th Place"/></node>
<node id="-42" lat="45.386104227" lon="-122.806138007" visible="true"><tag k="addr:housenumber" v="18420"/><tag k="addr:postcode" v="97062"/><tag k="addr:city" v="Tualatin"/><tag k="addr:street" v="Southwest 126th Place"/></node>
<node id="-43" lat="45.386234062" lon="-122.806151812" visible="true"><tag k="addr:housenumber" v="18460"/><tag k="addr:postcode" v="97062"/><tag k="addr:city" v="Tualatin"/><tag k="addr:street" v="Southwest 126th Place"/></node>
<node id="-44" lat="45.385337381" lon="-122.80608565" visible="true"><tag k="addr:housenumber" v="18510"/><tag k="addr:postcode" v="97062"/><tag k="addr:city" v="Tualatin"/><tag k="addr:street" v="Southwest 126th Place"/></node>
<node id="-45" lat="45.385322907" lon="-122.807466904" visible="true"><tag k="addr:housenumber" v="18525"/><tag k="addr:postcode" v="97062"/><tag k="addr:city" v="Tualatin"/><tag k="addr:street" v="Southwest 126th Place"/></node>
<node id="-46" lat="45.383450577" lon="-122.810769074" visible="true"><tag k="addr:housenumber" v="18872"/><tag k="addr:postcode" v="97062"/><tag k="addr:city" v="Tualatin"/><tag k="addr:street" v="Southwest 128th Avenue"/></node>
<node id="-47" lat="45.383445253" lon="-122.810770878" visible="true"><tag k="addr:housenumber" v="18873"/><tag k="addr:postcode" v="97062"/><tag k="addr:city" v="Tualatin"/><tag k="addr:street" v="Southwest 128th Avenue"/></node>
<node id="-48" lat="45.383453229" lon="-122.810769304" visible="true"><tag k="addr:housenumber" v="18932"/><tag k="addr:postcode" v="97062"/><tag k="addr:city" v="Tualatin"/><tag k="addr:street" v="Southwest 128th Avenue"/></node>
<node id="-49" lat="45.385702136" lon="-122.810130579" visible="true"><tag k="addr:housenumber" v="18502"/><tag k="addr:postcode" v="97062"/><tag k="addr:city" v="Tualatin"/><tag k="addr:street" v="Southwest 130th Avenue"/></node>
<node id="-50" lat="45.385703856" lon="-122.810130588" visible="true"><tag k="addr:housenumber" v="18510"/><tag k="addr:postcode" v="97062"/><tag k="addr:city" v="Tualatin"/><tag k="addr:street" v="Southwest 130th Avenue"/></node>
<node id="-51" lat="45.385703715" lon="-122.810133842" visible="true"><tag k="addr:housenumber" v="18520"/><tag k="addr:postcode" v="97062"/><tag k="addr:city" v="Tualatin"/><tag k="addr:street" v="Southwest 130th Avenue"/></node>
<node id="-52" lat="45.383447987" lon="-122.810774715" visible="true"><tag k="addr:housenumber" v="18615"/><tag k="addr:postcode" v="97062"/><tag k="addr:city" v="Tualatin"/><tag k="addr:street" v="Southwest 130th Avenue"/></node>
<node id="-53" lat="45.374052507" lon="-122.78848289" visible="true"><tag k="addr:housenumber" v="20150"/><tag k="addr:postcode" v="97062"/><tag k="addr:city" v="Tualatin"/><tag k="addr:street" v="Southwest Avery Court"/></node>
<node id="-54" lat="45.374046739" lon="-122.788477363" visible="true"><tag k="addr:housenumber" v="20160"/><tag k="addr:postcode" v="97062"/><tag k="addr:city" v="Tualatin"/><tag k="addr:street" v="Southwest Avery Court"/></node>
<node id="-55" lat="45.373706454" lon="-122.789228695" visible="true"><tag k="addr:housenumber" v="20166"/><tag k="addr:postcode" v="97062"/><tag k="addr:city" v="Tualatin"/><tag k="addr:street" v="Southwest Avery Court"/></node>
<node id="-56" lat="45.374046902" lon="-122.788482001" visible="true"><tag k="addr:housenumber" v="20170"/><tag k="addr:postcode" v="97062"/><tag k="addr:city" v="Tualatin"/><tag k="addr:street" v="Southwest Avery Court"/></node>
<node id="-57" lat="45.373708264" lon="-122.789225144" visible="true"><tag k="addr:housenumber" v="20190"/><tag k="addr:postcode" v="97062"/><tag k="addr:city" v="Tualatin"/><tag k="addr:street" v="Southwest Avery Court"/></node>
<node id="-58" lat="45.373706954" lon="-122.789228473" visible="true"><tag k="addr:housenumber" v="20200"/><tag k="addr:postcode" v="97062"/><tag k="addr:city" v="Tualatin"/><tag k="addr:street" v="Southwest Avery Court"/></node>
<node id="-59" lat="45.372913867" lon="-122.787344014" visible="true"><tag k="addr:housenumber" v="20360"/><tag k="addr:postcode" v="97062"/><tag k="addr:city" v="Tualatin"/><tag k="addr:street" v="Southwest Avery Court"/></node>
<node id="-60" lat="45.372351443" lon="-122.789213124" visible="true"><tag k="addr:housenumber" v="20393"/><tag k="addr:postcode" v="97062"/><tag k="addr:city" v="Tualatin"/><tag k="addr:street" v="Southwest Avery Court"/></node>
<node id="-61" lat="45.372365278" lon="-122.789100979" visible="true"><tag k="addr:housenumber" v="20395"/><tag k="addr:postcode" v="97062"/><tag k="addr:city" v="Tualatin"/><tag k="addr:street" v="Southwest Avery Court"/></node>
<node id="-62" lat="45.372742987" lon="-122.787613687" visible="true"><tag k="addr:housenumber" v="20400"/><tag k="addr:postcode" v="97062"/><tag k="addr:city" v="Tualatin"/><tag k="addr:street" v="Southwest Avery Court"/></node>
<node id="-63" lat="45.371968461" lon="-122.788587194" visible="true"><tag k="addr:housenumber" v="20469"/><tag k="addr:postcode" v="97062"/><tag k="addr:city" v="Tualatin"/><tag k="addr:street" v="Southwest Avery Court"/></node>
<node id="-64" lat="45.372088954" lon="-122.788426576" visible="true"><tag k="addr:housenumber" v="20475"/><tag k="addr:postcode" v="97062"/><tag k="addr:city" v="Tualatin"/><tag k="addr:street" v="Southwest Avery Court"/></node>
<node id="-65" lat="45.372042794" lon="-122.788557886" visible="true"><tag k="addr:housenumber" v="20493"/><tag k="addr:postcode" v="97062"/><tag k="addr:city" v="Tualatin"/><tag k="addr:street" v="Southwest Avery Court"/></node>
<node id="-66" lat="45.372149986" lon="-122.788505114" visible="true"><tag k="addr:housenumber" v="20497"/><tag k="addr:postcode" v="97062"/><tag k="addr:city" v="Tualatin"/><tag k="addr:street" v="Southwest Avery Court"/></node>
<node id="-67" lat="45.37202531" lon="-122.789117606" visible="true"><tag k="addr:housenumber" v="10801"/><tag k="addr:postcode" v="97062"/><tag k="addr:city" v="Tualatin"/><tag k="addr:street" v="Southwest Avery Street"/></node>
<node id="-68" lat="45.372017516" lon="-122.788966684" visible="true"><tag k="addr:housenumber" v="10825"/><tag k="addr:postcode" v="97062"/><tag k="addr:city" v="Tualatin"/><tag k="addr:street" v="Southwest Avery Street"/></node>
<node id="-69" lat="45.372103201" lon="-122.789763077" visible="true"><tag k="addr:housenumber" v="11055"/><tag k="addr:postcode" v="97062"/><tag k="addr:city" v="Tualatin"/><tag k="addr:street" v="Southwest Avery Street"/></node>
<node id="-70" lat="45.37210137" lon="-122.790085941" visible="true"><tag k="addr:housenumber" v="11095"/><tag k="addr:postcode" v="97062"/><tag k="addr:city" v="Tualatin"/><tag k="addr:street" v="Southwest Avery Street"/></node>
<node id="-71" lat="45.41055906" lon="-122.799074909" visible="true"><tag k="addr:housenumber" v="11855"/><tag k="addr:postcode" v="97224"/><tag k="addr:city" v="Tigard"/><tag k="addr:street" v="Southwest Beef Bend Road"/></node>
<node id="-72" lat="45.410556193" lon="-122.799076016" visible="true"><tag k="addr:housenumber" v="11857"/><tag k="addr:postcode" v="97224"/><tag k="addr:city" v="Tigard"/><tag k="addr:street" v="Southwest Beef Bend Road"/></node>
<node id="-73" lat="45.370584361" lon="-122.804718207" visible="true"><tag k="addr:housenumber" v="12310"/><tag k="addr:postcode" v="97062"/><tag k="addr:city" v="Tualatin"/><tag k="addr:street" v="Southwest Cimino Street"/></node>
<node id="-74" lat="45.370590218" lon="-122.80471915" visible="true"><tag k="addr:housenumber" v="12320"/><tag k="addr:postcode" v="97062"/><tag k="addr:city" v="Tualatin"/><tag k="addr:street" v="Southwest Cimino Street"/></node>
<node id="-75" lat="45.370586319" lon="-122.804715905" visible="true"><tag k="addr:housenumber" v="12340"/><tag k="addr:postcode" v="97062"/><tag k="addr:city" v="Tualatin"/><tag k="addr:street" v="Southwest Cimino Street"/></node>
<node id="-76" lat="45.379607222" lon="-122.815269633" visible="true"><tag k="addr:housenumber" v="19450"/><tag k="addr:postcode" v="97062"/><tag k="addr:city" v="Tualatin"/><tag k="addr:street" v="Southwest Cipole Road"/></node>
<node id="-77" lat="45.379632028" lon="-122.815277477" visible="true"><tag k="addr:housenumber" v="19452"/><tag k="addr:postcode" v="97062"/><tag k="addr:city" v="Tualatin"/><tag k="addr:street" v="Southwest Cipole Road"/></node>
<node id="-78" lat="45.380751608" lon="-122.799695505" visible="true"><tag k="addr:housenumber" v="11885"/><tag k="addr:postcode" v="97062"/><tag k="addr:city" v="Tualatin"/><tag k="addr:street" v="Southwest Herman Road"/></node>
<node id="-79" lat="45.380329121" lon="-122.802406379" visible="true"><tag k="addr:housenumber" v="12141"/><tag k="addr:postcode" v="97062"/><tag k="addr:city" v="Tualatin"/><tag k="addr:street" v="Southwest Herman Road"/></node>
<node id="-80" lat="45.38032483" lon="-122.802233495" visible="true"><tag k="addr:housenumber" v="12169"/><tag k="addr:postcode" v="97062"/><tag k="addr:city" v="Tualatin"/><tag k="addr:street" v="Southwest Herman Road"/></node>
<node id="-81" lat="45.384051021" lon="-122.800458477" visible="true"><tag k="addr:housenumber" v="11950"/><tag k="addr:postcode" v="97062"/><tag k="addr:city" v="Tualatin"/><tag k="addr:street" v="Southwest Leveton Drive"/></node>
<node id="-82" lat="45.384044037" lon="-122.800961354" visible="true"><tag k="addr:housenumber" v="11960"/><tag k="addr:postcode" v="97062"/><tag k="addr:city" v="Tualatin"/><tag k="addr:street" v="Southwest Leveton Drive"/></node>
<node id="-83" lat="45.385190716" lon="-122.805876886" visible="true"><tag k="addr:housenumber" v="12555"/><tag k="addr:postcode" v="97062"/><tag k="addr:city" v="Tualatin"/><tag k="addr:street" v="Southwest Leveton Drive"/></node>
<node id="-84" lat="45.38532919" lon="-122.80746921" visible="true"><tag k="addr:housenumber" v="12635"/><tag k="addr:postcode" v="97062"/><tag k="addr:city" v="Tualatin"/><tag k="addr:street" v="Southwest Leveton Drive"/></node>
<node id="-85" lat="45.385698334" lon="-122.810130727" visible="true"><tag k="addr:housenumber" v="12950"/><tag k="addr:postcode" v="97062"/><tag k="addr:city" v="Tualatin"/><tag k="addr:street" v="Southwest Leveton Drive"/></node>
<node id="-86" lat="45.37646349" lon="-122.786207371" visible="true"><tag k="addr:housenumber" v="10630"/><tag k="addr:postcode" v="97062"/><tag k="addr:city" v="Tualatin"/><tag k="addr:street" v="Southwest Manhasset Drive"/></node>
<node id="-87" lat="45.376385904" lon="-122.786334352" visible="true"><tag k="addr:housenumber" v="10640"/><tag k="addr:postcode" v="97062"/><tag k="addr:city" v="Tualatin"/><tag k="addr:street" v="Southwest Manhasset Drive"/></node>
<node id="-88" lat="45.376539172" lon="-122.786113215" visible="true"><tag k="addr:housenumber" v="10650"/><tag k="addr:postcode" v="97062"/><tag k="addr:city" v="Tualatin"/><tag k="addr:street" v="Southwest Manhasset Drive"/></node>
<node id="-89" lat="45.376643265" lon="-122.785936217" visible="true"><tag k="addr:housenumber" v="10660"/><tag k="addr:postcode" v="97062"/><tag k="addr:city" v="Tualatin"/><tag k="addr:street" v="Southwest Manhasset Drive"/></node>
<node id="-90" lat="45.386233752" lon="-122.812932634" visible="true"><tag k="addr:housenumber" v="18450"/><tag k="addr:postcode" v="97062"/><tag k="addr:city" v="Tualatin"/><tag k="addr:street" v="Southwest Pacific Drive"/></node>
<node id="-91" lat="45.386228577" lon="-122.812932356" visible="true"><tag k="addr:housenumber" v="18480"/><tag k="addr:postcode" v="97062"/><tag k="addr:city" v="Tualatin"/><tag k="addr:street" v="Southwest Pacific Drive"/></node>
<node id="-92" lat="45.385699765" lon="-122.810133729" visible="true"><tag k="addr:housenumber" v="18340"/><tag k="addr:postcode" v="97062"/><tag k="addr:city" v="Tualatin"/><tag k="addr:street" v="Southwest Pacific Highway"/></node>
<node id="-93" lat="45.383446998" lon="-122.810775075" visible="true"><tag k="addr:housenumber" v="18400"/><tag k="addr:postcode" v="97062"/><tag k="addr:city" v="Tualatin"/><tag k="addr:street" v="Southwest Pacific Highway"/></node>
</osm>