<?xml version="1.0"?>
<osm version="0.6" upload="false" generator="uvmogr2osm">
<node id="-1" lat="45.401198388" lon="-122.615273093" visible="true"><tag k="addr:housenumber" v="16805"/><tag k="addr:postcode" v="97267"/><tag k="addr:city" v="Portland"/><tag k="addr:street" v="Southeast Harold Avenue"/></node>
<node id="-2" lat="45.40120028" lon="-122.615271074" visible="true"><tag k="addr:housenumber" v="16817"/><tag k="addr:postcode" v="97267"/><tag k="addr:city" v="Portland"/><tag k="addr:street" v="Southeast Harold Avenue"/></node>
<node id="-3" lat="45.397926224" lon="-122.613994132" visible="true"><tag k="addr:housenumber" v="4707"/><tag k="addr:postcode" v="97267"/><tag k="addr:city" v="Portland"/><tag k="addr:street" v="Southeast Ina Avenue"/></node>
<node id="-4" lat="45.397998255" lon="-122.614048412" visible="true"><tag k="addr:housenumber" v="4709"/><tag k="addr:postcode" v="97267"/><tag k="addr:city" v="Portland"/><tag k="addr:street" v="Southeast Ina Avenue"/></node>
<node id="-5" lat="45.398071723" lon="-122.614108854" visible="true"><tag k="addr:housenumber" v="4711"/><tag k="addr:postcode" v="97267"/><tag k="addr:city" v="Portland"/><tag k="addr:street" v="Southeast Ina Avenue"/></node>
<node id="-6" lat="45.398179821" lon="-122.614222341" visible="true"><tag k="addr:housenumber" v="4713"/><tag k="addr:postcode" v="97267"/><tag k="addr:city" v="Portland"/><tag k="addr:street" v="Southeast Ina Avenue"/></node>
<node id="-7" lat="45.398280484" lon="-122.614304316" visible="true"><tag k="addr:housenumber" v="4715"/><tag k="addr:postcode" v="97267"/><tag k="addr:city" v="Portland"/><tag k="addr:street" v="Southeast Ina Avenue"/></node>
<node id="-8" lat="45.39835283" lon="-122.614363596" visible="true"><tag k="addr:housenumber" v="4717"/><tag k="addr:postcode" v="97267"/><tag k="addr:city" v="Portland"/><tag k="addr:street" v="Southeast Ina Avenue"/></node>
<node id="-9" lat="45.39733062" lon="-122.613228623" visible="true"><tag k="addr:housenumber" v="4802"/><tag k="addr:postcode" v="97267"/><tag k="addr:city" v="Portland"/><tag k="addr:street" v="Southeast Ina Avenue"/></node>
<node id="-10" lat="45.397294598" lon="-122.613190863" visible="true"><tag k="addr:housenumber" v="4804"/><tag k="addr:postcode" v="97267"/><tag k="addr:city" v="Portland"/><tag k="addr:street" v="Southeast Ina Avenue"/></node>
<node id="-11" lat="45.403591474" lon="-122.620055286" visible="true"><tag k="addr:housenumber" v="16442"/><tag k="addr:postcode" v="97267"/><tag k="addr:city" v="Portland"/><tag k="addr:street" v="Southeast Moon Avenue"/></node>
<node id="-12" lat="45.403650966" lon="-122.619954728" visible="true"><tag k="addr:housenumber" v="16444"/><tag k="addr:postcode" v="97267"/><tag k="addr:city" v="Portland"/><tag k="addr:street" v="Southeast Moon Avenue"/></node>
<node id="-13" lat="45.403645358" lon="-122.619850381" visible="true"><tag k="addr:housenumber" v="16446"/><tag k="addr:postcode" v="97267"/><tag k="addr:city" v="Portland"/><tag k="addr:street" v="Southeast Moon Avenue"/></node>
<node id="-14" lat="45.40341881" lon="-122.619821438" visible="true"><tag k="addr:housenumber" v="16570"/><tag k="addr:postcode" v="97267"/><tag k="addr:city" v="Portland"/><tag k="addr:street" v="Southeast Moon Avenue"/></node>
<node id="-15" lat="45.40346031" lon="-122.619723619" visible="true"><tag k="addr:housenumber" v="16572"/><tag k="addr:postcode" v="97267"/><tag k="addr:city" v="Portland"/><tag k="addr:street" v="Southeast Moon Avenue"/></node>
<node id="-16" lat="45.403545023" lon="-122.619748798" visible="true"><tag k="addr:housenumber" v="16574"/><tag k="addr:postcode" v="97267"/><tag k="addr:city" v="Portland"/><tag k="addr:street" v="Southeast Moon Avenue"/></node>
<node id="-17" lat="45.403308445" lon="-122.619701142" visible="true"><tag k="addr:housenumber" v="16602"/><tag k="addr:postcode" v="97267"/><tag k="addr:city" v="Portland"/><tag k="addr:street" v="Southeast Moon Avenue"/></node>
<node id="-18" lat="45.40334944" lon="-122.619625662" visible="true"><tag k="addr:housenumber" v="16604"/><tag k="addr:postcode" v="97267"/><tag k="addr:city" v="Portland"/><tag k="addr:street" v="Southeast Moon Avenue"/></node>
<node id="-19" lat="45.403397232" lon="-122.61955569" visible="true"><tag k="addr:housenumber" v="16606"/><tag k="addr:postcode" v="97267"/><tag k="addr:city" v="Portland"/><tag k="addr:street" v="Southeast Moon Avenue"/></node>
<node id="-20" lat="45.403127889" lon="-122.619452041" visible="true"><tag k="addr:housenumber" v="16620"/><tag k="addr:postcode" v="97267"/><tag k="addr:city" v="Portland"/><tag k="addr:street" v="Southeast Moon Avenue"/></node>
<node id="-21" lat="45.403161519" lon="-122.61938149" visible="true"><tag k="addr:housenumber" v="16622"/><tag k="addr:postcode" v="97267"/><tag k="addr:city" v="Portland"/><tag k="addr:street" v="Southeast Moon Avenue"/></node>
<node id="-22" lat="45.403212119" lon="-122.619309702" visible="true"><tag k="addr:housenumber" v="16624"/><tag k="addr:postcode" v="97267"/><tag k="addr:city" v="Portland"/><tag k="addr:street" v="Southeast Moon Avenue"/></node>
<node id="-23" lat="45.399912209" lon="-122.616908391" visible="true"><tag k="addr:housenumber" v="4431"/><tag k="addr:postcode" v="97267"/><tag k="addr:city" v="Portland"/><tag k="addr:street" v="Southeast Roethe Road"/></node>
<node id="-24" lat="45.399965642" lon="-122.616976229" visible="true"><tag k="addr:housenumber" v="4433"/><tag k="addr:postcode" v="97267"/><tag k="addr:city" v="Portland"/><tag k="addr:street" v="Southeast Roethe Road"/></node>
<node id="-25" lat="45.400010901" lon="-122.617038577" visible="true"><tag k="addr:housenumber" v="4435"/><tag k="addr:postcode" v="97267"/><tag k="addr:city" v="Portland"/><tag k="addr:street" v="Southeast Roethe Road"/></node>
<node id="-26" lat="45.39863629" lon="-122.613457728" visible="true"><tag k="addr:housenumber" v="17169"/><tag k="addr:postcode" v="97267"/><tag k="addr:city" v="Portland"/><tag k="addr:street" v="Southeast Sheela Court"/></node>
<node id="-27" lat="45.398687114" lon="-122.613496512" visible="true"><tag k="addr:housenumber" v="17171"/><tag k="addr:postcode" v="97267"/><tag k="addr:city" v="Portland"/><tag k="addr:street" v="Southeast Sheela Court"/></node>
</osm>