<?xml version="1.0"?>
<osm version="0.6" upload="false" generator="uvmogr2osm">
<node id="-1" lat="45.386672819" lon="-122.605604579" visible="true"><tag k="addr:housenumber" v="18900"/><tag k="addr:postcode" v="97027"/><tag k="addr:city" v="Gladstone"/><tag k="addr:street" v="Abernethy Lane"/></node>
<node id="-2" lat="45.386627237" lon="-122.605520394" visible="true"><tag k="addr:housenumber" v="18910"/><tag k="addr:postcode" v="97027"/><tag k="addr:city" v="Gladstone"/><tag k="addr:street" v="Abernethy Lane"/></node>
<node id="-3" lat="45.385817069" lon="-122.60414939" visible="true"><tag k="addr:housenumber" v="19010"/><tag k="addr:postcode" v="97027"/><tag k="addr:city" v="Gladstone"/><tag k="addr:street" v="Abernethy Lane"/></node>
<node id="-4" lat="45.38577464" lon="-122.604084082" visible="true"><tag k="addr:housenumber" v="19012"/><tag k="addr:postcode" v="97027"/><tag k="addr:city" v="Gladstone"/><tag k="addr:street" v="Abernethy Lane"/></node>
<node id="-5" lat="45.384966331" lon="-122.603080529" visible="true"><tag k="addr:housenumber" v="19126"/><tag k="addr:postcode" v="97027"/><tag k="addr:city" v="Gladstone"/><tag k="addr:street" v="Abernethy Lane"/></node>
<node id="-6" lat="45.384908904" lon="-122.602966243" visible="true"><tag k="addr:housenumber" v="19128"/><tag k="addr:postcode" v="97027"/><tag k="addr:city" v="Gladstone"/><tag k="addr:street" v="Abernethy Lane"/></node>
<node id="-7" lat="45.384751475" lon="-122.602672842" visible="true"><tag k="addr:housenumber" v="19200"/><tag k="addr:postcode" v="97027"/><tag k="addr:city" v="Gladstone"/><tag k="addr:street" v="Abernethy Lane"/></node>
<node id="-8" lat="45.384702292" lon="-122.602602492" visible="true"><tag k="addr:housenumber" v="19202"/><tag k="addr:postcode" v="97027"/><tag k="addr:city" v="Gladstone"/><tag k="addr:street" v="Abernethy Lane"/></node>
<node id="-9" lat="45.384654943" lon="-122.602527948" visible="true"><tag k="addr:housenumber" v="19204"/><tag k="addr:postcode" v="97027"/><tag k="addr:city" v="Gladstone"/><tag k="addr:street" v="Abernethy Lane"/></node>
<node id="-10" lat="45.379027485" lon="-122.600078605" visible="true"><tag k="addr:housenumber" v="555"/><tag k="addr:postcode" v="97027"/><tag k="addr:city" v="Gladstone"/><tag k="addr:street" v="Barton Avenue"/></node>
<node id="-11" lat="45.378931794" lon="-122.600026168" visible="true"><tag k="addr:housenumber" v="565"/><tag k="addr:postcode" v="97027"/><tag k="addr:city" v="Gladstone"/><tag k="addr:street" v="Barton Avenue"/></node>
<node id="-12" lat="45.381804746" lon="-122.600015944" visible="true"><tag k="addr:housenumber" v="910"/><tag k="addr:postcode" v="97027"/><tag k="addr:city" v="Gladstone"/><tag k="addr:street" v="Beatrice Avenue"/></node>
<node id="-13" lat="45.381882718" lon="-122.600084381" visible="true"><tag k="addr:housenumber" v="920"/><tag k="addr:postcode" v="97027"/><tag k="addr:city" v="Gladstone"/><tag k="addr:street" v="Beatrice Avenue"/></node>
<node id="-14" lat="45.388861016" lon="-122.602058499" visible="true"><tag k="addr:housenumber" v="5820"/><tag k="addr:postcode" v="97027"/><tag k="addr:city" v="Gladstone"/><tag k="addr:street" v="Glen Echo Avenue"/></node>
<node id="-15" lat="45.388884109" lon="-122.601975563" visible="true"><tag k="addr:housenumber" v="5822"/><tag k="addr:postcode" v="97027"/><tag k="addr:city" v="Gladstone"/><tag k="addr:street" v="Glen Echo Avenue"/></node>
<node id="-16" lat="45.388921191" lon="-122.601836307" visible="true"><tag k="addr:housenumber" v="5830"/><tag k="addr:postcode" v="97027"/><tag k="addr:city" v="Gladstone"/><tag k="addr:street" v="Glen Echo Avenue"/></node>
<node id="-17" lat="45.388939876" lon="-122.601771409" visible="true"><tag k="addr:housenumber" v="5832"/><tag k="addr:postcode" v="97027"/><tag k="addr:city" v="Gladstone"/><tag k="addr:street" v="Glen Echo Avenue"/></node>
<node id="-18" lat="45.380475294" lon="-122.603805657" visible="true"><tag k="addr:housenumber" v="19470"/><tag k="addr:postcode" v="97027"/><tag k="addr:city" v="Gladstone"/><tag k="addr:street" v="Mcloughlin Boulevard"/></node>
<node id="-19" lat="45.380478813" lon="-122.603808381" visible="true"><tag k="addr:housenumber" v="19490"/><tag k="addr:postcode" v="97027"/><tag k="addr:city" v="Gladstone"/><tag k="addr:street" v="Mcloughlin Boulevard"/></node>
<node id="-20" lat="45.381180359" lon="-122.609064161" visible="true"><tag k="addr:housenumber" v="5210"/><tag k="addr:postcode" v="97027"/><tag k="addr:city" v="Gladstone"/><tag k="addr:street" v="Rinearson Road"/></node>
<node id="-21" lat="45.381123376" lon="-122.609017208" visible="true"><tag k="addr:housenumber" v="5212"/><tag k="addr:postcode" v="97027"/><tag k="addr:city" v="Gladstone"/><tag k="addr:street" v="Rinearson Road"/></node>
<node id="-22" lat="45.381085885" lon="-122.608979322" visible="true"><tag k="addr:housenumber" v="5214"/><tag k="addr:postcode" v="97027"/><tag k="addr:city" v="Gladstone"/><tag k="addr:street" v="Rinearson Road"/></node>
<node id="-23" lat="45.381028442" lon="-122.60892414" visible="true"><tag k="addr:housenumber" v="5216"/><tag k="addr:postcode" v="97027"/><tag k="addr:city" v="Gladstone"/><tag k="addr:street" v="Rinearson Road"/></node>
<node id="-24" lat="45.380973448" lon="-122.608884191" visible="true"><tag k="addr:housenumber" v="5218"/><tag k="addr:postcode" v="97027"/><tag k="addr:city" v="Gladstone"/><tag k="addr:street" v="Rinearson Road"/></node>
<node id="-25" lat="45.380938738" lon="-122.608837415" visible="true"><tag k="addr:housenumber" v="5220"/><tag k="addr:postcode" v="97027"/><tag k="addr:city" v="Gladstone"/><tag k="addr:street" v="Rinearson Road"/></node>
<node id="-26" lat="45.380889145" lon="-122.608569593" visible="true"><tag k="addr:housenumber" v="5222"/><tag k="addr:postcode" v="97027"/><tag k="addr:city" v="Gladstone"/><tag k="addr:street" v="Rinearson Road"/></node>
<node id="-27" lat="45.380848812" lon="-122.608517283" visible="true"><tag k="addr:housenumber" v="5224"/><tag k="addr:postcode" v="97027"/><tag k="addr:city" v="Gladstone"/><tag k="addr:street" v="Rinearson Road"/></node>
<node id="-28" lat="45.380806793" lon="-122.608468793" visible="true"><tag k="addr:housenumber" v="5226"/><tag k="addr:postcode" v="97027"/><tag k="addr:city" v="Gladstone"/><tag k="addr:street" v="Rinearson Road"/></node>
<node id="-29" lat="45.38075146" lon="-122.608424589" visible="true"><tag k="addr:housenumber" v="5228"/><tag k="addr:postcode" v="97027"/><tag k="addr:city" v="Gladstone"/><tag k="addr:street" v="Rinearson Road"/></node>
<node id="-30" lat="45.380695752" lon="-122.608363496" visible="true"><tag k="addr:housenumber" v="5230"/><tag k="addr:postcode" v="97027"/><tag k="addr:city" v="Gladstone"/><tag k="addr:street" v="Rinearson Road"/></node>
<node id="-31" lat="45.380648142" lon="-122.608314206" visible="true"><tag k="addr:housenumber" v="5232"/><tag k="addr:postcode" v="97027"/><tag k="addr:city" v="Gladstone"/><tag k="addr:street" v="Rinearson Road"/></node>
<node id="-32" lat="45.373241608" lon="-122.607050885" visible="true"><tag k="addr:housenumber" v="19825"/><tag k="addr:postcode" v="97027"/><tag k="addr:city" v="Gladstone"/><tag k="addr:street" v="River Road"/></node>
<node id="-33" lat="45.373247184" lon="-122.607052903" visible="true"><tag k="addr:housenumber" v="600"/><tag k="addr:postcode" v="97027"/><tag k="addr:city" v="Gladstone"/><tag k="addr:street" v="River Road"/></node>
<node id="-34" lat="45.385990537" lon="-122.607261905" visible="true"><tag k="addr:housenumber" v="5411"/><tag k="addr:postcode" v="97267"/><tag k="addr:city" v="Portland"/><tag k="addr:street" v="Southeast Glen Echo Avenue"/></node>
<node id="-35" lat="45.386026096" lon="-122.607326843" visible="true"><tag k="addr:housenumber" v="5413"/><tag k="addr:postcode" v="97267"/><tag k="addr:city" v="Portland"/><tag k="addr:street" v="Southeast Glen Echo Avenue"/></node>
<node id="-36" lat="45.38610698" lon="-122.607388154" visible="true"><tag k="addr:housenumber" v="5415"/><tag k="addr:postcode" v="97267"/><tag k="addr:city" v="Portland"/><tag k="addr:street" v="Southeast Glen Echo Avenue"/></node>
<node id="-37" lat="45.386150788" lon="-122.6073362" visible="true"><tag k="addr:housenumber" v="5417"/><tag k="addr:postcode" v="97267"/><tag k="addr:city" v="Portland"/><tag k="addr:street" v="Southeast Glen Echo Avenue"/></node>
<node id="-38" lat="45.386185204" lon="-122.607125275" visible="true"><tag k="addr:housenumber" v="5419"/><tag k="addr:postcode" v="97267"/><tag k="addr:city" v="Portland"/><tag k="addr:street" v="Southeast Glen Echo Avenue"/></node>
<node id="-39" lat="45.38630033" lon="-122.607132453" visible="true"><tag k="addr:housenumber" v="5421"/><tag k="addr:postcode" v="97267"/><tag k="addr:city" v="Portland"/><tag k="addr:street" v="Southeast Glen Echo Avenue"/></node>
<node id="-40" lat="45.383016324" lon="-122.608261184" visible="true"><tag k="addr:housenumber" v="19300"/><tag k="addr:postcode" v="97267"/><tag k="addr:city" v="Portland"/><tag k="addr:street" v="Southeast River Road"/></node>
<node id="-41" lat="45.383031179" lon="-122.608216644" visible="true"><tag k="addr:housenumber" v="19302"/><tag k="addr:postcode" v="97267"/><tag k="addr:city" v="Portland"/><tag k="addr:street" v="Southeast River Road"/></node>
<node id="-42" lat="45.383049115" lon="-122.608163235" visible="true"><tag k="addr:housenumber" v="19304"/><tag k="addr:postcode" v="97267"/><tag k="addr:city" v="Portland"/><tag k="addr:street" v="Southeast River Road"/></node>
<node id="-43" lat="45.383066016" lon="-122.608114972" visible="true"><tag k="addr:housenumber" v="19306"/><tag k="addr:postcode" v="97267"/><tag k="addr:city" v="Portland"/><tag k="addr:street" v="Southeast River Road"/></node>
<node id="-44" lat="45.383085589" lon="-122.60806929" visible="true"><tag k="addr:housenumber" v="19308"/><tag k="addr:postcode" v="97267"/><tag k="addr:city" v="Portland"/><tag k="addr:street" v="Southeast River Road"/></node>
<node id="-45" lat="45.37967147" lon="-122.600541338" visible="true"><tag k="addr:housenumber" v="385"/><tag k="addr:postcode" v="97027"/><tag k="addr:city" v="Gladstone"/><tag k="addr:street" v="West Fairfield Street"/></node>
<node id="-46" lat="45.379672794" lon="-122.600543086" visible="true"><tag k="addr:housenumber" v="395"/><tag k="addr:postcode" v="97027"/><tag k="addr:city" v="Gladstone"/><tag k="addr:street" v="West Fairfield Street"/></node>
<node id="-47" lat="45.380487796" lon="-122.601896915" visible="true"><tag k="addr:housenumber" v="420"/><tag k="addr:postcode" v="97027"/><tag k="addr:city" v="Gladstone"/><tag k="addr:street" v="West Gloucester Street"/></node>
<node id="-48" lat="45.380445308" lon="-122.601852718" visible="true"><tag k="addr:housenumber" v="430"/><tag k="addr:postcode" v="97027"/><tag k="addr:city" v="Gladstone"/><tag k="addr:street" v="West Gloucester Street"/></node>
<node id="-49" lat="45.379847183" lon="-122.601332843" visible="true"><tag k="addr:housenumber" v="437"/><tag k="addr:postcode" v="97027"/><tag k="addr:city" v="Gladstone"/><tag k="addr:street" v="West Gloucester Street"/></node>
<node id="-50" lat="45.379802674" lon="-122.601312212" visible="true"><tag k="addr:housenumber" v="439"/><tag k="addr:postcode" v="97027"/><tag k="addr:city" v="Gladstone"/><tag k="addr:street" v="West Gloucester Street"/></node>
<node id="-51" lat="45.38040485" lon="-122.60178071" visible="true"><tag k="addr:housenumber" v="440"/><tag k="addr:postcode" v="97027"/><tag k="addr:city" v="Gladstone"/><tag k="addr:street" v="West Gloucester Street"/></node>
<node id="-52" lat="45.379935942" lon="-122.601738549" visible="true"><tag k="addr:housenumber" v="441"/><tag k="addr:postcode" v="97027"/><tag k="addr:city" v="Gladstone"/><tag k="addr:street" v="West Gloucester Street"/></node>
<node id="-53" lat="45.379819554" lon="-122.601619074" visible="true"><tag k="addr:housenumber" v="445"/><tag k="addr:postcode" v="97027"/><tag k="addr:city" v="Gladstone"/><tag k="addr:street" v="West Gloucester Street"/></node>
<node id="-54" lat="45.38039521" lon="-122.602097149" visible="true"><tag k="addr:housenumber" v="450"/><tag k="addr:postcode" v="97027"/><tag k="addr:city" v="Gladstone"/><tag k="addr:street" v="West Gloucester Street"/></node>
<node id="-55" lat="45.380356754" lon="-122.602065002" visible="true"><tag k="addr:housenumber" v="460"/><tag k="addr:postcode" v="97027"/><tag k="addr:city" v="Gladstone"/><tag k="addr:street" v="West Gloucester Street"/></node>
<node id="-56" lat="45.379504103" lon="-122.601649397" visible="true"><tag k="addr:housenumber" v="461"/><tag k="addr:postcode" v="97027"/><tag k="addr:city" v="Gladstone"/><tag k="addr:street" v="West Gloucester Street"/></node>
<node id="-57" lat="45.379438527" lon="-122.601607532" visible="true"><tag k="addr:housenumber" v="463"/><tag k="addr:postcode" v="97027"/><tag k="addr:city" v="Gladstone"/><tag k="addr:street" v="West Gloucester Street"/></node>
<node id="-58" lat="45.379389041" lon="-122.601568099" visible="true"><tag k="addr:housenumber" v="465"/><tag k="addr:postcode" v="97027"/><tag k="addr:city" v="Gladstone"/><tag k="addr:street" v="West Gloucester Street"/></node>
<node id="-59" lat="45.379341538" lon="-122.601534995" visible="true"><tag k="addr:housenumber" v="467"/><tag k="addr:postcode" v="97027"/><tag k="addr:city" v="Gladstone"/><tag k="addr:street" v="West Gloucester Street"/></node>
<node id="-60" lat="45.380326431" lon="-122.602038823" visible="true"><tag k="addr:housenumber" v="470"/><tag k="addr:postcode" v="97027"/><tag k="addr:city" v="Gladstone"/><tag k="addr:street" v="West Gloucester Street"/></node>
<node id="-61" lat="45.379272783" lon="-122.601656226" visible="true"><tag k="addr:housenumber" v="471"/><tag k="addr:postcode" v="97027"/><tag k="addr:city" v="Gladstone"/><tag k="addr:street" v="West Gloucester Street"/></node>
<node id="-62" lat="45.379240924" lon="-122.601730642" visible="true"><tag k="addr:housenumber" v="473"/><tag k="addr:postcode" v="97027"/><tag k="addr:city" v="Gladstone"/><tag k="addr:street" v="West Gloucester Street"/></node>
<node id="-63" lat="45.379194457" lon="-122.601804299" visible="true"><tag k="addr:housenumber" v="475"/><tag k="addr:postcode" v="97027"/><tag k="addr:city" v="Gladstone"/><tag k="addr:street" v="West Gloucester Street"/></node>
<node id="-64" lat="45.379161511" lon="-122.60187513" visible="true"><tag k="addr:housenumber" v="477"/><tag k="addr:postcode" v="97027"/><tag k="addr:city" v="Gladstone"/><tag k="addr:street" v="West Gloucester Street"/></node>
<node id="-65" lat="45.380266627" lon="-122.602237714" visible="true"><tag k="addr:housenumber" v="480"/><tag k="addr:postcode" v="97027"/><tag k="addr:city" v="Gladstone"/><tag k="addr:street" v="West Gloucester Street"/></node>
<node id="-66" lat="45.379226701" lon="-122.60224882" visible="true"><tag k="addr:housenumber" v="481"/><tag k="addr:postcode" v="97027"/><tag k="addr:city" v="Gladstone"/><tag k="addr:street" v="West Gloucester Street"/></node>
<node id="-67" lat="45.379194048" lon="-122.602312609" visible="true"><tag k="addr:housenumber" v="483"/><tag k="addr:postcode" v="97027"/><tag k="addr:city" v="Gladstone"/><tag k="addr:street" v="West Gloucester Street"/></node>
<node id="-68" lat="45.37916787" lon="-122.602350479" visible="true"><tag k="addr:housenumber" v="485"/><tag k="addr:postcode" v="97027"/><tag k="addr:city" v="Gladstone"/><tag k="addr:street" v="West Gloucester Street"/></node>
<node id="-69" lat="45.379146942" lon="-122.602417483" visible="true"><tag k="addr:housenumber" v="487"/><tag k="addr:postcode" v="97027"/><tag k="addr:city" v="Gladstone"/><tag k="addr:street" v="West Gloucester Street"/></node>
<node id="-70" lat="45.380216858" lon="-122.602175805" visible="true"><tag k="addr:housenumber" v="490"/><tag k="addr:postcode" v="97027"/><tag k="addr:city" v="Gladstone"/><tag k="addr:street" v="West Gloucester Street"/></node>
</osm>