<?xml version="1.0"?>
<osm version="0.6" upload="false" generator="uvmogr2osm">
<node id="-1" lat="45.357987533" lon="-122.601267592" visible="true"><tag k="addr:housenumber" v="711"/><tag k="addr:postcode" v="97045"/><tag k="addr:city" v="Oregon City"/><tag k="addr:street" v="10th Street"/></node>
<node id="-2" lat="45.357978879" lon="-122.601175669" visible="true"><tag k="addr:housenumber" v="715"/><tag k="addr:postcode" v="97045"/><tag k="addr:city" v="Oregon City"/><tag k="addr:street" v="10th Street"/></node>
<node id="-3" lat="45.360185056" lon="-122.604925635" visible="true"><tag k="addr:housenumber" v="102"/><tag k="addr:postcode" v="97045"/><tag k="addr:city" v="Oregon City"/><tag k="addr:street" v="11th Street"/></node>
<node id="-4" lat="45.360104405" lon="-122.604857141" visible="true"><tag k="addr:housenumber" v="104"/><tag k="addr:postcode" v="97045"/><tag k="addr:city" v="Oregon City"/><tag k="addr:street" v="11th Street"/></node>
<node id="-5" lat="45.360022045" lon="-122.604813979" visible="true"><tag k="addr:housenumber" v="108"/><tag k="addr:postcode" v="97045"/><tag k="addr:city" v="Oregon City"/><tag k="addr:street" v="11th Street"/></node>
<node id="-6" lat="45.359904205" lon="-122.604635535" visible="true"><tag k="addr:housenumber" v="112"/><tag k="addr:postcode" v="97045"/><tag k="addr:city" v="Oregon City"/><tag k="addr:street" v="11th Street"/></node>
<node id="-7" lat="45.360758435" lon="-122.602815879" visible="true"><tag k="addr:housenumber" v="201"/><tag k="addr:postcode" v="97045"/><tag k="addr:city" v="Oregon City"/><tag k="addr:street" v="12th Street"/></node>
<node id="-8" lat="45.36012381" lon="-122.602305836" visible="true"><tag k="addr:housenumber" v="504"/><tag k="addr:postcode" v="97045"/><tag k="addr:city" v="Oregon City"/><tag k="addr:street" v="12th Street"/></node>
<node id="-9" lat="45.360090232" lon="-122.602234305" visible="true"><tag k="addr:housenumber" v="506"/><tag k="addr:postcode" v="97045"/><tag k="addr:city" v="Oregon City"/><tag k="addr:street" v="12th Street"/></node>
<node id="-10" lat="45.360576851" lon="-122.599808149" visible="true"><tag k="addr:housenumber" v="611"/><tag k="addr:postcode" v="97045"/><tag k="addr:city" v="Oregon City"/><tag k="addr:street" v="13th Street"/></node>
<node id="-11" lat="45.360605325" lon="-122.599867281" visible="true"><tag k="addr:housenumber" v="613"/><tag k="addr:postcode" v="97045"/><tag k="addr:city" v="Oregon City"/><tag k="addr:street" v="13th Street"/></node>
<node id="-12" lat="45.360621736" lon="-122.599769161" visible="true"><tag k="addr:housenumber" v="615"/><tag k="addr:postcode" v="97045"/><tag k="addr:city" v="Oregon City"/><tag k="addr:street" v="13th Street"/></node>
<node id="-13" lat="45.360654635" lon="-122.599826287" visible="true"><tag k="addr:housenumber" v="617"/><tag k="addr:postcode" v="97045"/><tag k="addr:city" v="Oregon City"/><tag k="addr:street" v="13th Street"/></node>
<node id="-14" lat="45.357789385" lon="-122.609490294" visible="true"><tag k="addr:housenumber" v="117"/><tag k="addr:postcode" v="97045"/><tag k="addr:city" v="Oregon City"/><tag k="addr:street" v="6th Street"/></node>
<node id="-15" lat="45.355565888" lon="-122.606104303" visible="true"><tag k="addr:housenumber" v="520"/><tag k="addr:postcode" v="97045"/><tag k="addr:city" v="Oregon City"/><tag k="addr:street" v="6th Street"/></node>
<node id="-16" lat="45.355525082" lon="-122.606145321" visible="true"><tag k="addr:housenumber" v="524"/><tag k="addr:postcode" v="97045"/><tag k="addr:city" v="Oregon City"/><tag k="addr:street" v="6th Street"/></node>
<node id="-17" lat="45.354665113" lon="-122.601363855" visible="true"><tag k="addr:housenumber" v="1001"/><tag k="addr:postcode" v="97045"/><tag k="addr:city" v="Oregon City"/><tag k="addr:street" v="7th Street"/></node>
<node id="-18" lat="45.354632282" lon="-122.60129248" visible="true"><tag k="addr:housenumber" v="1003"/><tag k="addr:postcode" v="97045"/><tag k="addr:city" v="Oregon City"/><tag k="addr:street" v="7th Street"/></node>
<node id="-19" lat="45.354665766" lon="-122.60078141" visible="true"><tag k="addr:housenumber" v="1011"/><tag k="addr:postcode" v="97045"/><tag k="addr:city" v="Oregon City"/><tag k="addr:street" v="7th Street"/></node>
<node id="-20" lat="45.354664286" lon="-122.600777915" visible="true"><tag k="addr:housenumber" v="1015"/><tag k="addr:postcode" v="97045"/><tag k="addr:city" v="Oregon City"/><tag k="addr:street" v="7th Street"/></node>
<node id="-21" lat="45.354459988" lon="-122.600807796" visible="true"><tag k="addr:housenumber" v="1019"/><tag k="addr:postcode" v="97045"/><tag k="addr:city" v="Oregon City"/><tag k="addr:street" v="7th Street"/></node>
<node id="-22" lat="45.356470092" lon="-122.60588295" visible="true"><tag k="addr:housenumber" v="506"/><tag k="addr:postcode" v="97045"/><tag k="addr:city" v="Oregon City"/><tag k="addr:street" v="7th Street"/></node>
<node id="-23" lat="45.356465913" lon="-122.605886204" visible="true"><tag k="addr:housenumber" v="508"/><tag k="addr:postcode" v="97045"/><tag k="addr:city" v="Oregon City"/><tag k="addr:street" v="7th Street"/></node>
<node id="-24" lat="45.356203892" lon="-122.604339186" visible="true"><tag k="addr:housenumber" v="613"/><tag k="addr:postcode" v="97045"/><tag k="addr:city" v="Oregon City"/><tag k="addr:street" v="7th Street"/></node>
<node id="-25" lat="45.356164226" lon="-122.604260522" visible="true"><tag k="addr:housenumber" v="623"/><tag k="addr:postcode" v="97045"/><tag k="addr:city" v="Oregon City"/><tag k="addr:street" v="7th Street"/></node>
<node id="-26" lat="45.355823027" lon="-122.603726255" visible="true"><tag k="addr:housenumber" v="707"/><tag k="addr:postcode" v="97045"/><tag k="addr:city" v="Oregon City"/><tag k="addr:street" v="7th Street"/></node>
<node id="-27" lat="45.355859401" lon="-122.603677357" visible="true"><tag k="addr:housenumber" v="709"/><tag k="addr:postcode" v="97045"/><tag k="addr:city" v="Oregon City"/><tag k="addr:street" v="7th Street"/></node>
<node id="-28" lat="45.355120057" lon="-122.603032228" visible="true"><tag k="addr:housenumber" v="812"/><tag k="addr:postcode" v="97045"/><tag k="addr:city" v="Oregon City"/><tag k="addr:street" v="7th Street"/></node>
<node id="-29" lat="45.355086572" lon="-122.602955265" visible="true"><tag k="addr:housenumber" v="814"/><tag k="addr:postcode" v="97045"/><tag k="addr:city" v="Oregon City"/><tag k="addr:street" v="7th Street"/></node>
<node id="-30" lat="45.35505237" lon="-122.602879969" visible="true"><tag k="addr:housenumber" v="816"/><tag k="addr:postcode" v="97045"/><tag k="addr:city" v="Oregon City"/><tag k="addr:street" v="7th Street"/></node>
<node id="-31" lat="45.355016913" lon="-122.602792989" visible="true"><tag k="addr:housenumber" v="820"/><tag k="addr:postcode" v="97045"/><tag k="addr:city" v="Oregon City"/><tag k="addr:street" v="7th Street"/></node>
<node id="-32" lat="45.354549651" lon="-122.601960166" visible="true"><tag k="addr:housenumber" v="920"/><tag k="addr:postcode" v="97045"/><tag k="addr:city" v="Oregon City"/><tag k="addr:street" v="7th Street"/></node>
<node id="-33" lat="45.354803064" lon="-122.601660793" visible="true"><tag k="addr:housenumber" v="921"/><tag k="addr:postcode" v="97045"/><tag k="addr:city" v="Oregon City"/><tag k="addr:street" v="7th Street"/></node>
<node id="-34" lat="45.358593723" lon="-122.607952998" visible="true"><tag k="addr:housenumber" v="108"/><tag k="addr:postcode" v="97045"/><tag k="addr:city" v="Oregon City"/><tag k="addr:street" v="8th Street"/></node>
<node id="-35" lat="45.358413247" lon="-122.607742492" visible="true"><tag k="addr:housenumber" v="110"/><tag k="addr:postcode" v="97045"/><tag k="addr:city" v="Oregon City"/><tag k="addr:street" v="8th Street"/></node>
<node id="-36" lat="45.358413054" lon="-122.607744083" visible="true"><tag k="addr:housenumber" v="112"/><tag k="addr:postcode" v="97045"/><tag k="addr:city" v="Oregon City"/><tag k="addr:street" v="8th Street"/></node>
<node id="-37" lat="45.357425137" lon="-122.604501521" visible="true"><tag k="addr:housenumber" v="511"/><tag k="addr:postcode" v="97045"/><tag k="addr:city" v="Oregon City"/><tag k="addr:street" v="8th Street"/></node>
<node id="-38" lat="45.357443289" lon="-122.604539465" visible="true"><tag k="addr:housenumber" v="511 1/2"/><tag k="addr:postcode" v="97045"/><tag k="addr:city" v="Oregon City"/><tag k="addr:street" v="8th Street"/></node>
<node id="-39" lat="45.356978604" lon="-122.603673849" visible="true"><tag k="addr:housenumber" v="615"/><tag k="addr:postcode" v="97045"/><tag k="addr:city" v="Oregon City"/><tag k="addr:street" v="8th Street"/></node>
<node id="-40" lat="45.356932291" lon="-122.603588929" visible="true"><tag k="addr:housenumber" v="621"/><tag k="addr:postcode" v="97045"/><tag k="addr:city" v="Oregon City"/><tag k="addr:street" v="8th Street"/></node>
<node id="-41" lat="45.356444401" lon="-122.603361481" visible="true"><tag k="addr:housenumber" v="702"/><tag k="addr:postcode" v="97045"/><tag k="addr:city" v="Oregon City"/><tag k="addr:street" v="8th Street"/></node>
<node id="-42" lat="45.356435717" lon="-122.603336883" visible="true"><tag k="addr:housenumber" v="706"/><tag k="addr:postcode" v="97045"/><tag k="addr:city" v="Oregon City"/><tag k="addr:street" v="8th Street"/></node>
<node id="-43" lat="45.356426075" lon="-122.603309649" visible="true"><tag k="addr:housenumber" v="708"/><tag k="addr:postcode" v="97045"/><tag k="addr:city" v="Oregon City"/><tag k="addr:street" v="8th Street"/></node>
<node id="-44" lat="45.356409425" lon="-122.603289928" visible="true"><tag k="addr:housenumber" v="710"/><tag k="addr:postcode" v="97045"/><tag k="addr:city" v="Oregon City"/><tag k="addr:street" v="8th Street"/></node>
<node id="-45" lat="45.357030376" lon="-122.602307848" visible="true"><tag k="addr:housenumber" v="712"/><tag k="addr:postcode" v="97045"/><tag k="addr:city" v="Oregon City"/><tag k="addr:street" v="9th Street"/></node>
<node id="-46" lat="45.356992622" lon="-122.602231705" visible="true"><tag k="addr:housenumber" v="718"/><tag k="addr:postcode" v="97045"/><tag k="addr:city" v="Oregon City"/><tag k="addr:street" v="9th Street"/></node>
<node id="-47" lat="45.356646408" lon="-122.601592348" visible="true"><tag k="addr:housenumber" v="808"/><tag k="addr:postcode" v="97045"/><tag k="addr:city" v="Oregon City"/><tag k="addr:street" v="9th Street"/></node>
<node id="-48" lat="45.356645945" lon="-122.601582788" visible="true"><tag k="addr:housenumber" v="812"/><tag k="addr:postcode" v="97045"/><tag k="addr:city" v="Oregon City"/><tag k="addr:street" v="9th Street"/></node>
<node id="-49" lat="45.354732385" lon="-122.608991288" visible="true"><tag k="addr:housenumber" v="316"/><tag k="addr:postcode" v="97045"/><tag k="addr:city" v="Oregon City"/><tag k="addr:street" v="High Street"/></node>
<node id="-50" lat="45.354735827" lon="-122.608988257" visible="true"><tag k="addr:housenumber" v="320"/><tag k="addr:postcode" v="97045"/><tag k="addr:city" v="Oregon City"/><tag k="addr:street" v="High Street"/></node>
<node id="-51" lat="45.35536111" lon="-122.60891106" visible="true"><tag k="addr:housenumber" v="409"/><tag k="addr:postcode" v="97045"/><tag k="addr:city" v="Oregon City"/><tag k="addr:street" v="High Street"/></node>
<node id="-52" lat="45.355408066" lon="-122.608874568" visible="true"><tag k="addr:housenumber" v="411"/><tag k="addr:postcode" v="97045"/><tag k="addr:city" v="Oregon City"/><tag k="addr:street" v="High Street"/></node>
<node id="-53" lat="45.356662582" lon="-122.607576537" visible="true"><tag k="addr:housenumber" v="601"/><tag k="addr:postcode" v="97045"/><tag k="addr:city" v="Oregon City"/><tag k="addr:street" v="High Street"/></node>
<node id="-54" lat="45.356738304" lon="-122.607729717" visible="true"><tag k="addr:housenumber" v="603"/><tag k="addr:postcode" v="97045"/><tag k="addr:city" v="Oregon City"/><tag k="addr:street" v="High Street"/></node>
<node id="-55" lat="45.356763285" lon="-122.607462629" visible="true"><tag k="addr:housenumber" v="605"/><tag k="addr:postcode" v="97045"/><tag k="addr:city" v="Oregon City"/><tag k="addr:street" v="High Street"/></node>
<node id="-56" lat="45.357116937" lon="-122.607137853" visible="true"><tag k="addr:housenumber" v="617"/><tag k="addr:postcode" v="97045"/><tag k="addr:city" v="Oregon City"/><tag k="addr:street" v="High Street"/></node>
<node id="-57" lat="45.357120894" lon="-122.607137351" visible="true"><tag k="addr:housenumber" v="619"/><tag k="addr:postcode" v="97045"/><tag k="addr:city" v="Oregon City"/><tag k="addr:street" v="High Street"/></node>
<node id="-58" lat="45.357115759" lon="-122.60713434" visible="true"><tag k="addr:housenumber" v="621"/><tag k="addr:postcode" v="97045"/><tag k="addr:city" v="Oregon City"/><tag k="addr:street" v="High Street"/></node>
<node id="-59" lat="45.357117365" lon="-122.607129731" visible="true"><tag k="addr:housenumber" v="623"/><tag k="addr:postcode" v="97045"/><tag k="addr:city" v="Oregon City"/><tag k="addr:street" v="High Street"/></node>
<node id="-60" lat="45.353195649" lon="-122.600704431" visible="true"><tag k="addr:housenumber" v="601"/><tag k="addr:postcode" v="97045"/><tag k="addr:city" v="Oregon City"/><tag k="addr:street" v="Jackson Street"/></node>
<node id="-61" lat="45.353215172" lon="-122.600681201" visible="true"><tag k="addr:housenumber" v="603"/><tag k="addr:postcode" v="97045"/><tag k="addr:city" v="Oregon City"/><tag k="addr:street" v="Jackson Street"/></node>
<node id="-62" lat="45.35324166" lon="-122.600652592" visible="true"><tag k="addr:housenumber" v="605"/><tag k="addr:postcode" v="97045"/><tag k="addr:city" v="Oregon City"/><tag k="addr:street" v="Jackson Street"/></node>
<node id="-63" lat="45.353240241" lon="-122.600606524" visible="true"><tag k="addr:housenumber" v="607"/><tag k="addr:postcode" v="97045"/><tag k="addr:city" v="Oregon City"/><tag k="addr:street" v="Jackson Street"/></node>
<node id="-64" lat="45.353330595" lon="-122.600536818" visible="true"><tag k="addr:housenumber" v="611"/><tag k="addr:postcode" v="97045"/><tag k="addr:city" v="Oregon City"/><tag k="addr:street" v="Jackson Street"/></node>
<node id="-65" lat="45.357933889" lon="-122.601115094" visible="true"><tag k="addr:housenumber" v="1001"/><tag k="addr:postcode" v="97045"/><tag k="addr:city" v="Oregon City"/><tag k="addr:street" v="Jefferson Street"/></node>
<node id="-66" lat="45.358686015" lon="-122.600444874" visible="true"><tag k="addr:housenumber" v="1105"/><tag k="addr:postcode" v="97045"/><tag k="addr:city" v="Oregon City"/><tag k="addr:street" v="Jefferson Street"/></node>
<node id="-67" lat="45.358521314" lon="-122.599962992" visible="true"><tag k="addr:housenumber" v="1106"/><tag k="addr:postcode" v="97045"/><tag k="addr:city" v="Oregon City"/><tag k="addr:street" v="Jefferson Street"/></node>
<node id="-68" lat="45.358733382" lon="-122.600406847" visible="true"><tag k="addr:housenumber" v="1107"/><tag k="addr:postcode" v="97045"/><tag k="addr:city" v="Oregon City"/><tag k="addr:street" v="Jefferson Street"/></node>
<node id="-69" lat="45.358485783" lon="-122.599987129" visible="true"><tag k="addr:housenumber" v="1108"/><tag k="addr:postcode" v="97045"/><tag k="addr:city" v="Oregon City"/><tag k="addr:street" v="Jefferson Street"/></node>
<node id="-70" lat="45.356243524" lon="-122.602928336" visible="true"><tag k="addr:housenumber" v="721"/><tag k="addr:postcode" v="97045"/><tag k="addr:city" v="Oregon City"/><tag k="addr:street" v="Jefferson Street"/></node>
<node id="-71" lat="45.356197036" lon="-122.602966691" visible="true"><tag k="addr:housenumber" v="721 1/2"/><tag k="addr:postcode" v="97045"/><tag k="addr:city" v="Oregon City"/><tag k="addr:street" v="Jefferson Street"/></node>
<node id="-72" lat="45.357408578" lon="-122.60110544" visible="true"><tag k="addr:housenumber" v="916"/><tag k="addr:postcode" v="97045"/><tag k="addr:city" v="Oregon City"/><tag k="addr:street" v="Jefferson Street"/></node>
<node id="-73" lat="45.357430802" lon="-122.600968622" visible="true"><tag k="addr:housenumber" v="918"/><tag k="addr:postcode" v="97045"/><tag k="addr:city" v="Oregon City"/><tag k="addr:street" v="Jefferson Street"/></node>
<node id="-74" lat="45.357352673" lon="-122.600944373" visible="true"><tag k="addr:housenumber" v="920"/><tag k="addr:postcode" v="97045"/><tag k="addr:city" v="Oregon City"/><tag k="addr:street" v="Jefferson Street"/></node>
<node id="-75" lat="45.356209893" lon="-122.604216813" visible="true"><tag k="addr:housenumber" v="701"/><tag k="addr:postcode" v="97045"/><tag k="addr:city" v="Oregon City"/><tag k="addr:street" v="John Adams Street"/></node>
<node id="-76" lat="45.356254632" lon="-122.604161944" visible="true"><tag k="addr:housenumber" v="705"/><tag k="addr:postcode" v="97045"/><tag k="addr:city" v="Oregon City"/><tag k="addr:street" v="John Adams Street"/></node>
<node id="-77" lat="45.356458847" lon="-122.60338466" visible="true"><tag k="addr:housenumber" v="714"/><tag k="addr:postcode" v="97045"/><tag k="addr:city" v="Oregon City"/><tag k="addr:street" v="John Adams Street"/></node>
<node id="-78" lat="45.357582037" lon="-122.602169692" visible="true"><tag k="addr:housenumber" v="904"/><tag k="addr:postcode" v="97045"/><tag k="addr:city" v="Oregon City"/><tag k="addr:street" v="John Adams Street"/></node>
<node id="-79" lat="45.357605287" lon="-122.602141274" visible="true"><tag k="addr:housenumber" v="908"/><tag k="addr:postcode" v="97045"/><tag k="addr:city" v="Oregon City"/><tag k="addr:street" v="John Adams Street"/></node>
<node id="-80" lat="45.35382237" lon="-122.601425308" visible="true"><tag k="addr:housenumber" v="605"/><tag k="addr:postcode" v="97045"/><tag k="addr:city" v="Oregon City"/><tag k="addr:street" v="Jq Adams Street"/></node>
<node id="-81" lat="45.353879214" lon="-122.601362327" visible="true"><tag k="addr:housenumber" v="607"/><tag k="addr:postcode" v="97045"/><tag k="addr:city" v="Oregon City"/><tag k="addr:street" v="Jq Adams Street"/></node>
<node id="-82" lat="45.354460051" lon="-122.600806233" visible="true"><tag k="addr:housenumber" v="705"/><tag k="addr:postcode" v="97045"/><tag k="addr:city" v="Oregon City"/><tag k="addr:street" v="Jq Adams Street"/></node>
<node id="-83" lat="45.354893008" lon="-122.602938264" visible="true"><tag k="addr:housenumber" v="619"/><tag k="addr:postcode" v="97045"/><tag k="addr:city" v="Oregon City"/><tag k="addr:street" v="Madison Street"/></node>
<node id="-84" lat="45.356336871" lon="-122.601580079" visible="true"><tag k="addr:housenumber" v="807"/><tag k="addr:postcode" v="97045"/><tag k="addr:city" v="Oregon City"/><tag k="addr:street" v="Madison Street"/></node>
<node id="-85" lat="45.356359519" lon="-122.601497381" visible="true"><tag k="addr:housenumber" v="809"/><tag k="addr:postcode" v="97045"/><tag k="addr:city" v="Oregon City"/><tag k="addr:street" v="Madison Street"/></node>
<node id="-86" lat="45.360758629" lon="-122.602813654" visible="true"><tag k="addr:housenumber" v="1200"/><tag k="addr:postcode" v="97045"/><tag k="addr:city" v="Oregon City"/><tag k="addr:street" v="Main Street"/></node>
<node id="-87" lat="45.356313031" lon="-122.609961644" visible="true"><tag k="addr:housenumber" v="450"/><tag k="addr:postcode" v="97045"/><tag k="addr:city" v="Oregon City"/><tag k="addr:street" v="Main Street"/></node>
<node id="-88" lat="45.356313944" lon="-122.609927355" visible="true"><tag k="addr:housenumber" v="458"/><tag k="addr:postcode" v="97045"/><tag k="addr:city" v="Oregon City"/><tag k="addr:street" v="Main Street"/></node>
<node id="-89" lat="45.356697856" lon="-122.609604092" visible="true"><tag k="addr:housenumber" v="504"/><tag k="addr:postcode" v="97045"/><tag k="addr:city" v="Oregon City"/><tag k="addr:street" v="Main Street"/></node>
<node id="-90" lat="45.357014455" lon="-122.610011658" visible="true"><tag k="addr:housenumber" v="507"/><tag k="addr:postcode" v="97045"/><tag k="addr:city" v="Oregon City"/><tag k="addr:street" v="Main Street"/></node>
<node id="-91" lat="45.356697601" lon="-122.609601226" visible="true"><tag k="addr:housenumber" v="508"/><tag k="addr:postcode" v="97045"/><tag k="addr:city" v="Oregon City"/><tag k="addr:street" v="Main Street"/></node>
<node id="-92" lat="45.357008637" lon="-122.610013059" visible="true"><tag k="addr:housenumber" v="509"/><tag k="addr:postcode" v="97045"/><tag k="addr:city" v="Oregon City"/><tag k="addr:street" v="Main Street"/></node>
<node id="-93" lat="45.35669591" lon="-122.609604919" visible="true"><tag k="addr:housenumber" v="510"/><tag k="addr:postcode" v="97045"/><tag k="addr:city" v="Oregon City"/><tag k="addr:street" v="Main Street"/></node>
<node id="-94" lat="45.357008776" lon="-122.610016498" visible="true"><tag k="addr:housenumber" v="511"/><tag k="addr:postcode" v="97045"/><tag k="addr:city" v="Oregon City"/><tag k="addr:street" v="Main Street"/></node>
<node id="-95" lat="45.356926509" lon="-122.609164965" visible="true"><tag k="addr:housenumber" v="524"/><tag k="addr:postcode" v="97045"/><tag k="addr:city" v="Oregon City"/><tag k="addr:street" v="Main Street"/></node>
<node id="-96" lat="45.357369465" lon="-122.608577385" visible="true"><tag k="addr:housenumber" v="610"/><tag k="addr:postcode" v="97045"/><tag k="addr:city" v="Oregon City"/><tag k="addr:street" v="Main Street"/></node>
<node id="-97" lat="45.357988182" lon="-122.608936994" visible="true"><tag k="addr:housenumber" v="615"/><tag k="addr:postcode" v="97045"/><tag k="addr:city" v="Oregon City"/><tag k="addr:street" v="Main Street"/></node>
<node id="-98" lat="45.357994844" lon="-122.608935277" visible="true"><tag k="addr:housenumber" v="619"/><tag k="addr:postcode" v="97045"/><tag k="addr:city" v="Oregon City"/><tag k="addr:street" v="Main Street"/></node>
<node id="-99" lat="45.35798697" lon="-122.608935142" visible="true"><tag k="addr:housenumber" v="621"/><tag k="addr:postcode" v="97045"/><tag k="addr:city" v="Oregon City"/><tag k="addr:street" v="Main Street"/></node>
<node id="-100" lat="45.357992164" lon="-122.608934449" visible="true"><tag k="addr:housenumber" v="623"/><tag k="addr:postcode" v="97045"/><tag k="addr:city" v="Oregon City"/><tag k="addr:street" v="Main Street"/></node>
<node id="-101" lat="45.358410275" lon="-122.607750086" visible="true"><tag k="addr:housenumber" v="723"/><tag k="addr:postcode" v="97045"/><tag k="addr:city" v="Oregon City"/><tag k="addr:street" v="Main Street"/></node>
<node id="-102" lat="45.35877691" lon="-122.607409575" visible="true"><tag k="addr:housenumber" v="807"/><tag k="addr:postcode" v="97045"/><tag k="addr:city" v="Oregon City"/><tag k="addr:street" v="Main Street"/></node>
<node id="-103" lat="45.358779953" lon="-122.607407098" visible="true"><tag k="addr:housenumber" v="813"/><tag k="addr:postcode" v="97045"/><tag k="addr:city" v="Oregon City"/><tag k="addr:street" v="Main Street"/></node>
<node id="-104" lat="45.358778835" lon="-122.607405484" visible="true"><tag k="addr:housenumber" v="817"/><tag k="addr:postcode" v="97045"/><tag k="addr:city" v="Oregon City"/><tag k="addr:street" v="Main Street"/></node>
<node id="-105" lat="45.358718955" lon="-122.60583827" visible="true"><tag k="addr:housenumber" v="906"/><tag k="addr:postcode" v="97045"/><tag k="addr:city" v="Oregon City"/><tag k="addr:street" v="Main Street"/></node>
<node id="-106" lat="45.358683138" lon="-122.605912709" visible="true"><tag k="addr:housenumber" v="910"/><tag k="addr:postcode" v="97045"/><tag k="addr:city" v="Oregon City"/><tag k="addr:street" v="Main Street"/></node>
<node id="-107" lat="45.357790175" lon="-122.60949266" visible="true"><tag k="addr:housenumber" v="610"/><tag k="addr:postcode" v="97045"/><tag k="addr:city" v="Oregon City"/><tag k="addr:street" v="Mcloughlin Boulevard"/></node>
<node id="-108" lat="45.358620007" lon="-122.607974935" visible="true"><tag k="addr:housenumber" v="720"/><tag k="addr:postcode" v="97045"/><tag k="addr:city" v="Oregon City"/><tag k="addr:street" v="Mcloughlin Boulevard"/></node>
<node id="-109" lat="45.354444536" lon="-122.602057882" visible="true"><tag k="addr:housenumber" v="617"/><tag k="addr:postcode" v="97045"/><tag k="addr:city" v="Oregon City"/><tag k="addr:street" v="Monroe Street"/></node>
<node id="-110" lat="45.35480933" lon="-122.601111925" visible="true"><tag k="addr:housenumber" v="708"/><tag k="addr:postcode" v="97045"/><tag k="addr:city" v="Oregon City"/><tag k="addr:street" v="Monroe Street"/></node>
<node id="-111" lat="45.354886711" lon="-122.601545933" visible="true"><tag k="addr:housenumber" v="709"/><tag k="addr:postcode" v="97045"/><tag k="addr:city" v="Oregon City"/><tag k="addr:street" v="Monroe Street"/></node>
<node id="-112" lat="45.355157947" lon="-122.601334154" visible="true"><tag k="addr:housenumber" v="713"/><tag k="addr:postcode" v="97045"/><tag k="addr:city" v="Oregon City"/><tag k="addr:street" v="Monroe Street"/></node>
<node id="-113" lat="45.355202824" lon="-122.601382814" visible="true"><tag k="addr:housenumber" v="715"/><tag k="addr:postcode" v="97045"/><tag k="addr:city" v="Oregon City"/><tag k="addr:street" v="Monroe Street"/></node>
<node id="-114" lat="45.356933013" lon="-122.609156959" visible="true"><tag k="addr:housenumber" v="529"/><tag k="addr:postcode" v="97045"/><tag k="addr:city" v="Oregon City"/><tag k="addr:street" v="Railroad Avenue"/></node>
<node id="-115" lat="45.357372354" lon="-122.608576254" visible="true"><tag k="addr:housenumber" v="613"/><tag k="addr:postcode" v="97045"/><tag k="addr:city" v="Oregon City"/><tag k="addr:street" v="Railroad Avenue"/></node>
<node id="-116" lat="45.359355679" lon="-122.601714529" visible="true"><tag k="addr:housenumber" v="1106"/><tag k="addr:postcode" v="97045"/><tag k="addr:city" v="Oregon City"/><tag k="addr:street" v="Washington Street"/></node>
<node id="-117" lat="45.359397704" lon="-122.601683703" visible="true"><tag k="addr:housenumber" v="1108"/><tag k="addr:postcode" v="97045"/><tag k="addr:city" v="Oregon City"/><tag k="addr:street" v="Washington Street"/></node>
<node id="-118" lat="45.360339594" lon="-122.601322401" visible="true"><tag k="addr:housenumber" v="1205"/><tag k="addr:postcode" v="97045"/><tag k="addr:city" v="Oregon City"/><tag k="addr:street" v="Washington Street"/></node>
<node id="-119" lat="45.360371422" lon="-122.601381008" visible="true"><tag k="addr:housenumber" v="1207"/><tag k="addr:postcode" v="97045"/><tag k="addr:city" v="Oregon City"/><tag k="addr:street" v="Washington Street"/></node>
<node id="-120" lat="45.360407094" lon="-122.601443376" visible="true"><tag k="addr:housenumber" v="1209"/><tag k="addr:postcode" v="97045"/><tag k="addr:city" v="Oregon City"/><tag k="addr:street" v="Washington Street"/></node>
<node id="-121" lat="45.353536496" lon="-122.607568613" visible="true"><tag k="addr:housenumber" v="308"/><tag k="addr:postcode" v="97045"/><tag k="addr:city" v="Oregon City"/><tag k="addr:street" v="Washington Street"/></node>
<node id="-122" lat="45.353504571" lon="-122.607508503" visible="true"><tag k="addr:housenumber" v="310"/><tag k="addr:postcode" v="97045"/><tag k="addr:city" v="Oregon City"/><tag k="addr:street" v="Washington Street"/></node>
<node id="-123" lat="45.355471034" lon="-122.606214051" visible="true"><tag k="addr:housenumber" v="525"/><tag k="addr:postcode" v="97045"/><tag k="addr:city" v="Oregon City"/><tag k="addr:street" v="Washington Street"/></node>
<node id="-124" lat="45.3569818" lon="-122.604732679" visible="true"><tag k="addr:housenumber" v="719"/><tag k="addr:postcode" v="97045"/><tag k="addr:city" v="Oregon City"/><tag k="addr:street" v="Washington Street"/></node>
<node id="-125" lat="45.357012171" lon="-122.604779263" visible="true"><tag k="addr:housenumber" v="721"/><tag k="addr:postcode" v="97045"/><tag k="addr:city" v="Oregon City"/><tag k="addr:street" v="Washington Street"/></node>
<node id="-126" lat="45.357077152" lon="-122.604584953" visible="true"><tag k="addr:housenumber" v="723"/><tag k="addr:postcode" v="97045"/><tag k="addr:city" v="Oregon City"/><tag k="addr:street" v="Washington Street"/></node>
<node id="-127" lat="45.357098312" lon="-122.604612522" visible="true"><tag k="addr:housenumber" v="727"/><tag k="addr:postcode" v="97045"/><tag k="addr:city" v="Oregon City"/><tag k="addr:street" v="Washington Street"/></node>
<node id="-128" lat="45.357116889" lon="-122.604649518" visible="true"><tag k="addr:housenumber" v="729"/><tag k="addr:postcode" v="97045"/><tag k="addr:city" v="Oregon City"/><tag k="addr:street" v="Washington Street"/></node>
<node id="-129" lat="45.357134334" lon="-122.604694064" visible="true"><tag k="addr:housenumber" v="731"/><tag k="addr:postcode" v="97045"/><tag k="addr:city" v="Oregon City"/><tag k="addr:street" v="Washington Street"/></node>
</osm>