<?xml version="1.0"?>
<osm version="0.6" upload="false" generator="uvmogr2osm">
<node id="-1" lat="45.38476425" lon="-122.599207766" visible="true"><tag k="addr:housenumber" v="19360"/><tag k="addr:postcode" v="97027"/><tag k="addr:city" v="Gladstone"/><tag k="addr:street" v="Abernethy Lane"/></node>
<node id="-2" lat="45.384787694" lon="-122.59906625" visible="true"><tag k="addr:housenumber" v="19362"/><tag k="addr:postcode" v="97027"/><tag k="addr:city" v="Gladstone"/><tag k="addr:street" v="Abernethy Lane"/></node>
<node id="-3" lat="45.384802489" lon="-122.599207375" visible="true"><tag k="addr:housenumber" v="19364"/><tag k="addr:postcode" v="97027"/><tag k="addr:city" v="Gladstone"/><tag k="addr:street" v="Abernethy Lane"/></node>
<node id="-4" lat="45.384824489" lon="-122.599071617" visible="true"><tag k="addr:housenumber" v="19366"/><tag k="addr:postcode" v="97027"/><tag k="addr:city" v="Gladstone"/><tag k="addr:street" v="Abernethy Lane"/></node>
<node id="-5" lat="45.382141509" lon="-122.597579081" visible="true"><tag k="addr:housenumber" v="875"/><tag k="addr:postcode" v="97027"/><tag k="addr:city" v="Gladstone"/><tag k="addr:street" v="Bellevue Avenue"/></node>
<node id="-6" lat="45.382163871" lon="-122.59441968" visible="true"><tag k="addr:housenumber" v="160"/><tag k="addr:postcode" v="97027"/><tag k="addr:city" v="Gladstone"/><tag k="addr:street" v="East Fairfield Street"/></node>
<node id="-7" lat="45.382154275" lon="-122.594331732" visible="true"><tag k="addr:housenumber" v="170"/><tag k="addr:postcode" v="97027"/><tag k="addr:city" v="Gladstone"/><tag k="addr:street" v="East Fairfield Street"/></node>
<node id="-8" lat="45.382194363" lon="-122.594188792" visible="true"><tag k="addr:housenumber" v="180"/><tag k="addr:postcode" v="97027"/><tag k="addr:city" v="Gladstone"/><tag k="addr:street" v="East Fairfield Street"/></node>
<node id="-9" lat="45.38224864" lon="-122.594147278" visible="true"><tag k="addr:housenumber" v="190"/><tag k="addr:postcode" v="97027"/><tag k="addr:city" v="Gladstone"/><tag k="addr:street" v="East Fairfield Street"/></node>
<node id="-10" lat="45.383962957" lon="-122.591493338" visible="true"><tag k="addr:housenumber" v="380"/><tag k="addr:postcode" v="97027"/><tag k="addr:city" v="Gladstone"/><tag k="addr:street" v="East Gloucester Street"/></node>
<node id="-11" lat="45.383888708" lon="-122.591421892" visible="true"><tag k="addr:housenumber" v="380 1/2"/><tag k="addr:postcode" v="97027"/><tag k="addr:city" v="Gladstone"/><tag k="addr:street" v="East Gloucester Street"/></node>
<node id="-12" lat="45.383951214" lon="-122.590007323" visible="true"><tag k="addr:housenumber" v="445"/><tag k="addr:postcode" v="97027"/><tag k="addr:city" v="Gladstone"/><tag k="addr:street" v="East Gloucester Street"/></node>
<node id="-13" lat="45.383936968" lon="-122.589915604" visible="true"><tag k="addr:housenumber" v="447"/><tag k="addr:postcode" v="97027"/><tag k="addr:city" v="Gladstone"/><tag k="addr:street" v="East Gloucester Street"/></node>
<node id="-14" lat="45.382875525" lon="-122.595503528" visible="true"><tag k="addr:housenumber" v="135"/><tag k="addr:postcode" v="97027"/><tag k="addr:city" v="Gladstone"/><tag k="addr:street" v="East Hereford Street"/></node>
<node id="-15" lat="45.382873932" lon="-122.595508166" visible="true"><tag k="addr:housenumber" v="145"/><tag k="addr:postcode" v="97027"/><tag k="addr:city" v="Gladstone"/><tag k="addr:street" v="East Hereford Street"/></node>
<node id="-16" lat="45.383634588" lon="-122.593302703" visible="true"><tag k="addr:housenumber" v="275"/><tag k="addr:postcode" v="97027"/><tag k="addr:city" v="Gladstone"/><tag k="addr:street" v="East Hereford Street"/></node>
<node id="-17" lat="45.383621089" lon="-122.593248411" visible="true"><tag k="addr:housenumber" v="285"/><tag k="addr:postcode" v="97027"/><tag k="addr:city" v="Gladstone"/><tag k="addr:street" v="East Hereford Street"/></node>
<node id="-18" lat="45.383893917" lon="-122.592539462" visible="true"><tag k="addr:housenumber" v="315"/><tag k="addr:postcode" v="97027"/><tag k="addr:city" v="Gladstone"/><tag k="addr:street" v="East Hereford Street"/></node>
<node id="-19" lat="45.383823877" lon="-122.592486497" visible="true"><tag k="addr:housenumber" v="317"/><tag k="addr:postcode" v="97027"/><tag k="addr:city" v="Gladstone"/><tag k="addr:street" v="East Hereford Street"/></node>
<node id="-20" lat="45.384014754" lon="-122.592238925" visible="true"><tag k="addr:housenumber" v="335"/><tag k="addr:postcode" v="97027"/><tag k="addr:city" v="Gladstone"/><tag k="addr:street" v="East Hereford Street"/></node>
<node id="-21" lat="45.383994931" lon="-122.592148323" visible="true"><tag k="addr:housenumber" v="337"/><tag k="addr:postcode" v="97027"/><tag k="addr:city" v="Gladstone"/><tag k="addr:street" v="East Hereford Street"/></node>
<node id="-22" lat="45.384054212" lon="-122.592039631" visible="true"><tag k="addr:housenumber" v="345"/><tag k="addr:postcode" v="97027"/><tag k="addr:city" v="Gladstone"/><tag k="addr:street" v="East Hereford Street"/></node>
<node id="-23" lat="45.384033079" lon="-122.591950082" visible="true"><tag k="addr:housenumber" v="347"/><tag k="addr:postcode" v="97027"/><tag k="addr:city" v="Gladstone"/><tag k="addr:street" v="East Hereford Street"/></node>
<node id="-24" lat="45.384905048" lon="-122.590878123" visible="true"><tag k="addr:housenumber" v="430"/><tag k="addr:postcode" v="97027"/><tag k="addr:city" v="Gladstone"/><tag k="addr:street" v="East Hereford Street"/></node>
<node id="-25" lat="45.384909039" lon="-122.590872269" visible="true"><tag k="addr:housenumber" v="432"/><tag k="addr:postcode" v="97027"/><tag k="addr:city" v="Gladstone"/><tag k="addr:street" v="East Hereford Street"/></node>
<node id="-26" lat="45.385006748" lon="-122.590274944" visible="true"><tag k="addr:housenumber" v="480"/><tag k="addr:postcode" v="97027"/><tag k="addr:city" v="Gladstone"/><tag k="addr:street" v="East Hereford Street"/></node>
<node id="-27" lat="45.384200938" lon="-122.595973518" visible="true"><tag k="addr:housenumber" v="127"/><tag k="addr:postcode" v="97027"/><tag k="addr:city" v="Gladstone"/><tag k="addr:street" v="East Jersey Street"/></node>
<node id="-28" lat="45.384050794" lon="-122.595880473" visible="true"><tag k="addr:housenumber" v="129"/><tag k="addr:postcode" v="97027"/><tag k="addr:city" v="Gladstone"/><tag k="addr:street" v="East Jersey Street"/></node>
<node id="-29" lat="45.384243694" lon="-122.59580287" visible="true"><tag k="addr:housenumber" v="135"/><tag k="addr:postcode" v="97027"/><tag k="addr:city" v="Gladstone"/><tag k="addr:street" v="East Jersey Street"/></node>
<node id="-30" lat="45.38411148" lon="-122.595720444" visible="true"><tag k="addr:housenumber" v="145"/><tag k="addr:postcode" v="97027"/><tag k="addr:city" v="Gladstone"/><tag k="addr:street" v="East Jersey Street"/></node>
<node id="-31" lat="45.385034986" lon="-122.594888446" visible="true"><tag k="addr:housenumber" v="250"/><tag k="addr:postcode" v="97027"/><tag k="addr:city" v="Gladstone"/><tag k="addr:street" v="East Jersey Street"/></node>
<node id="-32" lat="45.38497435" lon="-122.59486092" visible="true"><tag k="addr:housenumber" v="260"/><tag k="addr:postcode" v="97027"/><tag k="addr:city" v="Gladstone"/><tag k="addr:street" v="East Jersey Street"/></node>
<node id="-33" lat="45.387975256" lon="-122.596804608" visible="true"><tag k="addr:housenumber" v="1520"/><tag k="addr:postcode" v="97027"/><tag k="addr:city" v="Gladstone"/><tag k="addr:street" v="Harvard Avenue"/></node>
<node id="-34" lat="45.387972885" lon="-122.596807683" visible="true"><tag k="addr:housenumber" v="1522"/><tag k="addr:postcode" v="97027"/><tag k="addr:city" v="Gladstone"/><tag k="addr:street" v="Harvard Avenue"/></node>
<node id="-35" lat="45.385269856" lon="-122.590872095" visible="true"><tag k="addr:housenumber" v="1006"/><tag k="addr:postcode" v="97027"/><tag k="addr:city" v="Gladstone"/><tag k="addr:street" v="High Street"/></node>
<node id="-36" lat="45.38526407" lon="-122.590872701" visible="true"><tag k="addr:housenumber" v="1010"/><tag k="addr:postcode" v="97027"/><tag k="addr:city" v="Gladstone"/><tag k="addr:street" v="High Street"/></node>
<node id="-37" lat="45.385080017" lon="-122.590306468" visible="true"><tag k="addr:housenumber" v="1015"/><tag k="addr:postcode" v="97027"/><tag k="addr:city" v="Gladstone"/><tag k="addr:street" v="High Street"/></node>
<node id="-38" lat="45.385424847" lon="-122.590526407" visible="true"><tag k="addr:housenumber" v="1025"/><tag k="addr:postcode" v="97027"/><tag k="addr:city" v="Gladstone"/><tag k="addr:street" v="High Street"/></node>
<node id="-39" lat="45.385504697" lon="-122.590574038" visible="true"><tag k="addr:housenumber" v="1027"/><tag k="addr:postcode" v="97027"/><tag k="addr:city" v="Gladstone"/><tag k="addr:street" v="High Street"/></node>
<node id="-40" lat="45.385680754" lon="-122.591521123" visible="true"><tag k="addr:housenumber" v="1100"/><tag k="addr:postcode" v="97027"/><tag k="addr:city" v="Gladstone"/><tag k="addr:street" v="High Street"/></node>
<node id="-41" lat="45.385626984" lon="-122.591496767" visible="true"><tag k="addr:housenumber" v="1102"/><tag k="addr:postcode" v="97027"/><tag k="addr:city" v="Gladstone"/><tag k="addr:street" v="High Street"/></node>
<node id="-42" lat="45.385812327" lon="-122.591329749" visible="true"><tag k="addr:housenumber" v="1110"/><tag k="addr:postcode" v="97027"/><tag k="addr:city" v="Gladstone"/><tag k="addr:street" v="High Street"/></node>
<node id="-43" lat="45.385753801" lon="-122.591304876" visible="true"><tag k="addr:housenumber" v="1112"/><tag k="addr:postcode" v="97027"/><tag k="addr:city" v="Gladstone"/><tag k="addr:street" v="High Street"/></node>
<node id="-44" lat="45.385661425" lon="-122.591260081" visible="true"><tag k="addr:housenumber" v="1120"/><tag k="addr:postcode" v="97027"/><tag k="addr:city" v="Gladstone"/><tag k="addr:street" v="High Street"/></node>
<node id="-45" lat="45.385616092" lon="-122.591229224" visible="true"><tag k="addr:housenumber" v="1122"/><tag k="addr:postcode" v="97027"/><tag k="addr:city" v="Gladstone"/><tag k="addr:street" v="High Street"/></node>
<node id="-46" lat="45.384839896" lon="-122.598501866" visible="true"><tag k="addr:housenumber" v="18905"/><tag k="addr:postcode" v="97027"/><tag k="addr:city" v="Gladstone"/><tag k="addr:street" v="Portland Avenue"/></node>
<node id="-47" lat="45.384466635" lon="-122.598199186" visible="true"><tag k="addr:housenumber" v="18911"/><tag k="addr:postcode" v="97027"/><tag k="addr:city" v="Gladstone"/><tag k="addr:street" v="Portland Avenue"/></node>
<node id="-48" lat="45.382060542" lon="-122.595465976" visible="true"><tag k="addr:housenumber" v="785"/><tag k="addr:postcode" v="97027"/><tag k="addr:city" v="Gladstone"/><tag k="addr:street" v="Portland Avenue"/></node>
<node id="-49" lat="45.382141503" lon="-122.595516549" visible="true"><tag k="addr:housenumber" v="795"/><tag k="addr:postcode" v="97027"/><tag k="addr:city" v="Gladstone"/><tag k="addr:street" v="Portland Avenue"/></node>
<node id="-50" lat="45.382927045" lon="-122.596660201" visible="true"><tag k="addr:housenumber" v="910"/><tag k="addr:postcode" v="97027"/><tag k="addr:city" v="Gladstone"/><tag k="addr:street" v="Portland Avenue"/></node>
<node id="-51" lat="45.383010763" lon="-122.596706626" visible="true"><tag k="addr:housenumber" v="920"/><tag k="addr:postcode" v="97027"/><tag k="addr:city" v="Gladstone"/><tag k="addr:street" v="Portland Avenue"/></node>
<node id="-52" lat="45.384311142" lon="-122.599350307" visible="true"><tag k="addr:housenumber" v="1100"/><tag k="addr:postcode" v="97027"/><tag k="addr:city" v="Gladstone"/><tag k="addr:street" v="Simmons Court"/></node>
<node id="-53" lat="45.384356453" lon="-122.599335348" visible="true"><tag k="addr:housenumber" v="1102"/><tag k="addr:postcode" v="97027"/><tag k="addr:city" v="Gladstone"/><tag k="addr:street" v="Simmons Court"/></node>
<node id="-54" lat="45.38430988" lon="-122.599828101" visible="true"><tag k="addr:housenumber" v="1105"/><tag k="addr:postcode" v="97027"/><tag k="addr:city" v="Gladstone"/><tag k="addr:street" v="Simmons Court"/></node>
<node id="-55" lat="45.384354235" lon="-122.599836094" visible="true"><tag k="addr:housenumber" v="1107"/><tag k="addr:postcode" v="97027"/><tag k="addr:city" v="Gladstone"/><tag k="addr:street" v="Simmons Court"/></node>
<node id="-56" lat="45.382071423" lon="-122.596937713" visible="true"><tag k="addr:housenumber" v="150"/><tag k="addr:postcode" v="97027"/><tag k="addr:city" v="Gladstone"/><tag k="addr:street" v="West Gloucester Street"/></node>
<node id="-57" lat="45.382034211" lon="-122.597057977" visible="true"><tag k="addr:housenumber" v="160"/><tag k="addr:postcode" v="97027"/><tag k="addr:city" v="Gladstone"/><tag k="addr:street" v="West Gloucester Street"/></node>
<node id="-58" lat="45.382514156" lon="-122.596352381" visible="true"><tag k="addr:housenumber" v="105"/><tag k="addr:postcode" v="97027"/><tag k="addr:city" v="Gladstone"/><tag k="addr:street" v="West Hereford Street"/></node>
<node id="-59" lat="45.382550661" lon="-122.596367799" visible="true"><tag k="addr:housenumber" v="107"/><tag k="addr:postcode" v="97027"/><tag k="addr:city" v="Gladstone"/><tag k="addr:street" v="West Hereford Street"/></node>
<node id="-60" lat="45.382480068" lon="-122.596440309" visible="true"><tag k="addr:housenumber" v="109"/><tag k="addr:postcode" v="97027"/><tag k="addr:city" v="Gladstone"/><tag k="addr:street" v="West Hereford Street"/></node>
<node id="-61" lat="45.382524985" lon="-122.596463007" visible="true"><tag k="addr:housenumber" v="111"/><tag k="addr:postcode" v="97027"/><tag k="addr:city" v="Gladstone"/><tag k="addr:street" v="West Hereford Street"/></node>
<node id="-62" lat="45.382459844" lon="-122.59654104" visible="true"><tag k="addr:housenumber" v="113"/><tag k="addr:postcode" v="97027"/><tag k="addr:city" v="Gladstone"/><tag k="addr:street" v="West Hereford Street"/></node>
<node id="-63" lat="45.382492049" lon="-122.596561728" visible="true"><tag k="addr:housenumber" v="115"/><tag k="addr:postcode" v="97027"/><tag k="addr:city" v="Gladstone"/><tag k="addr:street" v="West Hereford Street"/></node>
<node id="-64" lat="45.382404755" lon="-122.596690016" visible="true"><tag k="addr:housenumber" v="117"/><tag k="addr:postcode" v="97027"/><tag k="addr:city" v="Gladstone"/><tag k="addr:street" v="West Hereford Street"/></node>
<node id="-65" lat="45.382449914" lon="-122.596704516" visible="true"><tag k="addr:housenumber" v="119"/><tag k="addr:postcode" v="97027"/><tag k="addr:city" v="Gladstone"/><tag k="addr:street" v="West Hereford Street"/></node>
<node id="-66" lat="45.382480934" lon="-122.59678129" visible="true"><tag k="addr:housenumber" v="121"/><tag k="addr:postcode" v="97027"/><tag k="addr:city" v="Gladstone"/><tag k="addr:street" v="West Hereford Street"/></node>
<node id="-67" lat="45.382521114" lon="-122.596813824" visible="true"><tag k="addr:housenumber" v="123"/><tag k="addr:postcode" v="97027"/><tag k="addr:city" v="Gladstone"/><tag k="addr:street" v="West Hereford Street"/></node>
<node id="-68" lat="45.382835676" lon="-122.597227477" visible="true"><tag k="addr:housenumber" v="140"/><tag k="addr:postcode" v="97027"/><tag k="addr:city" v="Gladstone"/><tag k="addr:street" v="West Hereford Street"/></node>
<node id="-69" lat="45.382759674" lon="-122.597187102" visible="true"><tag k="addr:housenumber" v="142"/><tag k="addr:postcode" v="97027"/><tag k="addr:city" v="Gladstone"/><tag k="addr:street" v="West Hereford Street"/></node>
<node id="-70" lat="45.382141996" lon="-122.597583818" visible="true"><tag k="addr:housenumber" v="185"/><tag k="addr:postcode" v="97027"/><tag k="addr:city" v="Gladstone"/><tag k="addr:street" v="West Hereford Street"/></node>
<node id="-71" lat="45.382400669" lon="-122.598410459" visible="true"><tag k="addr:housenumber" v="220"/><tag k="addr:postcode" v="97027"/><tag k="addr:city" v="Gladstone"/><tag k="addr:street" v="West Hereford Street"/></node>
<node id="-72" lat="45.382365991" lon="-122.598456807" visible="true"><tag k="addr:housenumber" v="222"/><tag k="addr:postcode" v="97027"/><tag k="addr:city" v="Gladstone"/><tag k="addr:street" v="West Hereford Street"/></node>
<node id="-73" lat="45.382096652" lon="-122.599289677" visible="true"><tag k="addr:housenumber" v="260"/><tag k="addr:postcode" v="97027"/><tag k="addr:city" v="Gladstone"/><tag k="addr:street" v="West Hereford Street"/></node>
<node id="-74" lat="45.382116849" lon="-122.599377289" visible="true"><tag k="addr:housenumber" v="262"/><tag k="addr:postcode" v="97027"/><tag k="addr:city" v="Gladstone"/><tag k="addr:street" v="West Hereford Street"/></node>
<node id="-75" lat="45.382493802" lon="-122.599111729" visible="true"><tag k="addr:housenumber" v="239"/><tag k="addr:postcode" v="97027"/><tag k="addr:city" v="Gladstone"/><tag k="addr:street" v="West Ipswich Street"/></node>
<node id="-76" lat="45.382472084" lon="-122.599171909" visible="true"><tag k="addr:housenumber" v="243"/><tag k="addr:postcode" v="97027"/><tag k="addr:city" v="Gladstone"/><tag k="addr:street" v="West Ipswich Street"/></node>
<node id="-77" lat="45.382408546" lon="-122.599339319" visible="true"><tag k="addr:housenumber" v="247"/><tag k="addr:postcode" v="97027"/><tag k="addr:city" v="Gladstone"/><tag k="addr:street" v="West Ipswich Street"/></node>
<node id="-78" lat="45.382399639" lon="-122.599336236" visible="true"><tag k="addr:housenumber" v="251"/><tag k="addr:postcode" v="97027"/><tag k="addr:city" v="Gladstone"/><tag k="addr:street" v="West Ipswich Street"/></node>
<node id="-79" lat="45.383570189" lon="-122.599451007" visible="true"><tag k="addr:housenumber" v="230"/><tag k="addr:postcode" v="97027"/><tag k="addr:city" v="Gladstone"/><tag k="addr:street" v="West Jersey Street"/></node>
<node id="-80" lat="45.383530324" lon="-122.599592821" visible="true"><tag k="addr:housenumber" v="240"/><tag k="addr:postcode" v="97027"/><tag k="addr:city" v="Gladstone"/><tag k="addr:street" v="West Jersey Street"/></node>
</osm>