<?xml version="1.0"?>
<osm version="0.6" upload="false" generator="uvmogr2osm">
<node id="-1" lat="45.369082063" lon="-122.846985966" visible="true"><tag k="addr:housenumber" v="16562"/><tag k="addr:postcode" v="97140"/><tag k="addr:city" v="Sherwood"/><tag k="addr:street" v="Southwest Daffodil Street"/></node>
<node id="-2" lat="45.369144306" lon="-122.8469803" visible="true"><tag k="addr:housenumber" v="16564"/><tag k="addr:postcode" v="97140"/><tag k="addr:city" v="Sherwood"/><tag k="addr:street" v="Southwest Daffodil Street"/></node>
<node id="-3" lat="45.369150621" lon="-122.847430184" visible="true"><tag k="addr:housenumber" v="16584"/><tag k="addr:postcode" v="97140"/><tag k="addr:city" v="Sherwood"/><tag k="addr:street" v="Southwest Daffodil Street"/></node>
<node id="-4" lat="45.369070693" lon="-122.847426925" visible="true"><tag k="addr:housenumber" v="16586"/><tag k="addr:postcode" v="97140"/><tag k="addr:city" v="Sherwood"/><tag k="addr:street" v="Southwest Daffodil Street"/></node>
<node id="-5" lat="45.36971216" lon="-122.847602917" visible="true"><tag k="addr:housenumber" v="16631"/><tag k="addr:postcode" v="97140"/><tag k="addr:city" v="Sherwood"/><tag k="addr:street" v="Southwest Daffodil Street"/></node>
<node id="-6" lat="45.369702964" lon="-122.847757442" visible="true"><tag k="addr:housenumber" v="16633"/><tag k="addr:postcode" v="97140"/><tag k="addr:city" v="Sherwood"/><tag k="addr:street" v="Southwest Daffodil Street"/></node>
<node id="-7" lat="45.369127455" lon="-122.847851612" visible="true"><tag k="addr:housenumber" v="16670"/><tag k="addr:postcode" v="97140"/><tag k="addr:city" v="Sherwood"/><tag k="addr:street" v="Southwest Daffodil Street"/></node>
<node id="-8" lat="45.369076873" lon="-122.847835548" visible="true"><tag k="addr:housenumber" v="16672"/><tag k="addr:postcode" v="97140"/><tag k="addr:city" v="Sherwood"/><tag k="addr:street" v="Southwest Daffodil Street"/></node>
<node id="-9" lat="45.369073686" lon="-122.848250742" visible="true"><tag k="addr:housenumber" v="16688"/><tag k="addr:postcode" v="97140"/><tag k="addr:city" v="Sherwood"/><tag k="addr:street" v="Southwest Daffodil Street"/></node>
<node id="-10" lat="45.369144085" lon="-122.848259341" visible="true"><tag k="addr:housenumber" v="16690"/><tag k="addr:postcode" v="97140"/><tag k="addr:city" v="Sherwood"/><tag k="addr:street" v="Southwest Daffodil Street"/></node>
<node id="-11" lat="45.369757165" lon="-122.848483339" visible="true"><tag k="addr:housenumber" v="16735"/><tag k="addr:postcode" v="97140"/><tag k="addr:city" v="Sherwood"/><tag k="addr:street" v="Southwest Daffodil Street"/></node>
<node id="-12" lat="45.369755511" lon="-122.848556759" visible="true"><tag k="addr:housenumber" v="16737"/><tag k="addr:postcode" v="97140"/><tag k="addr:city" v="Sherwood"/><tag k="addr:street" v="Southwest Daffodil Street"/></node>
<node id="-13" lat="45.369142971" lon="-122.848640845" visible="true"><tag k="addr:housenumber" v="16758"/><tag k="addr:postcode" v="97140"/><tag k="addr:city" v="Sherwood"/><tag k="addr:street" v="Southwest Daffodil Street"/></node>
<node id="-14" lat="45.369077904" lon="-122.848632599" visible="true"><tag k="addr:housenumber" v="16760"/><tag k="addr:postcode" v="97140"/><tag k="addr:city" v="Sherwood"/><tag k="addr:street" v="Southwest Daffodil Street"/></node>
<node id="-15" lat="45.369074177" lon="-122.849035805" visible="true"><tag k="addr:housenumber" v="16772"/><tag k="addr:postcode" v="97140"/><tag k="addr:city" v="Sherwood"/><tag k="addr:street" v="Southwest Daffodil Street"/></node>
<node id="-16" lat="45.369133035" lon="-122.849038988" visible="true"><tag k="addr:housenumber" v="16774"/><tag k="addr:postcode" v="97140"/><tag k="addr:city" v="Sherwood"/><tag k="addr:street" v="Southwest Daffodil Street"/></node>
<node id="-17" lat="45.371186285" lon="-122.849371822" visible="true"><tag k="addr:housenumber" v="20544"/><tag k="addr:postcode" v="97140"/><tag k="addr:city" v="Sherwood"/><tag k="addr:street" v="Southwest Lavender Avenue"/></node>
<node id="-18" lat="45.37104193" lon="-122.849375969" visible="true"><tag k="addr:housenumber" v="20546"/><tag k="addr:postcode" v="97140"/><tag k="addr:city" v="Sherwood"/><tag k="addr:street" v="Southwest Lavender Avenue"/></node>
<node id="-19" lat="45.369740705" lon="-122.850249174" visible="true"><tag k="addr:housenumber" v="20724"/><tag k="addr:postcode" v="97140"/><tag k="addr:city" v="Sherwood"/><tag k="addr:street" v="Southwest Nettle Place"/></node>
<node id="-20" lat="45.369692054" lon="-122.850258032" visible="true"><tag k="addr:housenumber" v="20746"/><tag k="addr:postcode" v="97140"/><tag k="addr:city" v="Sherwood"/><tag k="addr:street" v="Southwest Nettle Place"/></node>
</osm>