<?xml version="1.0"?>
<osm version="0.6" upload="false" generator="uvmogr2osm">
<node id="-1" lat="45.399293888" lon="-122.267339801" visible="true"><tag k="addr:housenumber" v="17135"/><tag k="addr:postcode" v="97055"/><tag k="addr:city" v="Sandy"/><tag k="addr:street" v="Beers Avenue"/></node>
<node id="-2" lat="45.399237393" lon="-122.267316384" visible="true"><tag k="addr:housenumber" v="17137"/><tag k="addr:postcode" v="97055"/><tag k="addr:city" v="Sandy"/><tag k="addr:street" v="Beers Avenue"/></node>
<node id="-3" lat="45.397732948" lon="-122.266770765" visible="true"><tag k="addr:housenumber" v="17326"/><tag k="addr:postcode" v="97055"/><tag k="addr:city" v="Sandy"/><tag k="addr:street" v="Beers Avenue"/></node>
<node id="-4" lat="45.396374899" lon="-122.270186249" visible="true"><tag k="addr:housenumber" v="17540"/><tag k="addr:postcode" v="97055"/><tag k="addr:city" v="Sandy"/><tag k="addr:street" v="Bluff Road"/></node>
<node id="-5" lat="45.396379052" lon="-122.270061405" visible="true"><tag k="addr:housenumber" v="17550"/><tag k="addr:postcode" v="97055"/><tag k="addr:city" v="Sandy"/><tag k="addr:street" v="Bluff Road"/></node>
<node id="-6" lat="45.394630986" lon="-122.262437636" visible="true"><tag k="addr:housenumber" v="38897"/><tag k="addr:postcode" v="97055"/><tag k="addr:city" v="Sandy"/><tag k="addr:street" v="Creekside Loop"/></node>
<node id="-7" lat="45.394622866" lon="-122.262292971" visible="true"><tag k="addr:housenumber" v="38899"/><tag k="addr:postcode" v="97055"/><tag k="addr:city" v="Sandy"/><tag k="addr:street" v="Creekside Loop"/></node>
<node id="-8" lat="45.394604093" lon="-122.262095609" visible="true"><tag k="addr:housenumber" v="38901"/><tag k="addr:postcode" v="97055"/><tag k="addr:city" v="Sandy"/><tag k="addr:street" v="Creekside Loop"/></node>
<node id="-9" lat="45.394650566" lon="-122.26208973" visible="true"><tag k="addr:housenumber" v="38903"/><tag k="addr:postcode" v="97055"/><tag k="addr:city" v="Sandy"/><tag k="addr:street" v="Creekside Loop"/></node>
<node id="-10" lat="45.39423005" lon="-122.266360273" visible="true"><tag k="addr:housenumber" v="17831"/><tag k="addr:postcode" v="97055"/><tag k="addr:city" v="Sandy"/><tag k="addr:street" v="Gerilynn Court"/></node>
<node id="-11" lat="45.394160245" lon="-122.266389073" visible="true"><tag k="addr:housenumber" v="17841"/><tag k="addr:postcode" v="97055"/><tag k="addr:city" v="Sandy"/><tag k="addr:street" v="Gerilynn Court"/></node>
<node id="-12" lat="45.394122759" lon="-122.266384993" visible="true"><tag k="addr:housenumber" v="17851"/><tag k="addr:postcode" v="97055"/><tag k="addr:city" v="Sandy"/><tag k="addr:street" v="Gerilynn Court"/></node>
<node id="-13" lat="45.394073537" lon="-122.26638611" visible="true"><tag k="addr:housenumber" v="17861"/><tag k="addr:postcode" v="97055"/><tag k="addr:city" v="Sandy"/><tag k="addr:street" v="Gerilynn Court"/></node>
<node id="-14" lat="45.394034968" lon="-122.266394971" visible="true"><tag k="addr:housenumber" v="17871"/><tag k="addr:postcode" v="97055"/><tag k="addr:city" v="Sandy"/><tag k="addr:street" v="Gerilynn Court"/></node>
<node id="-15" lat="45.393867423" lon="-122.266425318" visible="true"><tag k="addr:housenumber" v="17885"/><tag k="addr:postcode" v="97055"/><tag k="addr:city" v="Sandy"/><tag k="addr:street" v="Gerilynn Court"/></node>
<node id="-16" lat="45.393824772" lon="-122.26656254" visible="true"><tag k="addr:housenumber" v="17895"/><tag k="addr:postcode" v="97055"/><tag k="addr:city" v="Sandy"/><tag k="addr:street" v="Gerilynn Court"/></node>
<node id="-17" lat="45.393749175" lon="-122.266499266" visible="true"><tag k="addr:housenumber" v="17903"/><tag k="addr:postcode" v="97055"/><tag k="addr:city" v="Sandy"/><tag k="addr:street" v="Gerilynn Court"/></node>
<node id="-18" lat="45.393664758" lon="-122.266427659" visible="true"><tag k="addr:housenumber" v="17905"/><tag k="addr:postcode" v="97055"/><tag k="addr:city" v="Sandy"/><tag k="addr:street" v="Gerilynn Court"/></node>
<node id="-19" lat="45.393638693" lon="-122.266493977" visible="true"><tag k="addr:housenumber" v="17915"/><tag k="addr:postcode" v="97055"/><tag k="addr:city" v="Sandy"/><tag k="addr:street" v="Gerilynn Court"/></node>
<node id="-20" lat="45.393574069" lon="-122.266512415" visible="true"><tag k="addr:housenumber" v="17925"/><tag k="addr:postcode" v="97055"/><tag k="addr:city" v="Sandy"/><tag k="addr:street" v="Gerilynn Court"/></node>
<node id="-21" lat="45.398586343" lon="-122.267939515" visible="true"><tag k="addr:housenumber" v="38432"/><tag k="addr:postcode" v="97055"/><tag k="addr:city" v="Sandy"/><tag k="addr:street" v="Hood Street"/></node>
<node id="-22" lat="45.398555857" lon="-122.267930954" visible="true"><tag k="addr:housenumber" v="38434"/><tag k="addr:postcode" v="97055"/><tag k="addr:city" v="Sandy"/><tag k="addr:street" v="Hood Street"/></node>
<node id="-23" lat="45.398499994" lon="-122.267941519" visible="true"><tag k="addr:housenumber" v="38436"/><tag k="addr:postcode" v="97055"/><tag k="addr:city" v="Sandy"/><tag k="addr:street" v="Hood Street"/></node>
<node id="-24" lat="45.398442611" lon="-122.267952156" visible="true"><tag k="addr:housenumber" v="38438"/><tag k="addr:postcode" v="97055"/><tag k="addr:city" v="Sandy"/><tag k="addr:street" v="Hood Street"/></node>
<node id="-25" lat="45.401431035" lon="-122.270215623" visible="true"><tag k="addr:housenumber" v="38210"/><tag k="addr:postcode" v="97055"/><tag k="addr:city" v="Sandy"/><tag k="addr:street" v="Marcy Street"/></node>
<node id="-26" lat="45.401421341" lon="-122.270117434" visible="true"><tag k="addr:housenumber" v="38220"/><tag k="addr:postcode" v="97055"/><tag k="addr:city" v="Sandy"/><tag k="addr:street" v="Marcy Street"/></node>
<node id="-27" lat="45.401452978" lon="-122.26985604" visible="true"><tag k="addr:housenumber" v="38250"/><tag k="addr:postcode" v="97055"/><tag k="addr:city" v="Sandy"/><tag k="addr:street" v="Marcy Street"/></node>
<node id="-28" lat="45.401463617" lon="-122.26977026" visible="true"><tag k="addr:housenumber" v="38260"/><tag k="addr:postcode" v="97055"/><tag k="addr:city" v="Sandy"/><tag k="addr:street" v="Marcy Street"/></node>
<node id="-29" lat="45.396063388" lon="-122.260623253" visible="true"><tag k="addr:housenumber" v="39070"/><tag k="addr:postcode" v="97055"/><tag k="addr:city" v="Sandy"/><tag k="addr:street" v="Pioneer Boulevard"/></node>
<node id="-30" lat="45.3960649" lon="-122.260627403" visible="true"><tag k="addr:housenumber" v="39080"/><tag k="addr:postcode" v="97055"/><tag k="addr:city" v="Sandy"/><tag k="addr:street" v="Pioneer Boulevard"/></node>
<node id="-31" lat="45.396067112" lon="-122.260627762" visible="true"><tag k="addr:housenumber" v="39100"/><tag k="addr:postcode" v="97055"/><tag k="addr:city" v="Sandy"/><tag k="addr:street" v="Pioneer Boulevard"/></node>
<node id="-32" lat="45.396069112" lon="-122.260625355" visible="true"><tag k="addr:housenumber" v="40000"/><tag k="addr:postcode" v="97055"/><tag k="addr:city" v="Sandy"/><tag k="addr:street" v="Pioneer Boulevard"/></node>
<node id="-33" lat="45.397854693" lon="-122.266791439" visible="true"><tag k="addr:housenumber" v="38530"/><tag k="addr:postcode" v="97055"/><tag k="addr:city" v="Sandy"/><tag k="addr:street" v="Pleasant Street"/></node>
<node id="-34" lat="45.398209499" lon="-122.266711825" visible="true"><tag k="addr:housenumber" v="38535"/><tag k="addr:postcode" v="97055"/><tag k="addr:city" v="Sandy"/><tag k="addr:street" v="Pleasant Street"/></node>
<node id="-35" lat="45.398211267" lon="-122.266638979" visible="true"><tag k="addr:housenumber" v="38539"/><tag k="addr:postcode" v="97055"/><tag k="addr:city" v="Sandy"/><tag k="addr:street" v="Pleasant Street"/></node>
<node id="-36" lat="45.397877782" lon="-122.265647477" visible="true"><tag k="addr:housenumber" v="38660"/><tag k="addr:postcode" v="97055"/><tag k="addr:city" v="Sandy"/><tag k="addr:street" v="Pleasant Street"/></node>
<node id="-37" lat="45.397872043" lon="-122.26555121" visible="true"><tag k="addr:housenumber" v="38680"/><tag k="addr:postcode" v="97055"/><tag k="addr:city" v="Sandy"/><tag k="addr:street" v="Pleasant Street"/></node>
<node id="-38" lat="45.397528693" lon="-122.26650959" visible="true"><tag k="addr:housenumber" v="38555"/><tag k="addr:postcode" v="97055"/><tag k="addr:city" v="Sandy"/><tag k="addr:street" v="Proctor Boulevard"/></node>
<node id="-39" lat="45.397528045" lon="-122.266421413" visible="true"><tag k="addr:housenumber" v="38565"/><tag k="addr:postcode" v="97055"/><tag k="addr:city" v="Sandy"/><tag k="addr:street" v="Proctor Boulevard"/></node>
<node id="-40" lat="45.397106246" lon="-122.264493008" visible="true"><tag k="addr:housenumber" v="38768"/><tag k="addr:postcode" v="97055"/><tag k="addr:city" v="Sandy"/><tag k="addr:street" v="Proctor Boulevard"/></node>
<node id="-41" lat="45.397104772" lon="-122.264426168" visible="true"><tag k="addr:housenumber" v="38770"/><tag k="addr:postcode" v="97055"/><tag k="addr:city" v="Sandy"/><tag k="addr:street" v="Proctor Boulevard"/></node>
<node id="-42" lat="45.397106675" lon="-122.264335334" visible="true"><tag k="addr:housenumber" v="38774"/><tag k="addr:postcode" v="97055"/><tag k="addr:city" v="Sandy"/><tag k="addr:street" v="Proctor Boulevard"/></node>
<node id="-43" lat="45.397044217" lon="-122.264401312" visible="true"><tag k="addr:housenumber" v="38776"/><tag k="addr:postcode" v="97055"/><tag k="addr:city" v="Sandy"/><tag k="addr:street" v="Proctor Boulevard"/></node>
<node id="-44" lat="45.397699672" lon="-122.262850191" visible="true"><tag k="addr:housenumber" v="38905"/><tag k="addr:postcode" v="97055"/><tag k="addr:city" v="Sandy"/><tag k="addr:street" v="Proctor Boulevard"/></node>
<node id="-45" lat="45.397695141" lon="-122.262850569" visible="true"><tag k="addr:housenumber" v="38915"/><tag k="addr:postcode" v="97055"/><tag k="addr:city" v="Sandy"/><tag k="addr:street" v="Proctor Boulevard"/></node>
<node id="-46" lat="45.397692748" lon="-122.262853248" visible="true"><tag k="addr:housenumber" v="38919"/><tag k="addr:postcode" v="97055"/><tag k="addr:city" v="Sandy"/><tag k="addr:street" v="Proctor Boulevard"/></node>
<node id="-47" lat="45.397700036" lon="-122.262844537" visible="true"><tag k="addr:housenumber" v="38925"/><tag k="addr:postcode" v="97055"/><tag k="addr:city" v="Sandy"/><tag k="addr:street" v="Proctor Boulevard"/></node>
<node id="-48" lat="45.397020088" lon="-122.262666927" visible="true"><tag k="addr:housenumber" v="38950"/><tag k="addr:postcode" v="97055"/><tag k="addr:city" v="Sandy"/><tag k="addr:street" v="Proctor Boulevard"/></node>
<node id="-49" lat="45.39701652" lon="-122.262667314" visible="true"><tag k="addr:housenumber" v="38954"/><tag k="addr:postcode" v="97055"/><tag k="addr:city" v="Sandy"/><tag k="addr:street" v="Proctor Boulevard"/></node>
<node id="-50" lat="45.397020996" lon="-122.262670608" visible="true"><tag k="addr:housenumber" v="38958"/><tag k="addr:postcode" v="97055"/><tag k="addr:city" v="Sandy"/><tag k="addr:street" v="Proctor Boulevard"/></node>
<node id="-51" lat="45.397014936" lon="-122.262667001" visible="true"><tag k="addr:housenumber" v="38962"/><tag k="addr:postcode" v="97055"/><tag k="addr:city" v="Sandy"/><tag k="addr:street" v="Proctor Boulevard"/></node>
<node id="-52" lat="45.397016396" lon="-122.262671245" visible="true"><tag k="addr:housenumber" v="38966"/><tag k="addr:postcode" v="97055"/><tag k="addr:city" v="Sandy"/><tag k="addr:street" v="Proctor Boulevard"/></node>
<node id="-53" lat="45.396895524" lon="-122.26191383" visible="true"><tag k="addr:housenumber" v="38970"/><tag k="addr:postcode" v="97055"/><tag k="addr:city" v="Sandy"/><tag k="addr:street" v="Proctor Boulevard"/></node>
<node id="-54" lat="45.397071255" lon="-122.261831082" visible="true"><tag k="addr:housenumber" v="38980"/><tag k="addr:postcode" v="97055"/><tag k="addr:city" v="Sandy"/><tag k="addr:street" v="Proctor Boulevard"/></node>
<node id="-55" lat="45.397531814" lon="-122.261308767" visible="true"><tag k="addr:housenumber" v="39041"/><tag k="addr:postcode" v="97055"/><tag k="addr:city" v="Sandy"/><tag k="addr:street" v="Proctor Boulevard"/></node>
<node id="-56" lat="45.397532141" lon="-122.261246006" visible="true"><tag k="addr:housenumber" v="39051"/><tag k="addr:postcode" v="97055"/><tag k="addr:city" v="Sandy"/><tag k="addr:street" v="Proctor Boulevard"/></node>
<node id="-57" lat="45.393082232" lon="-122.268246048" visible="true"><tag k="addr:housenumber" v="38450"/><tag k="addr:postcode" v="97055"/><tag k="addr:city" v="Sandy"/><tag k="addr:street" v="Sandy Heights Street"/></node>
<node id="-58" lat="45.393079924" lon="-122.268088445" visible="true"><tag k="addr:housenumber" v="38452"/><tag k="addr:postcode" v="97055"/><tag k="addr:city" v="Sandy"/><tag k="addr:street" v="Sandy Heights Street"/></node>
<node id="-59" lat="45.392435145" lon="-122.268391093" visible="true"><tag k="addr:housenumber" v="38458"/><tag k="addr:postcode" v="97055"/><tag k="addr:city" v="Sandy"/><tag k="addr:street" v="Sandy Heights Street"/></node>
<node id="-60" lat="45.392367703" lon="-122.268411701" visible="true"><tag k="addr:housenumber" v="38460"/><tag k="addr:postcode" v="97055"/><tag k="addr:city" v="Sandy"/><tag k="addr:street" v="Sandy Heights Street"/></node>
<node id="-61" lat="45.393585235" lon="-122.264062049" visible="true"><tag k="addr:housenumber" v="38809"/><tag k="addr:postcode" v="97055"/><tag k="addr:city" v="Sandy"/><tag k="addr:street" v="Sandy Heights Street"/></node>
<node id="-62" lat="45.393700657" lon="-122.264053731" visible="true"><tag k="addr:housenumber" v="38811"/><tag k="addr:postcode" v="97055"/><tag k="addr:city" v="Sandy"/><tag k="addr:street" v="Sandy Heights Street"/></node>
<node id="-63" lat="45.399458632" lon="-122.265097346" visible="true"><tag k="addr:housenumber" v="17120"/><tag k="addr:postcode" v="97055"/><tag k="addr:city" v="Sandy"/><tag k="addr:street" v="Scales Avenue"/></node>
<node id="-64" lat="45.399385696" lon="-122.265088979" visible="true"><tag k="addr:housenumber" v="17130"/><tag k="addr:postcode" v="97055"/><tag k="addr:city" v="Sandy"/><tag k="addr:street" v="Scales Avenue"/></node>
<node id="-65" lat="45.397691253" lon="-122.262851549" visible="true"><tag k="addr:housenumber" v="17356"/><tag k="addr:postcode" v="97055"/><tag k="addr:city" v="Sandy"/><tag k="addr:street" v="Strauss Avenue"/></node>
<node id="-66" lat="45.395200038" lon="-122.260810504" visible="true"><tag k="addr:housenumber" v="17702"/><tag k="addr:postcode" v="97055"/><tag k="addr:city" v="Sandy"/><tag k="addr:street" v="Tupper Road"/></node>
<node id="-67" lat="45.395181387" lon="-122.260754832" visible="true"><tag k="addr:housenumber" v="17704"/><tag k="addr:postcode" v="97055"/><tag k="addr:city" v="Sandy"/><tag k="addr:street" v="Tupper Road"/></node>
<node id="-68" lat="45.395162929" lon="-122.26070773" visible="true"><tag k="addr:housenumber" v="17706"/><tag k="addr:postcode" v="97055"/><tag k="addr:city" v="Sandy"/><tag k="addr:street" v="Tupper Road"/></node>
<node id="-69" lat="45.394805626" lon="-122.262272291" visible="true"><tag k="addr:housenumber" v="17722"/><tag k="addr:postcode" v="97055"/><tag k="addr:city" v="Sandy"/><tag k="addr:street" v="Tupper Road"/></node>
<node id="-70" lat="45.39474372" lon="-122.262273304" visible="true"><tag k="addr:housenumber" v="17724"/><tag k="addr:postcode" v="97055"/><tag k="addr:city" v="Sandy"/><tag k="addr:street" v="Tupper Road"/></node>
<node id="-71" lat="45.392867507" lon="-122.265276894" visible="true"><tag k="addr:housenumber" v="18025"/><tag k="addr:postcode" v="97055"/><tag k="addr:city" v="Sandy"/><tag k="addr:street" v="Tupper Road"/></node>
<node id="-72" lat="45.392814844" lon="-122.265351154" visible="true"><tag k="addr:housenumber" v="18075"/><tag k="addr:postcode" v="97055"/><tag k="addr:city" v="Sandy"/><tag k="addr:street" v="Tupper Road"/></node>
</osm>