<?xml version="1.0"?>
<osm version="0.6" upload="false" generator="uvmogr2osm">
<node id="-1" lat="45.394357752" lon="-122.252101482" visible="true"><tag k="addr:housenumber" v="39980"/><tag k="addr:postcode" v="97055"/><tag k="addr:city" v="Sandy"/><tag k="addr:street" v="Davis Street"/></node>
<node id="-2" lat="45.394319519" lon="-122.252054027" visible="true"><tag k="addr:housenumber" v="39990"/><tag k="addr:postcode" v="97055"/><tag k="addr:city" v="Sandy"/><tag k="addr:street" v="Davis Street"/></node>
<node id="-3" lat="45.394279187" lon="-122.251385965" visible="true"><tag k="addr:housenumber" v="40055"/><tag k="addr:postcode" v="97055"/><tag k="addr:city" v="Sandy"/><tag k="addr:street" v="Davis Street"/></node>
<node id="-4" lat="45.394214316" lon="-122.251351158" visible="true"><tag k="addr:housenumber" v="40065"/><tag k="addr:postcode" v="97055"/><tag k="addr:city" v="Sandy"/><tag k="addr:street" v="Davis Street"/></node>
<node id="-5" lat="45.393571191" lon="-122.252358639" visible="true"><tag k="addr:housenumber" v="39910"/><tag k="addr:postcode" v="97055"/><tag k="addr:city" v="Sandy"/><tag k="addr:street" v="Hall Court"/></node>
<node id="-6" lat="45.39350897" lon="-122.252340367" visible="true"><tag k="addr:housenumber" v="39920"/><tag k="addr:postcode" v="97055"/><tag k="addr:city" v="Sandy"/><tag k="addr:street" v="Hall Court"/></node>
<node id="-7" lat="45.393502388" lon="-122.251519906" visible="true"><tag k="addr:housenumber" v="40020"/><tag k="addr:postcode" v="97055"/><tag k="addr:city" v="Sandy"/><tag k="addr:street" v="Hall Court"/></node>
<node id="-8" lat="45.393519784" lon="-122.251358802" visible="true"><tag k="addr:housenumber" v="40030"/><tag k="addr:postcode" v="97055"/><tag k="addr:city" v="Sandy"/><tag k="addr:street" v="Hall Court"/></node>
<node id="-9" lat="45.39847798" lon="-122.258853355" visible="true"><tag k="addr:housenumber" v="17227"/><tag k="addr:postcode" v="97055"/><tag k="addr:city" v="Sandy"/><tag k="addr:street" v="Hoffman Avenue"/></node>
<node id="-10" lat="45.398524387" lon="-122.258856511" visible="true"><tag k="addr:housenumber" v="17229"/><tag k="addr:postcode" v="97055"/><tag k="addr:city" v="Sandy"/><tag k="addr:street" v="Hoffman Avenue"/></node>
<node id="-11" lat="45.398930946" lon="-122.258516924" visible="true"><tag k="addr:housenumber" v="39261"/><tag k="addr:postcode" v="97055"/><tag k="addr:city" v="Sandy"/><tag k="addr:street" v="Hood Street"/></node>
<node id="-12" lat="45.398936698" lon="-122.258417019" visible="true"><tag k="addr:housenumber" v="39265"/><tag k="addr:postcode" v="97055"/><tag k="addr:city" v="Sandy"/><tag k="addr:street" v="Hood Street"/></node>
<node id="-13" lat="45.39858546" lon="-122.258364457" visible="true"><tag k="addr:housenumber" v="39280"/><tag k="addr:postcode" v="97055"/><tag k="addr:city" v="Sandy"/><tag k="addr:street" v="Hood Street"/></node>
<node id="-14" lat="45.398526179" lon="-122.258365218" visible="true"><tag k="addr:housenumber" v="39284"/><tag k="addr:postcode" v="97055"/><tag k="addr:city" v="Sandy"/><tag k="addr:street" v="Hood Street"/></node>
<node id="-15" lat="45.398547628" lon="-122.258122484" visible="true"><tag k="addr:housenumber" v="39344"/><tag k="addr:postcode" v="97055"/><tag k="addr:city" v="Sandy"/><tag k="addr:street" v="Hood Street"/></node>
<node id="-16" lat="45.398544759" lon="-122.258048725" visible="true"><tag k="addr:housenumber" v="39368"/><tag k="addr:postcode" v="97055"/><tag k="addr:city" v="Sandy"/><tag k="addr:street" v="Hood Street"/></node>
<node id="-17" lat="45.398856269" lon="-122.257668372" visible="true"><tag k="addr:housenumber" v="39425"/><tag k="addr:postcode" v="97055"/><tag k="addr:city" v="Sandy"/><tag k="addr:street" v="Hood Street"/></node>
<node id="-18" lat="45.398854895" lon="-122.257584425" visible="true"><tag k="addr:housenumber" v="39435"/><tag k="addr:postcode" v="97055"/><tag k="addr:city" v="Sandy"/><tag k="addr:street" v="Hood Street"/></node>
<node id="-19" lat="45.395531206" lon="-122.253149921" visible="true"><tag k="addr:housenumber" v="39900"/><tag k="addr:postcode" v="97055"/><tag k="addr:city" v="Sandy"/><tag k="addr:street" v="Mccormick Drive"/></node>
<node id="-20" lat="45.395490634" lon="-122.25307591" visible="true"><tag k="addr:housenumber" v="39910"/><tag k="addr:postcode" v="97055"/><tag k="addr:city" v="Sandy"/><tag k="addr:street" v="Mccormick Drive"/></node>
<node id="-21" lat="45.395126884" lon="-122.251820039" visible="true"><tag k="addr:housenumber" v="40030"/><tag k="addr:postcode" v="97055"/><tag k="addr:city" v="Sandy"/><tag k="addr:street" v="Mccormick Drive"/></node>
<node id="-22" lat="45.395064417" lon="-122.251683781" visible="true"><tag k="addr:housenumber" v="40040"/><tag k="addr:postcode" v="97055"/><tag k="addr:city" v="Sandy"/><tag k="addr:street" v="Mccormick Drive"/></node>
<node id="-23" lat="45.394955858" lon="-122.251532213" visible="true"><tag k="addr:housenumber" v="40070"/><tag k="addr:postcode" v="97055"/><tag k="addr:city" v="Sandy"/><tag k="addr:street" v="Mccormick Drive"/></node>
<node id="-24" lat="45.394936699" lon="-122.251515337" visible="true"><tag k="addr:housenumber" v="40080"/><tag k="addr:postcode" v="97055"/><tag k="addr:city" v="Sandy"/><tag k="addr:street" v="Mccormick Drive"/></node>
<node id="-25" lat="45.394813923" lon="-122.251370295" visible="true"><tag k="addr:housenumber" v="40100"/><tag k="addr:postcode" v="97055"/><tag k="addr:city" v="Sandy"/><tag k="addr:street" v="Mccormick Drive"/></node>
<node id="-26" lat="45.394725318" lon="-122.251274289" visible="true"><tag k="addr:housenumber" v="40110"/><tag k="addr:postcode" v="97055"/><tag k="addr:city" v="Sandy"/><tag k="addr:street" v="Mccormick Drive"/></node>
<node id="-27" lat="45.394607906" lon="-122.251165785" visible="true"><tag k="addr:housenumber" v="40120"/><tag k="addr:postcode" v="97055"/><tag k="addr:city" v="Sandy"/><tag k="addr:street" v="Mccormick Drive"/></node>
<node id="-28" lat="45.394588863" lon="-122.251144435" visible="true"><tag k="addr:housenumber" v="40130"/><tag k="addr:postcode" v="97055"/><tag k="addr:city" v="Sandy"/><tag k="addr:street" v="Mccormick Drive"/></node>
<node id="-29" lat="45.394441876" lon="-122.251013184" visible="true"><tag k="addr:housenumber" v="40140"/><tag k="addr:postcode" v="97055"/><tag k="addr:city" v="Sandy"/><tag k="addr:street" v="Mccormick Drive"/></node>
<node id="-30" lat="45.394368291" lon="-122.251022577" visible="true"><tag k="addr:housenumber" v="40150"/><tag k="addr:postcode" v="97055"/><tag k="addr:city" v="Sandy"/><tag k="addr:street" v="Mccormick Drive"/></node>
<node id="-31" lat="45.396837655" lon="-122.258988456" visible="true"><tag k="addr:housenumber" v="17440"/><tag k="addr:postcode" v="97055"/><tag k="addr:city" v="Sandy"/><tag k="addr:street" v="Meinig Avenue"/></node>
<node id="-32" lat="45.396835307" lon="-122.258986482" visible="true"><tag k="addr:housenumber" v="17450"/><tag k="addr:postcode" v="97055"/><tag k="addr:city" v="Sandy"/><tag k="addr:street" v="Meinig Avenue"/></node>
<node id="-33" lat="45.397775339" lon="-122.258488866" visible="true"><tag k="addr:housenumber" v="39342"/><tag k="addr:postcode" v="97055"/><tag k="addr:city" v="Sandy"/><tag k="addr:street" v="Pleasant Street"/></node>
<node id="-34" lat="45.397778152" lon="-122.25848739" visible="true"><tag k="addr:housenumber" v="39355"/><tag k="addr:postcode" v="97055"/><tag k="addr:city" v="Sandy"/><tag k="addr:street" v="Proctor Boulevard"/></node>
<node id="-35" lat="45.397774737" lon="-122.258488597" visible="true"><tag k="addr:housenumber" v="39365"/><tag k="addr:postcode" v="97055"/><tag k="addr:city" v="Sandy"/><tag k="addr:street" v="Proctor Boulevard"/></node>
<node id="-36" lat="45.397668354" lon="-122.260337715" visible="true"><tag k="addr:housenumber" v="17350"/><tag k="addr:postcode" v="97055"/><tag k="addr:city" v="Sandy"/><tag k="addr:street" v="Smith Avenue"/></node>
<node id="-37" lat="45.397615399" lon="-122.260320579" visible="true"><tag k="addr:housenumber" v="17360"/><tag k="addr:postcode" v="97055"/><tag k="addr:city" v="Sandy"/><tag k="addr:street" v="Smith Avenue"/></node>
<node id="-38" lat="45.397553045" lon="-122.260328852" visible="true"><tag k="addr:housenumber" v="17370"/><tag k="addr:postcode" v="97055"/><tag k="addr:city" v="Sandy"/><tag k="addr:street" v="Smith Avenue"/></node>
<node id="-39" lat="45.397510054" lon="-122.260320325" visible="true"><tag k="addr:housenumber" v="17380"/><tag k="addr:postcode" v="97055"/><tag k="addr:city" v="Sandy"/><tag k="addr:street" v="Smith Avenue"/></node>
<node id="-40" lat="45.397451411" lon="-122.260315185" visible="true"><tag k="addr:housenumber" v="17390"/><tag k="addr:postcode" v="97055"/><tag k="addr:city" v="Sandy"/><tag k="addr:street" v="Smith Avenue"/></node>
</osm>