<?xml version="1.0"?>
<osm version="0.6" upload="false" generator="uvmogr2osm">
<node id="-1" lat="45.549594987" lon="-122.988718098" visible="true"><tag k="addr:housenumber" v="3470"/><tag k="addr:postcode" v="97124"/><tag k="addr:city" v="Hillsboro"/><tag k="addr:street" v="Northeast 3rd Avenue"/></node>
<node id="-2" lat="45.549590461" lon="-122.988716665" visible="true"><tag k="addr:housenumber" v="3498"/><tag k="addr:postcode" v="97124"/><tag k="addr:city" v="Hillsboro"/><tag k="addr:street" v="Northeast 3rd Avenue"/></node>
<node id="-3" lat="45.549621284" lon="-122.98654265" visible="true"><tag k="addr:housenumber" v="3455"/><tag k="addr:postcode" v="97124"/><tag k="addr:city" v="Hillsboro"/><tag k="addr:street" v="Northeast Sunburst Avenue"/></node>
<node id="-4" lat="45.59154838" lon="-122.993581344" visible="true"><tag k="addr:housenumber" v="9835"/><tag k="addr:postcode" v="97133"/><tag k="addr:city" v="North Plains"/><tag k="addr:street" v="Northwest 307th Avenue"/></node>
<node id="-5" lat="45.591552271" lon="-122.993579182" visible="true"><tag k="addr:housenumber" v="9865"/><tag k="addr:postcode" v="97133"/><tag k="addr:city" v="North Plains"/><tag k="addr:street" v="Northwest 307th Avenue"/></node>
<node id="-6" lat="45.549616297" lon="-122.986537239" visible="true"><tag k="addr:housenumber" v="3498"/><tag k="addr:postcode" v="97124"/><tag k="addr:city" v="Hillsboro"/><tag k="addr:street" v="Northwest Evergreen Road"/></node>
<node id="-7" lat="45.627470406" lon="-123.076783602" visible="true"><tag k="addr:housenumber" v="38191"/><tag k="addr:postcode" v="97106"/><tag k="addr:city" v="Banks"/><tag k="addr:street" v="Northwest Hahn Road"/></node>
<node id="-8" lat="45.627470454" lon="-123.076786088" visible="true"><tag k="addr:housenumber" v="38205"/><tag k="addr:postcode" v="97106"/><tag k="addr:city" v="Banks"/><tag k="addr:street" v="Northwest Hahn Road"/></node>
<node id="-9" lat="45.698413771" lon="-122.928750634" visible="true"><tag k="addr:housenumber" v="24330"/><tag k="addr:postcode" v="97056"/><tag k="addr:city" v="Scappoose"/><tag k="addr:street" v="Northwest Rocky Point Road"/></node>
<node id="-10" lat="45.693949349" lon="-122.915570735" visible="true"><tag k="addr:housenumber" v="23605"/><tag k="addr:postcode" v="97133"/><tag k="addr:city" v="North Plains"/><tag k="addr:street" v="Northwest Skyline Boulevard"/></node>
<node id="-11" lat="45.693949028" lon="-122.915578903" visible="true"><tag k="addr:housenumber" v="23608"/><tag k="addr:postcode" v="97133"/><tag k="addr:city" v="North Plains"/><tag k="addr:street" v="Northwest Skyline Boulevard"/></node>
<node id="-12" lat="45.698413089" lon="-122.928756269" visible="true"><tag k="addr:housenumber" v="24330"/><tag k="addr:postcode" v="97056"/><tag k="addr:city" v="Scappoose"/><tag k="addr:street" v="Rocky Point Road"/></node>
</osm>