<?xml version="1.0"?>
<osm version="0.6" upload="false" generator="uvmogr2osm">
<node id="-1" lat="45.398467668" lon="-122.627886457" visible="true"><tag k="addr:housenumber" v="17263"/><tag k="addr:postcode" v="97267"/><tag k="addr:city" v="Portland"/><tag k="addr:street" v="Southeast Boardman Creek Court"/></node>
<node id="-2" lat="45.398468577" lon="-122.627886372" visible="true"><tag k="addr:housenumber" v="17271"/><tag k="addr:postcode" v="97267"/><tag k="addr:city" v="Portland"/><tag k="addr:street" v="Southeast Boardman Creek Court"/></node>
<node id="-3" lat="45.398476714" lon="-122.627888359" visible="true"><tag k="addr:housenumber" v="17280"/><tag k="addr:postcode" v="97267"/><tag k="addr:city" v="Portland"/><tag k="addr:street" v="Southeast Boardman Creek Court"/></node>
<node id="-4" lat="45.402073917" lon="-122.625716339" visible="true"><tag k="addr:housenumber" v="16750"/><tag k="addr:postcode" v="97267"/><tag k="addr:city" v="Portland"/><tag k="addr:street" v="Southeast Kens Court"/></node>
<node id="-5" lat="45.404019827" lon="-122.621876778" visible="true"><tag k="addr:housenumber" v="16550"/><tag k="addr:postcode" v="97267"/><tag k="addr:city" v="Portland"/><tag k="addr:street" v="Southeast Mcloughlin Boulevard"/></node>
<node id="-6" lat="45.404021258" lon="-122.621878428" visible="true"><tag k="addr:housenumber" v="16552"/><tag k="addr:postcode" v="97267"/><tag k="addr:city" v="Portland"/><tag k="addr:street" v="Southeast Mcloughlin Boulevard"/></node>
<node id="-7" lat="45.404019555" lon="-122.621877677" visible="true"><tag k="addr:housenumber" v="16570"/><tag k="addr:postcode" v="97267"/><tag k="addr:city" v="Portland"/><tag k="addr:street" v="Southeast Mcloughlin Boulevard"/></node>
<node id="-8" lat="45.403826075" lon="-122.620470906" visible="true"><tag k="addr:housenumber" v="16404"/><tag k="addr:postcode" v="97267"/><tag k="addr:city" v="Portland"/><tag k="addr:street" v="Southeast Moon Avenue"/></node>
<node id="-9" lat="45.403859198" lon="-122.620430636" visible="true"><tag k="addr:housenumber" v="16406"/><tag k="addr:postcode" v="97267"/><tag k="addr:city" v="Portland"/><tag k="addr:street" v="Southeast Moon Avenue"/></node>
<node id="-10" lat="45.403892565" lon="-122.620369381" visible="true"><tag k="addr:housenumber" v="16408"/><tag k="addr:postcode" v="97267"/><tag k="addr:city" v="Portland"/><tag k="addr:street" v="Southeast Moon Avenue"/></node>
<node id="-11" lat="45.403927038" lon="-122.620305413" visible="true"><tag k="addr:housenumber" v="16410"/><tag k="addr:postcode" v="97267"/><tag k="addr:city" v="Portland"/><tag k="addr:street" v="Southeast Moon Avenue"/></node>
<node id="-12" lat="45.403689886" lon="-122.620212574" visible="true"><tag k="addr:housenumber" v="16416"/><tag k="addr:postcode" v="97267"/><tag k="addr:city" v="Portland"/><tag k="addr:street" v="Southeast Moon Avenue"/></node>
<node id="-13" lat="45.40373713" lon="-122.620151201" visible="true"><tag k="addr:housenumber" v="16418"/><tag k="addr:postcode" v="97267"/><tag k="addr:city" v="Portland"/><tag k="addr:street" v="Southeast Moon Avenue"/></node>
<node id="-14" lat="45.403782614" lon="-122.620076855" visible="true"><tag k="addr:housenumber" v="16420"/><tag k="addr:postcode" v="97267"/><tag k="addr:city" v="Portland"/><tag k="addr:street" v="Southeast Moon Avenue"/></node>
<node id="-15" lat="45.403666897" lon="-122.62023603" visible="true"><tag k="addr:housenumber" v="16430"/><tag k="addr:postcode" v="97267"/><tag k="addr:city" v="Portland"/><tag k="addr:street" v="Southeast Moon Avenue"/></node>
<node id="-16" lat="45.401940464" lon="-122.625954363" visible="true"><tag k="addr:housenumber" v="3755"/><tag k="addr:postcode" v="97267"/><tag k="addr:city" v="Portland"/><tag k="addr:street" v="Southeast Naef Road"/></node>
<node id="-17" lat="45.397252517" lon="-122.622449821" visible="true"><tag k="addr:housenumber" v="3969"/><tag k="addr:postcode" v="97267"/><tag k="addr:city" v="Portland"/><tag k="addr:street" v="Southeast Roethe Road"/></node>
<node id="-18" lat="45.397258835" lon="-122.622448564" visible="true"><tag k="addr:housenumber" v="3973"/><tag k="addr:postcode" v="97267"/><tag k="addr:city" v="Portland"/><tag k="addr:street" v="Southeast Roethe Road"/></node>
<node id="-19" lat="45.397354474" lon="-122.622220838" visible="true"><tag k="addr:housenumber" v="3975"/><tag k="addr:postcode" v="97267"/><tag k="addr:city" v="Portland"/><tag k="addr:street" v="Southeast Roethe Road"/></node>
<node id="-20" lat="45.397357871" lon="-122.622222697" visible="true"><tag k="addr:housenumber" v="3977"/><tag k="addr:postcode" v="97267"/><tag k="addr:city" v="Portland"/><tag k="addr:street" v="Southeast Roethe Road"/></node>
</osm>