<?xml version="1.0"?>
<osm version="0.6" upload="false" generator="uvmogr2osm">
<node id="-1" lat="45.262042409" lon="-122.701990574" visible="true"><tag k="addr:housenumber" v="363"/><tag k="addr:postcode" v="97013"/><tag k="addr:city" v="Canby"/><tag k="addr:street" v="North Cedar Street"/></node>
<node id="-2" lat="45.262082712" lon="-122.702024213" visible="true"><tag k="addr:housenumber" v="365"/><tag k="addr:postcode" v="97013"/><tag k="addr:city" v="Canby"/><tag k="addr:street" v="North Cedar Street"/></node>
<node id="-3" lat="45.262111166" lon="-122.70230553" visible="true"><tag k="addr:housenumber" v="383"/><tag k="addr:postcode" v="97013"/><tag k="addr:city" v="Canby"/><tag k="addr:street" v="North Cedar Street"/></node>
<node id="-4" lat="45.262200599" lon="-122.702206533" visible="true"><tag k="addr:housenumber" v="385"/><tag k="addr:postcode" v="97013"/><tag k="addr:city" v="Canby"/><tag k="addr:street" v="North Cedar Street"/></node>
<node id="-5" lat="45.264209482" lon="-122.698825568" visible="true"><tag k="addr:housenumber" v="451"/><tag k="addr:postcode" v="97013"/><tag k="addr:city" v="Canby"/><tag k="addr:street" v="North Fir Street"/></node>
<node id="-6" lat="45.264266707" lon="-122.698854211" visible="true"><tag k="addr:housenumber" v="453"/><tag k="addr:postcode" v="97013"/><tag k="addr:city" v="Canby"/><tag k="addr:street" v="North Fir Street"/></node>
<node id="-7" lat="45.264367796" lon="-122.698994308" visible="true"><tag k="addr:housenumber" v="493"/><tag k="addr:postcode" v="97013"/><tag k="addr:city" v="Canby"/><tag k="addr:street" v="North Fir Street"/></node>
<node id="-8" lat="45.266884713" lon="-122.698403494" visible="true"><tag k="addr:housenumber" v="750"/><tag k="addr:postcode" v="97013"/><tag k="addr:city" v="Canby"/><tag k="addr:street" v="North Grant Street"/></node>
<node id="-9" lat="45.263026174" lon="-122.694000426" visible="true"><tag k="addr:housenumber" v="182"/><tag k="addr:postcode" v="97013"/><tag k="addr:city" v="Canby"/><tag k="addr:street" v="North Holly Street"/></node>
<node id="-10" lat="45.263503164" lon="-122.694414445" visible="true"><tag k="addr:housenumber" v="220"/><tag k="addr:postcode" v="97013"/><tag k="addr:city" v="Canby"/><tag k="addr:street" v="North Holly Street"/></node>
<node id="-11" lat="45.263544214" lon="-122.694305305" visible="true"><tag k="addr:housenumber" v="240"/><tag k="addr:postcode" v="97013"/><tag k="addr:city" v="Canby"/><tag k="addr:street" v="North Holly Street"/></node>
<node id="-12" lat="45.265658856" lon="-122.694423079" visible="true"><tag k="addr:housenumber" v="452"/><tag k="addr:postcode" v="97013"/><tag k="addr:city" v="Canby"/><tag k="addr:street" v="North Ivy Street"/></node>
<node id="-13" lat="45.265684393" lon="-122.694354669" visible="true"><tag k="addr:housenumber" v="454"/><tag k="addr:postcode" v="97013"/><tag k="addr:city" v="Canby"/><tag k="addr:street" v="North Ivy Street"/></node>
<node id="-14" lat="45.265706276" lon="-122.694298501" visible="true"><tag k="addr:housenumber" v="456"/><tag k="addr:postcode" v="97013"/><tag k="addr:city" v="Canby"/><tag k="addr:street" v="North Ivy Street"/></node>
<node id="-15" lat="45.265726434" lon="-122.694235152" visible="true"><tag k="addr:housenumber" v="458"/><tag k="addr:postcode" v="97013"/><tag k="addr:city" v="Canby"/><tag k="addr:street" v="North Ivy Street"/></node>
<node id="-16" lat="45.265744384" lon="-122.694176442" visible="true"><tag k="addr:housenumber" v="460"/><tag k="addr:postcode" v="97013"/><tag k="addr:city" v="Canby"/><tag k="addr:street" v="North Ivy Street"/></node>
<node id="-17" lat="45.265775091" lon="-122.694113778" visible="true"><tag k="addr:housenumber" v="462"/><tag k="addr:postcode" v="97013"/><tag k="addr:city" v="Canby"/><tag k="addr:street" v="North Ivy Street"/></node>
<node id="-18" lat="45.265788425" lon="-122.694050968" visible="true"><tag k="addr:housenumber" v="464"/><tag k="addr:postcode" v="97013"/><tag k="addr:city" v="Canby"/><tag k="addr:street" v="North Ivy Street"/></node>
<node id="-19" lat="45.26581032" lon="-122.693990846" visible="true"><tag k="addr:housenumber" v="466"/><tag k="addr:postcode" v="97013"/><tag k="addr:city" v="Canby"/><tag k="addr:street" v="North Ivy Street"/></node>
<node id="-20" lat="45.267138333" lon="-122.694205591" visible="true"><tag k="addr:housenumber" v="599"/><tag k="addr:postcode" v="97013"/><tag k="addr:city" v="Canby"/><tag k="addr:street" v="North Juniper Court"/></node>
<node id="-21" lat="45.267225375" lon="-122.694219231" visible="true"><tag k="addr:housenumber" v="605"/><tag k="addr:postcode" v="97013"/><tag k="addr:city" v="Canby"/><tag k="addr:street" v="North Juniper Court"/></node>
<node id="-22" lat="45.266095187" lon="-122.69216331" visible="true"><tag k="addr:housenumber" v="403"/><tag k="addr:postcode" v="97013"/><tag k="addr:city" v="Canby"/><tag k="addr:street" v="North Knott Street"/></node>
<node id="-23" lat="45.266139119" lon="-122.692199947" visible="true"><tag k="addr:housenumber" v="409"/><tag k="addr:postcode" v="97013"/><tag k="addr:city" v="Canby"/><tag k="addr:street" v="North Knott Street"/></node>
<node id="-24" lat="45.265583476" lon="-122.693458049" visible="true"><tag k="addr:housenumber" v="164"/><tag k="addr:postcode" v="97013"/><tag k="addr:city" v="Canby"/><tag k="addr:street" v="Northeast 4th Avenue"/></node>
<node id="-25" lat="45.265625826" lon="-122.693484676" visible="true"><tag k="addr:housenumber" v="166"/><tag k="addr:postcode" v="97013"/><tag k="addr:city" v="Canby"/><tag k="addr:street" v="Northeast 4th Avenue"/></node>
<node id="-26" lat="45.265666803" lon="-122.693508003" visible="true"><tag k="addr:housenumber" v="168"/><tag k="addr:postcode" v="97013"/><tag k="addr:city" v="Canby"/><tag k="addr:street" v="Northeast 4th Avenue"/></node>
<node id="-27" lat="45.26570906" lon="-122.693535549" visible="true"><tag k="addr:housenumber" v="170"/><tag k="addr:postcode" v="97013"/><tag k="addr:city" v="Canby"/><tag k="addr:street" v="Northeast 4th Avenue"/></node>
<node id="-28" lat="45.2657485" lon="-122.693566532" visible="true"><tag k="addr:housenumber" v="172"/><tag k="addr:postcode" v="97013"/><tag k="addr:city" v="Canby"/><tag k="addr:street" v="Northeast 4th Avenue"/></node>
<node id="-29" lat="45.265790358" lon="-122.693599966" visible="true"><tag k="addr:housenumber" v="174"/><tag k="addr:postcode" v="97013"/><tag k="addr:city" v="Canby"/><tag k="addr:street" v="Northeast 4th Avenue"/></node>
<node id="-30" lat="45.265820671" lon="-122.69361824" visible="true"><tag k="addr:housenumber" v="176"/><tag k="addr:postcode" v="97013"/><tag k="addr:city" v="Canby"/><tag k="addr:street" v="Northeast 4th Avenue"/></node>
<node id="-31" lat="45.265867094" lon="-122.693649123" visible="true"><tag k="addr:housenumber" v="178"/><tag k="addr:postcode" v="97013"/><tag k="addr:city" v="Canby"/><tag k="addr:street" v="Northeast 4th Avenue"/></node>
<node id="-32" lat="45.265903729" lon="-122.693686189" visible="true"><tag k="addr:housenumber" v="180"/><tag k="addr:postcode" v="97013"/><tag k="addr:city" v="Canby"/><tag k="addr:street" v="Northeast 4th Avenue"/></node>
<node id="-33" lat="45.265943512" lon="-122.693705009" visible="true"><tag k="addr:housenumber" v="182"/><tag k="addr:postcode" v="97013"/><tag k="addr:city" v="Canby"/><tag k="addr:street" v="Northeast 4th Avenue"/></node>
<node id="-34" lat="45.266249133" lon="-122.693798043" visible="true"><tag k="addr:housenumber" v="173"/><tag k="addr:postcode" v="97013"/><tag k="addr:city" v="Canby"/><tag k="addr:street" v="Northeast 5th Avenue"/></node>
<node id="-35" lat="45.266213875" lon="-122.693767976" visible="true"><tag k="addr:housenumber" v="175"/><tag k="addr:postcode" v="97013"/><tag k="addr:city" v="Canby"/><tag k="addr:street" v="Northeast 5th Avenue"/></node>
<node id="-36" lat="45.266174543" lon="-122.693740173" visible="true"><tag k="addr:housenumber" v="177"/><tag k="addr:postcode" v="97013"/><tag k="addr:city" v="Canby"/><tag k="addr:street" v="Northeast 5th Avenue"/></node>
<node id="-37" lat="45.266139202" lon="-122.693716033" visible="true"><tag k="addr:housenumber" v="179"/><tag k="addr:postcode" v="97013"/><tag k="addr:city" v="Canby"/><tag k="addr:street" v="Northeast 5th Avenue"/></node>
<node id="-38" lat="45.266104543" lon="-122.693689115" visible="true"><tag k="addr:housenumber" v="181"/><tag k="addr:postcode" v="97013"/><tag k="addr:city" v="Canby"/><tag k="addr:street" v="Northeast 5th Avenue"/></node>
<node id="-39" lat="45.266202574" lon="-122.693375878" visible="true"><tag k="addr:housenumber" v="183"/><tag k="addr:postcode" v="97013"/><tag k="addr:city" v="Canby"/><tag k="addr:street" v="Northeast 5th Avenue"/></node>
<node id="-40" lat="45.266245623" lon="-122.693406277" visible="true"><tag k="addr:housenumber" v="185"/><tag k="addr:postcode" v="97013"/><tag k="addr:city" v="Canby"/><tag k="addr:street" v="Northeast 5th Avenue"/></node>
<node id="-41" lat="45.266289495" lon="-122.693432441" visible="true"><tag k="addr:housenumber" v="187"/><tag k="addr:postcode" v="97013"/><tag k="addr:city" v="Canby"/><tag k="addr:street" v="Northeast 5th Avenue"/></node>
<node id="-42" lat="45.266321822" lon="-122.693464205" visible="true"><tag k="addr:housenumber" v="189"/><tag k="addr:postcode" v="97013"/><tag k="addr:city" v="Canby"/><tag k="addr:street" v="Northeast 5th Avenue"/></node>
<node id="-43" lat="45.266369522" lon="-122.693486668" visible="true"><tag k="addr:housenumber" v="191"/><tag k="addr:postcode" v="97013"/><tag k="addr:city" v="Canby"/><tag k="addr:street" v="Northeast 5th Avenue"/></node>
<node id="-44" lat="45.266447631" lon="-122.693245907" visible="true"><tag k="addr:housenumber" v="193"/><tag k="addr:postcode" v="97013"/><tag k="addr:city" v="Canby"/><tag k="addr:street" v="Northeast 5th Avenue"/></node>
<node id="-45" lat="45.266412266" lon="-122.693222624" visible="true"><tag k="addr:housenumber" v="195"/><tag k="addr:postcode" v="97013"/><tag k="addr:city" v="Canby"/><tag k="addr:street" v="Northeast 5th Avenue"/></node>
<node id="-46" lat="45.266375496" lon="-122.693189942" visible="true"><tag k="addr:housenumber" v="197"/><tag k="addr:postcode" v="97013"/><tag k="addr:city" v="Canby"/><tag k="addr:street" v="Northeast 5th Avenue"/></node>
<node id="-47" lat="45.266331171" lon="-122.693163481" visible="true"><tag k="addr:housenumber" v="199"/><tag k="addr:postcode" v="97013"/><tag k="addr:city" v="Canby"/><tag k="addr:street" v="Northeast 5th Avenue"/></node>
<node id="-48" lat="45.266287719" lon="-122.693132528" visible="true"><tag k="addr:housenumber" v="201"/><tag k="addr:postcode" v="97013"/><tag k="addr:city" v="Canby"/><tag k="addr:street" v="Northeast 5th Avenue"/></node>
<node id="-49" lat="45.263011503" lon="-122.693779584" visible="true"><tag k="addr:housenumber" v="170"/><tag k="addr:postcode" v="97013"/><tag k="addr:city" v="Canby"/><tag k="addr:street" v="Northwest 1st Avenue"/></node>
<node id="-50" lat="45.263424169" lon="-122.694079431" visible="true"><tag k="addr:housenumber" v="160"/><tag k="addr:postcode" v="97013"/><tag k="addr:city" v="Canby"/><tag k="addr:street" v="Northwest 2nd Avenue"/></node>
<node id="-51" lat="45.263385788" lon="-122.694206825" visible="true"><tag k="addr:housenumber" v="170"/><tag k="addr:postcode" v="97013"/><tag k="addr:city" v="Canby"/><tag k="addr:street" v="Northwest 2nd Avenue"/></node>
<node id="-52" lat="45.263356223" lon="-122.694323687" visible="true"><tag k="addr:housenumber" v="190"/><tag k="addr:postcode" v="97013"/><tag k="addr:city" v="Canby"/><tag k="addr:street" v="Northwest 2nd Avenue"/></node>
<node id="-53" lat="45.262074087" lon="-122.696473863" visible="true"><tag k="addr:housenumber" v="351"/><tag k="addr:postcode" v="97013"/><tag k="addr:city" v="Canby"/><tag k="addr:street" v="Northwest 2nd Avenue"/></node>
<node id="-54" lat="45.2621324" lon="-122.696511746" visible="true"><tag k="addr:housenumber" v="353"/><tag k="addr:postcode" v="97013"/><tag k="addr:city" v="Canby"/><tag k="addr:street" v="Northwest 2nd Avenue"/></node>
<node id="-55" lat="45.262209184" lon="-122.69656199" visible="true"><tag k="addr:housenumber" v="355"/><tag k="addr:postcode" v="97013"/><tag k="addr:city" v="Canby"/><tag k="addr:street" v="Northwest 2nd Avenue"/></node>
<node id="-56" lat="45.261388218" lon="-122.698825694" visible="true"><tag k="addr:housenumber" v="541"/><tag k="addr:postcode" v="97013"/><tag k="addr:city" v="Canby"/><tag k="addr:street" v="Northwest 2nd Avenue"/></node>
<node id="-57" lat="45.261386278" lon="-122.698826561" visible="true"><tag k="addr:housenumber" v="549"/><tag k="addr:postcode" v="97013"/><tag k="addr:city" v="Canby"/><tag k="addr:street" v="Northwest 2nd Avenue"/></node>
<node id="-58" lat="45.264080557" lon="-122.694023827" visible="true"><tag k="addr:housenumber" v="131"/><tag k="addr:postcode" v="97013"/><tag k="addr:city" v="Canby"/><tag k="addr:street" v="Northwest 3rd Avenue"/></node>
<node id="-59" lat="45.264084199" lon="-122.694018022" visible="true"><tag k="addr:housenumber" v="145"/><tag k="addr:postcode" v="97013"/><tag k="addr:city" v="Canby"/><tag k="addr:street" v="Northwest 3rd Avenue"/></node>
<node id="-60" lat="45.264344728" lon="-122.694473388" visible="true"><tag k="addr:housenumber" v="158"/><tag k="addr:postcode" v="97013"/><tag k="addr:city" v="Canby"/><tag k="addr:street" v="Northwest 3rd Avenue"/></node>
<node id="-61" lat="45.264324678" lon="-122.694507958" visible="true"><tag k="addr:housenumber" v="160"/><tag k="addr:postcode" v="97013"/><tag k="addr:city" v="Canby"/><tag k="addr:street" v="Northwest 3rd Avenue"/></node>
<node id="-62" lat="45.264321875" lon="-122.694539829" visible="true"><tag k="addr:housenumber" v="162"/><tag k="addr:postcode" v="97013"/><tag k="addr:city" v="Canby"/><tag k="addr:street" v="Northwest 3rd Avenue"/></node>
<node id="-63" lat="45.264303301" lon="-122.694582659" visible="true"><tag k="addr:housenumber" v="166"/><tag k="addr:postcode" v="97013"/><tag k="addr:city" v="Canby"/><tag k="addr:street" v="Northwest 3rd Avenue"/></node>
<node id="-64" lat="45.264295187" lon="-122.694610511" visible="true"><tag k="addr:housenumber" v="168"/><tag k="addr:postcode" v="97013"/><tag k="addr:city" v="Canby"/><tag k="addr:street" v="Northwest 3rd Avenue"/></node>
<node id="-65" lat="45.264288593" lon="-122.694631169" visible="true"><tag k="addr:housenumber" v="170"/><tag k="addr:postcode" v="97013"/><tag k="addr:city" v="Canby"/><tag k="addr:street" v="Northwest 3rd Avenue"/></node>
<node id="-66" lat="45.264276134" lon="-122.694654516" visible="true"><tag k="addr:housenumber" v="174"/><tag k="addr:postcode" v="97013"/><tag k="addr:city" v="Canby"/><tag k="addr:street" v="Northwest 3rd Avenue"/></node>
<node id="-67" lat="45.266041316" lon="-122.693429735" visible="true"><tag k="addr:housenumber" v="188"/><tag k="addr:postcode" v="97013"/><tag k="addr:city" v="Canby"/><tag k="addr:street" v="Northwest 4th Avenue"/></node>
<node id="-68" lat="45.266068922" lon="-122.693366667" visible="true"><tag k="addr:housenumber" v="190"/><tag k="addr:postcode" v="97013"/><tag k="addr:city" v="Canby"/><tag k="addr:street" v="Northwest 4th Avenue"/></node>
<node id="-69" lat="45.2660832" lon="-122.693322045" visible="true"><tag k="addr:housenumber" v="192"/><tag k="addr:postcode" v="97013"/><tag k="addr:city" v="Canby"/><tag k="addr:street" v="Northwest 4th Avenue"/></node>
<node id="-70" lat="45.266101262" lon="-122.693260036" visible="true"><tag k="addr:housenumber" v="194"/><tag k="addr:postcode" v="97013"/><tag k="addr:city" v="Canby"/><tag k="addr:street" v="Northwest 4th Avenue"/></node>
<node id="-71" lat="45.266122701" lon="-122.693205215" visible="true"><tag k="addr:housenumber" v="196"/><tag k="addr:postcode" v="97013"/><tag k="addr:city" v="Canby"/><tag k="addr:street" v="Northwest 4th Avenue"/></node>
<node id="-72" lat="45.266145951" lon="-122.69314736" visible="true"><tag k="addr:housenumber" v="198"/><tag k="addr:postcode" v="97013"/><tag k="addr:city" v="Canby"/><tag k="addr:street" v="Northwest 4th Avenue"/></node>
<node id="-73" lat="45.266163588" lon="-122.693097328" visible="true"><tag k="addr:housenumber" v="200"/><tag k="addr:postcode" v="97013"/><tag k="addr:city" v="Canby"/><tag k="addr:street" v="Northwest 4th Avenue"/></node>
<node id="-74" lat="45.266187011" lon="-122.693029778" visible="true"><tag k="addr:housenumber" v="202"/><tag k="addr:postcode" v="97013"/><tag k="addr:city" v="Canby"/><tag k="addr:street" v="Northwest 4th Avenue"/></node>
<node id="-75" lat="45.266208489" lon="-122.692978909" visible="true"><tag k="addr:housenumber" v="204"/><tag k="addr:postcode" v="97013"/><tag k="addr:city" v="Canby"/><tag k="addr:street" v="Northwest 4th Avenue"/></node>
<node id="-76" lat="45.266233415" lon="-122.692919156" visible="true"><tag k="addr:housenumber" v="206"/><tag k="addr:postcode" v="97013"/><tag k="addr:city" v="Canby"/><tag k="addr:street" v="Northwest 4th Avenue"/></node>
<node id="-77" lat="45.263288" lon="-122.698782582" visible="true"><tag k="addr:housenumber" v="455"/><tag k="addr:postcode" v="97013"/><tag k="addr:city" v="Canby"/><tag k="addr:street" v="Northwest 4th Avenue"/></node>
<node id="-78" lat="45.263265686" lon="-122.698868537" visible="true"><tag k="addr:housenumber" v="465"/><tag k="addr:postcode" v="97013"/><tag k="addr:city" v="Canby"/><tag k="addr:street" v="Northwest 4th Avenue"/></node>
<node id="-79" lat="45.263279291" lon="-122.699058664" visible="true"><tag k="addr:housenumber" v="491"/><tag k="addr:postcode" v="97013"/><tag k="addr:city" v="Canby"/><tag k="addr:street" v="Northwest 4th Avenue"/></node>
<node id="-80" lat="45.263247306" lon="-122.699138005" visible="true"><tag k="addr:housenumber" v="493"/><tag k="addr:postcode" v="97013"/><tag k="addr:city" v="Canby"/><tag k="addr:street" v="Northwest 4th Avenue"/></node>
<node id="-81" lat="45.263416283" lon="-122.700150227" visible="true"><tag k="addr:housenumber" v="540"/><tag k="addr:postcode" v="97013"/><tag k="addr:city" v="Canby"/><tag k="addr:street" v="Northwest 4th Avenue"/></node>
<node id="-82" lat="45.263394726" lon="-122.70025583" visible="true"><tag k="addr:housenumber" v="550"/><tag k="addr:postcode" v="97013"/><tag k="addr:city" v="Canby"/><tag k="addr:street" v="Northwest 4th Avenue"/></node>
<node id="-83" lat="45.264361474" lon="-122.698989784" visible="true"><tag k="addr:housenumber" v="451"/><tag k="addr:postcode" v="97013"/><tag k="addr:city" v="Canby"/><tag k="addr:street" v="Northwest 5th Avenue"/></node>
<node id="-84" lat="45.264247391" lon="-122.69915123" visible="true"><tag k="addr:housenumber" v="453"/><tag k="addr:postcode" v="97013"/><tag k="addr:city" v="Canby"/><tag k="addr:street" v="Northwest 5th Avenue"/></node>
<node id="-85" lat="45.264212111" lon="-122.699231176" visible="true"><tag k="addr:housenumber" v="455"/><tag k="addr:postcode" v="97013"/><tag k="addr:city" v="Canby"/><tag k="addr:street" v="Northwest 5th Avenue"/></node>
<node id="-86" lat="45.268792878" lon="-122.697246821" visible="true"><tag k="addr:housenumber" v="201"/><tag k="addr:postcode" v="97013"/><tag k="addr:city" v="Canby"/><tag k="addr:street" v="Northwest 9th Avenue"/></node>
<node id="-87" lat="45.268792249" lon="-122.697384496" visible="true"><tag k="addr:housenumber" v="211"/><tag k="addr:postcode" v="97013"/><tag k="addr:city" v="Canby"/><tag k="addr:street" v="Northwest 9th Avenue"/></node>
<node id="-88" lat="45.266958722" lon="-122.698432983" visible="true"><tag k="addr:housenumber" v="295"/><tag k="addr:postcode" v="97013"/><tag k="addr:city" v="Canby"/><tag k="addr:street" v="Northwest Knights Bridge Road"/></node>
<node id="-89" lat="45.267098745" lon="-122.699125518" visible="true"><tag k="addr:housenumber" v="312"/><tag k="addr:postcode" v="97013"/><tag k="addr:city" v="Canby"/><tag k="addr:street" v="Northwest Knights Bridge Road"/></node>
<node id="-90" lat="45.26707041" lon="-122.699198202" visible="true"><tag k="addr:housenumber" v="314"/><tag k="addr:postcode" v="97013"/><tag k="addr:city" v="Canby"/><tag k="addr:street" v="Northwest Knights Bridge Road"/></node>
<node id="-91" lat="45.267048518" lon="-122.699271047" visible="true"><tag k="addr:housenumber" v="316"/><tag k="addr:postcode" v="97013"/><tag k="addr:city" v="Canby"/><tag k="addr:street" v="Northwest Knights Bridge Road"/></node>
<node id="-92" lat="45.262265025" lon="-122.692939525" visible="true"><tag k="addr:housenumber" v="120"/><tag k="addr:postcode" v="97013"/><tag k="addr:city" v="Canby"/><tag k="addr:street" v="Southwest 1st Avenue"/></node>
<node id="-93" lat="45.262125496" lon="-122.693345619" visible="true"><tag k="addr:housenumber" v="158"/><tag k="addr:postcode" v="97013"/><tag k="addr:city" v="Canby"/><tag k="addr:street" v="Southwest 1st Avenue"/></node>
</osm>