<?xml version="1.0"?>
<osm version="0.6" upload="false" generator="uvmogr2osm">
<node id="-1" lat="45.266849893" lon="-122.691704869" visible="true"><tag k="addr:housenumber" v="464"/><tag k="addr:postcode" v="97013"/><tag k="addr:city" v="Canby"/><tag k="addr:street" v="North Knott Street"/></node>
<node id="-2" lat="45.266813993" lon="-122.691702949" visible="true"><tag k="addr:housenumber" v="474"/><tag k="addr:postcode" v="97013"/><tag k="addr:city" v="Canby"/><tag k="addr:street" v="North Knott Street"/></node>
<node id="-3" lat="45.266770858" lon="-122.691702216" visible="true"><tag k="addr:housenumber" v="484"/><tag k="addr:postcode" v="97013"/><tag k="addr:city" v="Canby"/><tag k="addr:street" v="North Knott Street"/></node>
<node id="-4" lat="45.266982549" lon="-122.691741984" visible="true"><tag k="addr:housenumber" v="566"/><tag k="addr:postcode" v="97013"/><tag k="addr:city" v="Canby"/><tag k="addr:street" v="North Knott Street"/></node>
<node id="-5" lat="45.267048272" lon="-122.691741569" visible="true"><tag k="addr:housenumber" v="568"/><tag k="addr:postcode" v="97013"/><tag k="addr:city" v="Canby"/><tag k="addr:street" v="North Knott Street"/></node>
<node id="-6" lat="45.266523426" lon="-122.673451464" visible="true"><tag k="addr:housenumber" v="195"/><tag k="addr:postcode" v="97013"/><tag k="addr:city" v="Canby"/><tag k="addr:street" v="South Hazel Dell Way"/></node>
<node id="-7" lat="45.266120875" lon="-122.673453581" visible="true"><tag k="addr:housenumber" v="197"/><tag k="addr:postcode" v="97013"/><tag k="addr:city" v="Canby"/><tag k="addr:street" v="South Hazel Dell Way"/></node>
<node id="-8" lat="45.261157177" lon="-122.680646883" visible="true"><tag k="addr:housenumber" v="433"/><tag k="addr:postcode" v="97013"/><tag k="addr:city" v="Canby"/><tag k="addr:street" v="South Pine Street"/></node>
<node id="-9" lat="45.261103012" lon="-122.680639336" visible="true"><tag k="addr:housenumber" v="435"/><tag k="addr:postcode" v="97013"/><tag k="addr:city" v="Canby"/><tag k="addr:street" v="South Pine Street"/></node>
<node id="-10" lat="45.260990557" lon="-122.680644085" visible="true"><tag k="addr:housenumber" v="441"/><tag k="addr:postcode" v="97013"/><tag k="addr:city" v="Canby"/><tag k="addr:street" v="South Pine Street"/></node>
<node id="-11" lat="45.260932428" lon="-122.680645187" visible="true"><tag k="addr:housenumber" v="443"/><tag k="addr:postcode" v="97013"/><tag k="addr:city" v="Canby"/><tag k="addr:street" v="South Pine Street"/></node>
<node id="-12" lat="45.260824689" lon="-122.680656754" visible="true"><tag k="addr:housenumber" v="447"/><tag k="addr:postcode" v="97013"/><tag k="addr:city" v="Canby"/><tag k="addr:street" v="South Pine Street"/></node>
<node id="-13" lat="45.260769539" lon="-122.680651748" visible="true"><tag k="addr:housenumber" v="449"/><tag k="addr:postcode" v="97013"/><tag k="addr:city" v="Canby"/><tag k="addr:street" v="South Pine Street"/></node>
<node id="-14" lat="45.260651277" lon="-122.680648389" visible="true"><tag k="addr:housenumber" v="453"/><tag k="addr:postcode" v="97013"/><tag k="addr:city" v="Canby"/><tag k="addr:street" v="South Pine Street"/></node>
<node id="-15" lat="45.26060073" lon="-122.680656089" visible="true"><tag k="addr:housenumber" v="455"/><tag k="addr:postcode" v="97013"/><tag k="addr:city" v="Canby"/><tag k="addr:street" v="South Pine Street"/></node>
<node id="-16" lat="45.260489671" lon="-122.680657576" visible="true"><tag k="addr:housenumber" v="465"/><tag k="addr:postcode" v="97013"/><tag k="addr:city" v="Canby"/><tag k="addr:street" v="South Pine Street"/></node>
<node id="-17" lat="45.260441333" lon="-122.680655422" visible="true"><tag k="addr:housenumber" v="467"/><tag k="addr:postcode" v="97013"/><tag k="addr:city" v="Canby"/><tag k="addr:street" v="South Pine Street"/></node>
<node id="-18" lat="45.260324469" lon="-122.680647946" visible="true"><tag k="addr:housenumber" v="471"/><tag k="addr:postcode" v="97013"/><tag k="addr:city" v="Canby"/><tag k="addr:street" v="South Pine Street"/></node>
<node id="-19" lat="45.260268509" lon="-122.680643947" visible="true"><tag k="addr:housenumber" v="473"/><tag k="addr:postcode" v="97013"/><tag k="addr:city" v="Canby"/><tag k="addr:street" v="South Pine Street"/></node>
<node id="-20" lat="45.260077368" lon="-122.68090531" visible="true"><tag k="addr:housenumber" v="487"/><tag k="addr:postcode" v="97013"/><tag k="addr:city" v="Canby"/><tag k="addr:street" v="South Pine Street"/></node>
<node id="-21" lat="45.260082579" lon="-122.680802477" visible="true"><tag k="addr:housenumber" v="489"/><tag k="addr:postcode" v="97013"/><tag k="addr:city" v="Canby"/><tag k="addr:street" v="South Pine Street"/></node>
<node id="-22" lat="45.259867931" lon="-122.680653395" visible="true"><tag k="addr:housenumber" v="491"/><tag k="addr:postcode" v="97013"/><tag k="addr:city" v="Canby"/><tag k="addr:street" v="South Pine Street"/></node>
<node id="-23" lat="45.259816853" lon="-122.680653941" visible="true"><tag k="addr:housenumber" v="493"/><tag k="addr:postcode" v="97013"/><tag k="addr:city" v="Canby"/><tag k="addr:street" v="South Pine Street"/></node>
</osm>