<?xml version="1.0"?>
<osm version="0.6" upload="false" generator="uvmogr2osm">
<node id="-1" lat="45.275595383" lon="-122.792787993" visible="true"><tag k="addr:housenumber" v="13114"/><tag k="addr:postcode" v="97002"/><tag k="addr:city" v="Aurora"/><tag k="addr:street" v="Northeast Denbrook Road"/></node>
<node id="-2" lat="45.275602502" lon="-122.792671187" visible="true"><tag k="addr:housenumber" v="13116"/><tag k="addr:postcode" v="97002"/><tag k="addr:city" v="Aurora"/><tag k="addr:street" v="Northeast Denbrook Road"/></node>
<node id="-3" lat="45.304374827" lon="-122.781888178" visible="true"><tag k="addr:housenumber" v="29805"/><tag k="addr:postcode" v="97070"/><tag k="addr:city" v="Wilsonville"/><tag k="addr:street" v="Southwest Montebello Drive"/></node>
<node id="-4" lat="45.304310514" lon="-122.78188448" visible="true"><tag k="addr:housenumber" v="29815"/><tag k="addr:postcode" v="97070"/><tag k="addr:city" v="Wilsonville"/><tag k="addr:street" v="Southwest Montebello Drive"/></node>
<node id="-5" lat="45.30418566" lon="-122.781894823" visible="true"><tag k="addr:housenumber" v="29825"/><tag k="addr:postcode" v="97070"/><tag k="addr:city" v="Wilsonville"/><tag k="addr:street" v="Southwest Montebello Drive"/></node>
<node id="-6" lat="45.304127471" lon="-122.781890978" visible="true"><tag k="addr:housenumber" v="29835"/><tag k="addr:postcode" v="97070"/><tag k="addr:city" v="Wilsonville"/><tag k="addr:street" v="Southwest Montebello Drive"/></node>
<node id="-7" lat="45.304033177" lon="-122.78188284" visible="true"><tag k="addr:housenumber" v="29855"/><tag k="addr:postcode" v="97070"/><tag k="addr:city" v="Wilsonville"/><tag k="addr:street" v="Southwest Montebello Drive"/></node>
<node id="-8" lat="45.303964808" lon="-122.781879718" visible="true"><tag k="addr:housenumber" v="29865"/><tag k="addr:postcode" v="97070"/><tag k="addr:city" v="Wilsonville"/><tag k="addr:street" v="Southwest Montebello Drive"/></node>
<node id="-9" lat="45.303839791" lon="-122.781895804" visible="true"><tag k="addr:housenumber" v="29875"/><tag k="addr:postcode" v="97070"/><tag k="addr:city" v="Wilsonville"/><tag k="addr:street" v="Southwest Montebello Drive"/></node>
<node id="-10" lat="45.303779594" lon="-122.781891563" visible="true"><tag k="addr:housenumber" v="29885"/><tag k="addr:postcode" v="97070"/><tag k="addr:city" v="Wilsonville"/><tag k="addr:street" v="Southwest Montebello Drive"/></node>
<node id="-11" lat="45.303689487" lon="-122.781891051" visible="true"><tag k="addr:housenumber" v="29905"/><tag k="addr:postcode" v="97070"/><tag k="addr:city" v="Wilsonville"/><tag k="addr:street" v="Southwest Montebello Drive"/></node>
<node id="-12" lat="45.303624119" lon="-122.781889084" visible="true"><tag k="addr:housenumber" v="29925"/><tag k="addr:postcode" v="97070"/><tag k="addr:city" v="Wilsonville"/><tag k="addr:street" v="Southwest Montebello Drive"/></node>
<node id="-13" lat="45.303501584" lon="-122.781879878" visible="true"><tag k="addr:housenumber" v="29935"/><tag k="addr:postcode" v="97070"/><tag k="addr:city" v="Wilsonville"/><tag k="addr:street" v="Southwest Montebello Drive"/></node>
<node id="-14" lat="45.303439035" lon="-122.781875085" visible="true"><tag k="addr:housenumber" v="29945"/><tag k="addr:postcode" v="97070"/><tag k="addr:city" v="Wilsonville"/><tag k="addr:street" v="Southwest Montebello Drive"/></node>
<node id="-15" lat="45.30334716" lon="-122.781874906" visible="true"><tag k="addr:housenumber" v="29955"/><tag k="addr:postcode" v="97070"/><tag k="addr:city" v="Wilsonville"/><tag k="addr:street" v="Southwest Montebello Drive"/></node>
<node id="-16" lat="45.303285225" lon="-122.781875663" visible="true"><tag k="addr:housenumber" v="29965"/><tag k="addr:postcode" v="97070"/><tag k="addr:city" v="Wilsonville"/><tag k="addr:street" v="Southwest Montebello Drive"/></node>
</osm>