<?xml version="1.0"?>
<osm version="0.6" upload="false" generator="uvmogr2osm">
<node id="-1" lat="45.33015341" lon="-122.760112441" visible="true"><tag k="addr:housenumber" v="7930"/><tag k="addr:postcode" v="97070"/><tag k="addr:city" v="Wilsonville"/><tag k="addr:street" v="Southwest Burns Way"/></node>
<node id="-2" lat="45.329760197" lon="-122.760082745" visible="true"><tag k="addr:housenumber" v="7936"/><tag k="addr:postcode" v="97070"/><tag k="addr:city" v="Wilsonville"/><tag k="addr:street" v="Southwest Burns Way"/></node>
<node id="-3" lat="45.329341923" lon="-122.76006094" visible="true"><tag k="addr:housenumber" v="7940"/><tag k="addr:postcode" v="97070"/><tag k="addr:city" v="Wilsonville"/><tag k="addr:street" v="Southwest Burns Way"/></node>
<node id="-4" lat="45.322924047" lon="-122.766511235" visible="true"><tag k="addr:housenumber" v="27100"/><tag k="addr:postcode" v="97070"/><tag k="addr:city" v="Wilsonville"/><tag k="addr:street" v="Southwest Parkway Avenue"/></node>
<node id="-5" lat="45.322927936" lon="-122.766508984" visible="true"><tag k="addr:housenumber" v="27200"/><tag k="addr:postcode" v="97070"/><tag k="addr:city" v="Wilsonville"/><tag k="addr:street" v="Southwest Parkway Avenue"/></node>
</osm>